{"type":"FeatureCollection", "features": [
{"type":"Feature","geometry":{"type":"Polygon","coordinates":[[[-72.952927,44.161368],[-72.957383,44.184968],[-72.960666,44.203838],[-72.961635,44.206864],[-72.961656,44.210947],[-72.963494,44.218571],[-72.964486,44.226271],[-72.965684,44.230999],[-72.965966,44.232576],[-72.968081,44.244862],[-72.968068,44.244987],[-72.96779,44.245486],[-72.971962,44.27998],[-72.973718,44.28166],[-72.97382,44.293434],[-72.984199,44.296528],[-72.999905,44.300151],[-73.010347,44.301726],[-73.012778,44.301852],[-73.012858,44.301861],[-73.015184,44.302119],[-73.020102,44.302866],[-73.017475,44.289594],[-73.01751,44.289519],[-73.016573,44.284692],[-73.068391,44.279971],[-73.069323,44.283677],[-73.072342,44.283306],[-73.080562,44.282095],[-73.144976,44.272972],[-73.15986,44.271628],[-73.168201,44.270022],[-73.197191,44.266712],[-73.228316,44.263736],[-73.229707,44.263449],[-73.230882,44.263338],[-73.249223,44.261649],[-73.26727,44.260409],[-73.270726,44.260123],[-73.31348077,44.26408094],[-73.316618,44.257769],[-73.319802,44.249547],[-73.323596,44.243897],[-73.324681,44.243614],[-73.329322,44.244504],[-73.3305,44.244254],[-73.334042,44.240971],[-73.336778,44.239557],[-73.34323,44.238049],[-73.342312,44.234531],[-73.349889,44.230356],[-73.350806,44.225943],[-73.354747,44.223599],[-73.355252,44.22287],[-73.355276,44.219554],[-73.357908,44.216193],[-73.361476,44.210374],[-73.362013,44.208545],[-73.370678,44.204546],[-73.372405,44.202165],[-73.375289,44.199868],[-73.377693,44.199453],[-73.382252,44.197178],[-73.383987,44.193158],[-73.385326,44.192597],[-73.388502,44.192318],[-73.390583,44.190886],[-73.390805,44.189072],[-73.389658,44.181249],[-73.390383,44.179486],[-73.395862,44.175785],[-73.396892,44.173846],[-73.397385,44.171596],[-73.396664,44.168831],[-73.395399,44.166903],[-73.395532,44.166122],[-73.398728,44.162248],[-73.399634,44.155326],[-73.40050723,44.15231564],[-73.402381,44.145856],[-73.403268,44.144295],[-73.408118,44.139373],[-73.41172,44.137825],[-73.415761,44.132826],[-73.41578,44.131523],[-73.413751,44.126068],[-73.41244382,44.12057386],[-73.411722,44.11754],[-73.411316,44.112686],[-73.41319053,44.10771623],[-73.416319,44.099422],[-73.429239,44.079414],[-73.430207,44.071716],[-73.431991,44.06345],[-73.43774,44.045006],[-73.43688,44.042578],[-73.430772,44.038746],[-73.427987,44.037708],[-73.42312,44.032759],[-73.42016,44.032004],[-73.4179406,44.03105512],[-73.41594107,44.03020025],[-73.414364,44.029526],[-73.41382865,44.02914075],[-73.41187138,44.02773226],[-73.410776,44.026944],[-73.41023885,44.02594788],[-73.40852243,44.02276484],[-73.407739,44.021312],[-73.40747079,44.02052848],[-73.40738404,44.02027506],[-73.405999,44.016229],[-73.405977,44.011485],[-73.40932919,43.99533225],[-73.411224,43.986202],[-73.412581,43.98272],[-73.412613,43.97998],[-73.411248,43.975596],[-73.406823,43.967317],[-73.405525,43.948813],[-73.408589,43.932933],[-73.407742,43.929887],[-73.400926,43.917048],[-73.397256,43.905668],[-73.395878,43.903044],[-73.383491,43.890951],[-73.376312,43.880292],[-73.37420412,43.87588326],[-73.374051,43.875563],[-73.37415,43.874163],[-73.379334,43.864648],[-73.381501,43.859235],[-73.382046,43.855008],[-73.380987,43.852633],[-73.373742,43.847693],[-73.37324805,43.84714232],[-73.37277925,43.84661968],[-73.372462,43.846266],[-73.372247,43.845337],[-73.37359103,43.84279352],[-73.37363573,43.84270891],[-73.373688,43.84261],[-73.376598,43.839357],[-73.381865,43.837315],[-73.388389,43.832404],[-73.390194,43.829364],[-73.392751,43.822196],[-73.392492,43.820779],[-73.390302,43.817371],[-73.383259,43.81331],[-73.380804,43.810951],[-73.379279,43.808391],[-73.37827,43.805995],[-73.377232,43.800565],[-73.376361,43.798766],[-73.368184,43.793346],[-73.362498,43.790211],[-73.357547,43.785933],[-73.355545,43.778468],[-73.354758,43.776721],[-73.350593,43.771939],[-73.3506144,43.77166192],[-73.35066296,43.77103315],[-73.350707,43.770463],[-73.354597,43.764167],[-73.36300082,43.75311616],[-73.257838,43.761888],[-73.237938,43.763867],[-73.231379,43.76448],[-73.206217,43.766689],[-73.216516,43.823157],[-73.218416,43.837131],[-73.155523,43.839932],[-73.156296,43.842704],[-73.106088,43.844065],[-73.084504,43.844836],[-73.030535,43.846889],[-73.029792,43.844853],[-73.031828,43.842866],[-73.029746,43.84169],[-73.029695,43.841677],[-73.027382,43.841783],[-73.01658,43.805017],[-72.994912,43.812601],[-72.987379,43.815987],[-72.980988,43.818374],[-72.958865,43.826637],[-72.96414,43.840335],[-72.971801,43.868361],[-72.952316,43.874737],[-72.952607,43.875064],[-72.922405,43.885733],[-72.91501,43.888334],[-72.900069,43.893589],[-72.876306,43.901991],[-72.875701,43.887063],[-72.874553,43.864539],[-72.865457,43.861444],[-72.862261,43.866102],[-72.85785,43.872961],[-72.832704,43.912299],[-72.831381,43.913528],[-72.825639,43.923277],[-72.820246,43.930357],[-72.819427,43.931625],[-72.815691,43.937415],[-72.809823,43.935853],[-72.806827,43.939931],[-72.803735,43.945158],[-72.791012,43.961667],[-72.769536,43.991247],[-72.760888,44.00283],[-72.74157,44.029511],[-72.821487,44.052539],[-72.846238,44.058978],[-72.851968,44.061243],[-72.85539,44.062012],[-72.896803,44.073682],[-72.916606,44.072011],[-72.928749,44.127232],[-72.93346,44.153559],[-72.93441,44.163654],[-72.952927,44.161368]]]},"properties":{"name":"Addison=ADD","type":"county"}},
{"type":"Feature","geometry":{"type":"Polygon","coordinates":[[[-73.25451394,43.3146702],[-73.256493,43.259249],[-73.258718,43.229894],[-73.25872173,43.22982125],[-73.25938739,43.21684298],[-73.26418021,43.12339764],[-73.26463939,43.11444497],[-73.265574,43.096223],[-73.26878239,43.05022534],[-73.26978,43.035923],[-73.27001507,43.03111799],[-73.27003474,43.03071576],[-73.27055302,43.02012169],[-73.27334724,42.9630048],[-73.274294,42.943652],[-73.274393,42.942482],[-73.274466,42.940361],[-73.27465008,42.93442976],[-73.275804,42.897249],[-73.27848665,42.83755643],[-73.278673,42.83341],[-73.284311,42.834954],[-73.285388,42.834093],[-73.287063,42.82014],[-73.28375,42.813864],[-73.28526923,42.81044265],[-73.286337,42.808038],[-73.290944,42.80192],[-73.276421,42.746019],[-73.264957,42.74594],[-73.14248944,42.74350789],[-73.10974147,42.74285754],[-73.022903,42.741133],[-73.01864581,42.74104236],[-72.93026047,42.73916046],[-72.930151,42.745045],[-72.928998,42.765328],[-72.92897,42.766043],[-72.928913,42.767534],[-72.928717,42.773673],[-72.927716,42.799909],[-72.926024,42.829915],[-72.925482,42.841712],[-72.92482,42.856164],[-72.924111,42.871695],[-72.921376,42.926792],[-72.992451,42.929566],[-73.008063,42.930087],[-73.007365,42.94113],[-73.006373,42.960622],[-73.005253,42.970096],[-73.005686,42.97284],[-73.002883,43.021429],[-73.002796,43.022882],[-73.002789,43.023007],[-73.000798,43.056783],[-72.999547,43.088067],[-72.998577,43.096858],[-72.99938,43.097861],[-72.99908,43.102052],[-72.998903,43.103947],[-72.998677,43.109304],[-72.997126,43.116994],[-72.996624,43.119082],[-72.978826,43.118285],[-72.962492,43.117554],[-72.916256,43.115547],[-72.911115,43.115309],[-72.911082,43.115307],[-72.870214,43.113243],[-72.868737,43.11317],[-72.867659,43.129888],[-72.867621,43.130386],[-72.86655,43.144816],[-72.865957,43.152682],[-72.865588,43.157563],[-72.864931,43.166229],[-72.861994,43.205095],[-72.851393,43.205321],[-72.847918,43.262488],[-72.819368,43.255498],[-72.819483,43.265066],[-72.819778,43.289271],[-72.8199,43.29921],[-72.861262,43.300543],[-72.867902,43.300742],[-72.90715,43.302132],[-72.959738,43.3039],[-72.961335,43.303954],[-72.975913,43.304444],[-72.976152,43.291641],[-72.991296,43.291643],[-72.98613,43.304829],[-72.996291,43.305257],[-73.019868,43.306113],[-73.048343,43.307168],[-73.080718,43.307117],[-73.093351,43.3071],[-73.122704,43.308682],[-73.136037,43.309429],[-73.168534,43.311208],[-73.173447,43.311406],[-73.174248,43.311434],[-73.25451394,43.3146702]]]},"properties":{"name":"Bennington=BEN","type":"county"}},
{"type":"Feature","geometry":{"type":"Polygon","coordinates":[[[-71.939936,44.769032],[-71.950276,44.758952],[-71.950607,44.758585],[-71.958847,44.750086],[-71.959928,44.749625],[-71.974591,44.73538],[-71.974771,44.735186],[-71.976089,44.733763],[-71.9954,44.715164],[-72.002575,44.706344],[-72.002948,44.706065],[-72.007273,44.70299],[-72.010696,44.699614],[-72.012504,44.698821],[-72.036351,44.711121],[-72.114503,44.749624],[-72.100813,44.714476],[-72.095146,44.700011],[-72.088864,44.683714],[-72.109358,44.690747],[-72.145589,44.702653],[-72.146226,44.703325],[-72.146873,44.703032],[-72.158868,44.685588],[-72.199855,44.62841],[-72.202901,44.624073],[-72.207016,44.617438],[-72.208816,44.614535],[-72.218155,44.602206],[-72.21978,44.600803],[-72.226097,44.591711],[-72.237433,44.576818],[-72.257866,44.548899],[-72.259827,44.54559],[-72.262965,44.542336],[-72.266593,44.544303],[-72.267242,44.544547],[-72.268653,44.544573],[-72.280975,44.54965],[-72.322536,44.56502],[-72.354192,44.576537],[-72.374786,44.584125],[-72.38785,44.567083],[-72.394723,44.556887],[-72.396373,44.555888],[-72.398576,44.553005],[-72.403417,44.545482],[-72.411685,44.534382],[-72.419175,44.524889],[-72.42088,44.523797],[-72.429847,44.512045],[-72.434315,44.506098],[-72.4255,44.502596],[-72.403343,44.494088],[-72.374649,44.483164],[-72.371941,44.482113],[-72.350859,44.473996],[-72.348117,44.472931],[-72.321277,44.462572],[-72.30082,44.45469],[-72.277045,44.445563],[-72.238802,44.430515],[-72.23719,44.430035],[-72.236973,44.429199],[-72.230972,44.427489],[-72.223925,44.424667],[-72.223909,44.424587],[-72.227097,44.422119],[-72.228977,44.421181],[-72.2292,44.420381],[-72.228341,44.419488],[-72.227333,44.41927],[-72.222971,44.422583],[-72.222374,44.422757],[-72.220825,44.421665],[-72.219851,44.418865],[-72.22282,44.416063],[-72.22215,44.414167],[-72.218904,44.412313],[-72.21711,44.411083],[-72.225479,44.399979],[-72.226262,44.398726],[-72.224549,44.395985],[-72.229087,44.391162],[-72.240219,44.380321],[-72.247963,44.369843],[-72.249662,44.367162],[-72.254273,44.361075],[-72.267563,44.343747],[-72.269585,44.340461],[-72.282025,44.32927],[-72.289771,44.323567],[-72.292014,44.321754],[-72.295321,44.31908],[-72.308336,44.306161],[-72.31757,44.298423],[-72.317395,44.293961],[-72.316302,44.272583],[-72.327061,44.258388],[-72.329738,44.254806],[-72.333284,44.25006],[-72.336177,44.246264],[-72.368353,44.204057],[-72.321588,44.188629],[-72.30498,44.183149],[-72.24954,44.187528],[-72.237322,44.188057],[-72.210965,44.189741],[-72.199012,44.190573],[-72.175395,44.192186],[-72.17026,44.192053],[-72.166147,44.190938],[-72.110927,44.175333],[-72.109921,44.175046],[-72.083451,44.167775],[-72.083157,44.167671],[-72.070984,44.164364],[-72.065528,44.162794],[-72.047344,44.157836],[-72.046234,44.157563],[-72.042801,44.156613],[-72.040082,44.155749],[-72.040167,44.157023],[-72.042387,44.160817],[-72.04747756,44.16177918],[-72.047593,44.161801],[-72.053021,44.167903],[-72.057496,44.179444],[-72.061338,44.184951],[-72.066166,44.189773],[-72.064577,44.196949],[-72.063561,44.198457],[-72.060067,44.200446],[-72.058987,44.202114],[-72.058066,44.206067],[-72.058605,44.208215],[-72.053233,44.216876],[-72.052662,44.218841],[-72.0539,44.222703],[-72.053582,44.22604],[-72.050656,44.233581],[-72.047889,44.238493],[-72.04846,44.241212],[-72.04979849,44.24350817],[-72.050112,44.244046],[-72.05062539,44.24442727],[-72.05399,44.246926],[-72.05966582,44.25583563],[-72.059782,44.256018],[-72.061174,44.263377],[-72.060378,44.264951],[-72.059832,44.26498433],[-72.05896874,44.26591056],[-72.05863127,44.26726047],[-72.05847482,44.26788627],[-72.05874,44.270005],[-72.060846,44.269972],[-72.064544,44.267997],[-72.066464,44.268331],[-72.067774,44.270976],[-72.065434,44.277235],[-72.05888,44.28624],[-72.053355,44.290501],[-72.046302,44.291983],[-72.039004,44.296463],[-72.03703,44.297834],[-72.033465,44.301878],[-72.032541,44.303752],[-72.032317,44.306677],[-72.032341,44.315752],[-72.033806,44.317349],[-72.033136,44.320365],[-72.029061,44.322398],[-72.025783,44.322054],[-72.02154754,44.3209902],[-72.01913,44.320383],[-72.014543,44.321032],[-72.009977,44.321951],[-72.002314,44.324871],[-71.988306,44.329768],[-71.986484,44.331218],[-71.984617,44.336243],[-71.98112,44.3375],[-71.963133,44.336556],[-71.958119,44.337544],[-71.945163,44.337744],[-71.939049,44.335844],[-71.935395,44.33577],[-71.92911,44.337577],[-71.925088,44.342024],[-71.917434,44.346535],[-71.906909,44.348284],[-71.90272898,44.34756709],[-71.902332,44.347499],[-71.90009666,44.34670164],[-71.881895,44.340209],[-71.875863,44.33737],[-71.872472,44.336628],[-71.87159113,44.33674284],[-71.87075534,44.3368518],[-71.86991,44.336962],[-71.861941,44.340109],[-71.852628,44.340873],[-71.844319,44.344204],[-71.83764101,44.34778637],[-71.933288,44.441174],[-71.903549,44.454476],[-71.856637,44.496178],[-71.861209,44.500056],[-71.871839,44.510637],[-71.884835,44.524403],[-71.908657,44.54708],[-71.89867,44.557286],[-71.898111,44.557857],[-71.874003,44.580903],[-71.856286,44.59707],[-71.842732,44.611165],[-71.848307,44.614173],[-71.907402,44.645283],[-71.910085,44.64718],[-71.885979,44.669571],[-71.856485,44.698345],[-71.856071,44.69874],[-71.837294,44.716637],[-71.858382,44.72766],[-71.876889,44.736935],[-71.881573,44.739354],[-71.882733,44.740608],[-71.921857,44.759843],[-71.928757,44.762738],[-71.930969,44.765049],[-71.939936,44.769032]]]},"properties":{"name":"Caledonia=CAL","type":"county"}},
{"type":"Feature","geometry":{"type":"Polygon","coordinates":[[[-73.228854,44.722866],[-73.229363,44.709142],[-73.228668,44.705976],[-73.228098,44.688192],[-73.233336,44.673804],[-73.233642,44.671439],[-73.233209,44.649791],[-73.233762,44.648653],[-73.23802,44.64558],[-73.242007,44.644252],[-73.249574,44.642808],[-73.251156,44.642026],[-73.252756,44.641041],[-73.254484,44.637479],[-73.257022,44.628962],[-73.254465,44.607897],[-73.254334,44.606847],[-73.254995,44.605547],[-73.258378,44.600378],[-73.264358,44.59381],[-73.267742,44.591029],[-73.275754,44.586129],[-73.283662,44.582352],[-73.296003,44.577744],[-73.313533,44.57288],[-73.326746,44.570171],[-73.356686,44.564034],[-73.36156372,44.56357246],[-73.36132252,44.56340468],[-73.360088,44.562546],[-73.35856761,44.56041377],[-73.35842689,44.56021642],[-73.356788,44.557918],[-73.35593024,44.55738257],[-73.35548557,44.55710499],[-73.355186,44.556918],[-73.350027,44.555392],[-73.342932,44.551907],[-73.338751,44.548046],[-73.33863,44.546844],[-73.3393,44.544477],[-73.33923386,44.54422218],[-73.3390071,44.54334862],[-73.338995,44.543302],[-73.33897272,44.54327978],[-73.33451041,44.53883074],[-73.33176918,44.53609766],[-73.331595,44.535924],[-73.330893,44.534269],[-73.33066054,44.53180343],[-73.330588,44.531034],[-73.329458,44.529203],[-73.328512,44.528478],[-73.32476012,44.52736481],[-73.323935,44.52712],[-73.322026,44.525289],[-73.32118977,44.5203246],[-73.321111,44.519857],[-73.32128195,44.51794966],[-73.321416,44.516454],[-73.32134414,44.51610424],[-73.32125005,44.51564627],[-73.320836,44.513631],[-73.319265,44.51196],[-73.312871,44.507246],[-73.306707,44.500334],[-73.304921,44.492209],[-73.304418,44.485739],[-73.299885,44.476652],[-73.298939,44.471304],[-73.29893042,44.47100957],[-73.298725,44.463957],[-73.300114,44.454711],[-73.295216,44.445884],[-73.29383034,44.44128097],[-73.293613,44.440559],[-73.29375455,44.43880246],[-73.29380606,44.43816334],[-73.29384349,44.43769878],[-73.293855,44.437556],[-73.296031,44.428339],[-73.310491,44.402601],[-73.312418,44.39471],[-73.315016,44.388513],[-73.317029,44.385978],[-73.320954,44.382669],[-73.330369,44.375987],[-73.333575,44.372288],[-73.334939,44.364441],[-73.334637,44.356877],[-73.32836881,44.34613987],[-73.327335,44.344369],[-73.32695661,44.34336905],[-73.325127,44.338534],[-73.323997,44.333842],[-73.323835,44.325418],[-73.324545,44.319247],[-73.324229,44.310023],[-73.322267,44.301523],[-73.316838,44.287683],[-73.312299,44.280025],[-73.311025,44.27424],[-73.312852,44.265346],[-73.31331576,44.26441295],[-73.31348077,44.26408094],[-73.270726,44.260123],[-73.26727,44.260409],[-73.249223,44.261649],[-73.230882,44.263338],[-73.229707,44.263449],[-73.228316,44.263736],[-73.197191,44.266712],[-73.168201,44.270022],[-73.15986,44.271628],[-73.144976,44.272972],[-73.080562,44.282095],[-73.072342,44.283306],[-73.069323,44.283677],[-73.068391,44.279971],[-73.016573,44.284692],[-73.01751,44.289519],[-73.017475,44.289594],[-73.020102,44.302866],[-73.015184,44.302119],[-73.012858,44.301861],[-73.012778,44.301852],[-73.010347,44.301726],[-72.999905,44.300151],[-72.984199,44.296528],[-72.97382,44.293434],[-72.973718,44.28166],[-72.971962,44.27998],[-72.96779,44.245486],[-72.968068,44.244987],[-72.968081,44.244862],[-72.965966,44.232576],[-72.965684,44.230999],[-72.964486,44.226271],[-72.963494,44.218571],[-72.961656,44.210947],[-72.961635,44.206864],[-72.960666,44.203838],[-72.957383,44.184968],[-72.952927,44.161368],[-72.947077,44.172905],[-72.932376,44.2019],[-72.930836,44.204937],[-72.92207,44.222232],[-72.89598,44.276284],[-72.911398,44.281769],[-72.907338,44.287865],[-72.902928,44.294482],[-72.898483,44.30114],[-72.896308,44.304399],[-72.882188,44.325476],[-72.881819,44.326027],[-72.879139,44.330026],[-72.85675,44.363897],[-72.8559401,44.36508262],[-72.85571,44.365408],[-72.833505,44.359293],[-72.831298,44.359283],[-72.828368,44.360432],[-72.826112,44.35919],[-72.825701,44.360257],[-72.804465,44.390468],[-72.839132,44.403355],[-72.815194,44.437238],[-72.804995,44.451676],[-72.838638,44.459229],[-72.838456,44.459472],[-72.803567,44.506172],[-72.826751,44.514918],[-72.830756,44.51643],[-72.809349,44.547921],[-72.829073,44.552273],[-72.867334,44.588457],[-72.904164,44.625888],[-72.910572,44.630855],[-72.924112,44.633051],[-72.987801,44.643269],[-73.002121,44.645462],[-73.008483,44.64736],[-73.010465,44.646785],[-73.014168,44.64732],[-73.017432,44.647845],[-73.038028,44.651157],[-73.085492,44.669815],[-73.086235,44.669754],[-73.104272,44.676844],[-73.114353,44.680497],[-73.114905,44.680715],[-73.116903,44.681502],[-73.124639,44.684248],[-73.127547,44.685286],[-73.128166,44.685513],[-73.128713,44.685719],[-73.146977,44.692436],[-73.178757,44.704224],[-73.179423,44.704684],[-73.228854,44.722866]]]},"properties":{"name":"Chittenden=CHI","type":"county"}},
{"type":"Feature","geometry":{"type":"Polygon","coordinates":[[[-71.89765654,45.00821976],[-71.900703,45.000046],[-71.916183,44.948787],[-71.917738,44.943631],[-71.921204,44.932148],[-71.925075,44.919329],[-71.924484,44.914877],[-71.92851,44.907298],[-71.919535,44.900029],[-71.910406,44.89518],[-71.898029,44.888651],[-71.895149,44.888079],[-71.887791,44.88325],[-71.877198,44.877662],[-71.87466,44.876497],[-71.87788,44.87297],[-71.894932,44.857515],[-71.918707,44.83597],[-71.919732,44.836503],[-71.921577,44.834667],[-71.921757,44.834574],[-71.925369,44.832709],[-71.925377,44.832705],[-71.927104,44.831844],[-71.933181,44.826003],[-71.934857,44.822574],[-71.941895,44.816142],[-71.946174,44.813929],[-71.954307,44.806311],[-71.959409,44.800139],[-71.974318,44.786519],[-71.939936,44.769032],[-71.930969,44.765049],[-71.928757,44.762738],[-71.921857,44.759843],[-71.882733,44.740608],[-71.881573,44.739354],[-71.876889,44.736935],[-71.858382,44.72766],[-71.837294,44.716637],[-71.856071,44.69874],[-71.856485,44.698345],[-71.885979,44.669571],[-71.910085,44.64718],[-71.907402,44.645283],[-71.848307,44.614173],[-71.842732,44.611165],[-71.856286,44.59707],[-71.874003,44.580903],[-71.898111,44.557857],[-71.89867,44.557286],[-71.908657,44.54708],[-71.884835,44.524403],[-71.871839,44.510637],[-71.861209,44.500056],[-71.856637,44.496178],[-71.903549,44.454476],[-71.933288,44.441174],[-71.83764101,44.34778637],[-71.833261,44.350136],[-71.826246,44.352006],[-71.818838,44.352939],[-71.814351,44.354541],[-71.812902,44.355547],[-71.812206,44.357356],[-71.812473,44.358477],[-71.814991,44.363686],[-71.816157,44.367559],[-71.81549,44.368836],[-71.812832,44.370448],[-71.812235,44.371492],[-71.812424,44.372532],[-71.815251,44.374594],[-71.815773,44.375464],[-71.81442584,44.38175527],[-71.814388,44.381932],[-71.81429425,44.38199676],[-71.81313,44.382801],[-71.808828,44.383862],[-71.803461,44.383335],[-71.800316,44.384276],[-71.79997112,44.38566131],[-71.799899,44.385951],[-71.80007053,44.38616281],[-71.803489,44.390384],[-71.80348891,44.39052302],[-71.803488,44.39189],[-71.802353,44.39338],[-71.79419069,44.39908461],[-71.793924,44.399271],[-71.793601,44.39936972],[-71.790688,44.40026],[-71.778613,44.399799],[-71.775399,44.401126],[-71.772801,44.403097],[-71.767888,44.405445],[-71.764977,44.406587],[-71.76479311,44.40661387],[-71.76438605,44.40667336],[-71.761966,44.407027],[-71.76152062,44.40697954],[-71.756091,44.406401],[-71.75434,44.405577],[-71.749533,44.401955],[-71.745011,44.401359],[-71.743104,44.401657],[-71.742308,44.402366],[-71.74057322,44.40557247],[-71.739921,44.406778],[-71.73881802,44.40791166],[-71.737836,44.408921],[-71.73721888,44.40928908],[-71.73621142,44.40988998],[-71.735923,44.410062],[-71.73152,44.411015],[-71.726199,44.411385],[-71.7250648,44.41129365],[-71.715087,44.41049],[-71.70824645,44.41193364],[-71.708041,44.411977],[-71.699434,44.416069],[-71.69092,44.421234],[-71.68585,44.423405],[-71.67995,44.427908],[-71.679158,44.432174],[-71.679933,44.434062],[-71.679263,44.435018],[-71.677384,44.435702],[-71.668944,44.436523],[-71.66825259,44.43678892],[-71.664191,44.438351],[-71.66183,44.440293],[-71.659021,44.444932],[-71.657313,44.454003],[-71.653348,44.460499],[-71.65232,44.461117],[-71.645068,44.460545],[-71.642851,44.461734],[-71.640404,44.464186],[-71.640847,44.465935],[-71.646551,44.468869],[-71.647864,44.469976],[-71.648178,44.472023],[-71.647693,44.473125],[-71.64589,44.475141],[-71.643111,44.476649],[-71.639312,44.477836],[-71.63299582,44.48370345],[-71.632795,44.48389],[-71.63232788,44.48400312],[-71.63147851,44.48420881],[-71.631007,44.484323],[-71.627655,44.484207],[-71.625676,44.483201],[-71.62507036,44.48189477],[-71.625019,44.481784],[-71.62208924,44.48138675],[-71.619624,44.484411],[-71.61912147,44.48473702],[-71.61810188,44.48539849],[-71.617614,44.485715],[-71.615923,44.485944],[-71.609568,44.484348],[-71.60646561,44.48499597],[-71.59981638,44.48638474],[-71.59948,44.486455],[-71.59918131,44.48682192],[-71.59833601,44.48786029],[-71.597917,44.488375],[-71.595484,44.494424],[-71.595027,44.498669],[-71.594303,44.500749],[-71.59210219,44.50095746],[-71.591917,44.500975],[-71.59153501,44.50076388],[-71.5904569,44.50016804],[-71.590256,44.500057],[-71.589623,44.499371],[-71.58962256,44.49899515],[-71.589622,44.498525],[-71.5892882,44.49852513],[-71.58807536,44.49852558],[-71.586972,44.498526],[-71.58684507,44.49870413],[-71.585881,44.500057],[-71.586648,44.502873],[-71.58387,44.503217],[-71.5805294,44.50198314],[-71.579974,44.501778],[-71.57876,44.501915],[-71.577643,44.502692],[-71.57743069,44.5031901],[-71.57718598,44.50376422],[-71.577068,44.504041],[-71.577771,44.504886],[-71.583233,44.508268],[-71.584959,44.510141],[-71.58595,44.513432],[-71.586909,44.514666],[-71.592117,44.517773],[-71.593971,44.519738],[-71.594259,44.52168],[-71.592855,44.523006],[-71.587104,44.522436],[-71.585731,44.522665],[-71.582505,44.524403],[-71.576884,44.530323],[-71.574456,44.53366],[-71.573019,44.536312],[-71.573083,44.53798],[-71.575193,44.540859],[-71.588076,44.54785],[-71.596804,44.553424],[-71.598116,44.555412],[-71.597797,44.557172],[-71.596137,44.560898],[-71.593923,44.563813],[-71.59330229,44.56425515],[-71.59254773,44.56479266],[-71.592091,44.565118],[-71.59017,44.565694],[-71.575519,44.564775],[-71.569599,44.562777],[-71.563399,44.563218],[-71.56173933,44.56363887],[-71.56036077,44.56398846],[-71.559846,44.564119],[-71.55958042,44.56442024],[-71.558565,44.565572],[-71.55888578,44.5680214],[-71.558985,44.568779],[-71.55870927,44.5692341],[-71.55829173,44.56992327],[-71.557972,44.570451],[-71.55770499,44.57051001],[-71.55685827,44.57069715],[-71.55651322,44.57077341],[-71.556497,44.570777],[-71.55640915,44.57074897],[-71.55630548,44.5707159],[-71.552629,44.569543],[-71.55172928,44.56964995],[-71.55167,44.569657],[-71.549655,44.570708],[-71.548728,44.571873],[-71.548952,44.573084],[-71.5533,44.576924],[-71.55375484,44.57840631],[-71.55369932,44.57962773],[-71.55319965,44.58068259],[-71.55114544,44.580405],[-71.54927,44.579164],[-71.547448,44.578547],[-71.54688974,44.57870856],[-71.544922,44.579278],[-71.540123,44.582522],[-71.53959687,44.5830183],[-71.537724,44.584785],[-71.536251,44.588441],[-71.540601,44.590453],[-71.549268,44.593174],[-71.55344739,44.59345064],[-71.55359418,44.59374423],[-71.55461395,44.59578376],[-71.55446557,44.59814442],[-71.554449,44.598408],[-71.55518036,44.59979857],[-71.55601383,44.60138327],[-71.55578051,44.60348309],[-71.554833,44.605172],[-71.553873,44.607069],[-71.554097,44.609583],[-71.55656,44.616988],[-71.55578254,44.62391806],[-71.55576,44.624119],[-71.55534181,44.62460371],[-71.55491823,44.62509466],[-71.554666,44.625387],[-71.553898,44.62541],[-71.553156,44.626645],[-71.551722,44.627598],[-71.55399921,44.63119418],[-71.55463447,44.63219737],[-71.55957057,44.63508582],[-71.562124,44.63658],[-71.562636,44.637266],[-71.562636,44.639505],[-71.558859,44.640122],[-71.55811196,44.64161878],[-71.558026,44.641791],[-71.55809314,44.6421091],[-71.55844467,44.6437745],[-71.558571,44.644373],[-71.561772,44.650224],[-71.564411,44.652827],[-71.566144,44.653863],[-71.56738079,44.65361334],[-71.567645,44.65356],[-71.56840882,44.6520627],[-71.568677,44.651537],[-71.5688227,44.65143843],[-71.56957165,44.65093176],[-71.570235,44.650483],[-71.5707085,44.65045598],[-71.57114979,44.65043081],[-71.572163,44.650373],[-71.57514549,44.6506123],[-71.57539221,44.65098238],[-71.57607874,44.65201218],[-71.57631205,44.65317875],[-71.57571,44.654574],[-71.576013,44.655691],[-71.58066951,44.65631392],[-71.58268155,44.65658308],[-71.582965,44.656621],[-71.5834124,44.65690493],[-71.58433402,44.65748981],[-71.584848,44.657816],[-71.58657782,44.6594782],[-71.58657782,44.65995464],[-71.58657782,44.66111139],[-71.5863048,44.66160575],[-71.585246,44.663523],[-71.584574,44.665351],[-71.58564457,44.66764415],[-71.58564457,44.66927735],[-71.584478,44.67021059],[-71.582527,44.672253],[-71.581983,44.673533],[-71.583009,44.674836],[-71.587365,44.674926],[-71.590024,44.675543],[-71.596304,44.679083],[-71.5964,44.679677],[-71.594671,44.681643],[-71.594224,44.683815],[-71.596437,44.687059],[-71.59747437,44.69078125],[-71.598042,44.692818],[-71.596858,44.694921],[-71.59436,44.695996],[-71.594136,44.696932],[-71.598656,44.698005],[-71.600162,44.698919],[-71.600772,44.699901],[-71.600772,44.700815],[-71.59939343,44.70350967],[-71.599205,44.703878],[-71.59933066,44.70421003],[-71.59960376,44.70493162],[-71.59975,44.705318],[-71.60001663,44.70546428],[-71.604912,44.70815],[-71.613094,44.718933],[-71.618355,44.72261],[-71.618516,44.723913],[-71.617431,44.72805],[-71.617656,44.728918],[-71.619067,44.729283],[-71.622593,44.727773],[-71.623266,44.727795],[-71.624922,44.729032],[-71.625611,44.730312],[-71.625638,44.735065],[-71.625059,44.737099],[-71.62518,44.743978],[-71.626909,44.747224],[-71.631109,44.748689],[-71.63181479,44.75004136],[-71.63185344,44.75011541],[-71.631967,44.750333],[-71.63195283,44.75069241],[-71.63190504,44.75190411],[-71.631883,44.752463],[-71.631255,44.753253],[-71.623924,44.755135],[-71.61818731,44.75585221],[-71.617941,44.755883],[-71.61601387,44.7573303],[-71.61445268,44.75850277],[-71.614238,44.758664],[-71.614267,44.760622],[-71.611767,44.764345],[-71.608234,44.765658],[-71.604615,44.767738],[-71.601471,44.772067],[-71.596035,44.775422],[-71.595913,44.776272],[-71.59668,44.777416],[-71.596949,44.778987],[-71.592966,44.782776],[-71.584392,44.785733],[-71.580005,44.78548],[-71.578938,44.78607],[-71.573247,44.791882],[-71.571706,44.79483],[-71.573129,44.797947],[-71.570402,44.805276],[-71.569098,44.807044],[-71.569216,44.808813],[-71.57286395,44.81038314],[-71.575139,44.813565],[-71.5755,44.816058],[-71.574314,44.818079],[-71.567907,44.823832],[-71.565146,44.824678],[-71.56476,44.823901],[-71.563701,44.823901],[-71.562256,44.824632],[-71.56209395,44.82497806],[-71.56201782,44.82514062],[-71.56133127,44.82660674],[-71.557672,44.834421],[-71.553712,44.836065],[-71.552218,44.837775],[-71.55217801,44.83804401],[-71.55208907,44.83864241],[-71.552005,44.839208],[-71.552654,44.842049],[-71.555036,44.845733],[-71.55675,44.846862],[-71.556805,44.848808],[-71.5556,44.850547],[-71.553656,44.852123],[-71.548345,44.85553],[-71.548377,44.857016],[-71.550304,44.859552],[-71.550176,44.861609],[-71.549533,44.862592],[-71.545901,44.866134],[-71.540116,44.868625],[-71.534588,44.869698],[-71.529154,44.873559],[-71.528889,44.876928],[-71.528342,44.877819],[-71.526638,44.879098],[-71.522393,44.880811],[-71.512292,44.890246],[-71.511712,44.891571],[-71.51409,44.893149],[-71.51435,44.893964],[-71.51387,44.894648],[-71.508642,44.897703],[-71.502473,44.90272],[-71.501088,44.904433],[-71.499528,44.904774],[-71.496968,44.904225],[-71.495844,44.90498],[-71.49442339,44.90936809],[-71.49392,44.910923],[-71.494403,44.911837],[-71.500788,44.914535],[-71.504483,44.919062],[-71.509207,44.923429],[-71.515189,44.927317],[-71.516949,44.939704],[-71.516144,44.940846],[-71.515498,44.94352],[-71.516814,44.947588],[-71.514843,44.958741],[-71.516223,44.964569],[-71.52237,44.966308],[-71.527163,44.973668],[-71.531605,44.976023],[-71.537784,44.984298],[-71.538592,44.988182],[-71.53707755,44.99381423],[-71.53698,44.994177],[-71.530091,44.999656],[-71.525016,45.001881],[-71.520022,45.002291],[-71.514609,45.003957],[-71.507767,45.00817],[-71.505,45.008151],[-71.50198927,45.00707568],[-71.501055,45.006742],[-71.497412,45.003878],[-71.487565,45.000936],[-71.48019357,45.00276079],[-71.479611,45.002905],[-71.47943131,45.00338459],[-71.477907,45.007453],[-71.476168,45.009054],[-71.47578897,45.0092543],[-71.473269,45.010586],[-71.466247,45.011959],[-71.464555,45.013637],[-71.502487,45.013367],[-71.560562,45.012555],[-71.60984,45.012709],[-71.691898,45.011419],[-71.69695214,45.0114202],[-71.69809909,45.01142048],[-71.767452,45.011437],[-71.89765654,45.00821976]]]},"properties":{"name":"Essex=ESS","type":"county"}},
{"type":"Feature","geometry":{"type":"Polygon","coordinates":[[[-73.19192479,45.01362074],[-73.198425,45.002021],[-73.226726,44.96244],[-73.229711,44.959308],[-73.239145,44.953452],[-73.240323,44.951591],[-73.240994,44.949575],[-73.240909,44.947452],[-73.239891,44.943314],[-73.238811,44.941428],[-73.235157,44.938013],[-73.233863,44.935997],[-73.233094,44.931877],[-73.230777,44.927437],[-73.226274,44.919505],[-73.224434,44.918107],[-73.216611,44.915444],[-73.206444,44.911179],[-73.194939,44.910486],[-73.192787,44.9087],[-73.191709,44.906798],[-73.19141,44.902657],[-73.191821,44.893956],[-73.19402,44.886844],[-73.195948,44.882419],[-73.196443,44.876076],[-73.197145,44.873464],[-73.203276,44.866397],[-73.203417,44.861039],[-73.205594,44.856609],[-73.206959,44.852402],[-73.207554,44.846389],[-73.207234,44.845239],[-73.203876,44.840132],[-73.202501,44.835487],[-73.204674,44.831685],[-73.206933,44.829212],[-73.207812,44.825001],[-73.208864,44.823471],[-73.210587,44.822314],[-73.224392,44.817968],[-73.230562,44.814257],[-73.236082,44.810205],[-73.24188,44.80437],[-73.244552,44.800982],[-73.252995,44.788215],[-73.256107,44.782498],[-73.258552,44.776181],[-73.25906,44.771977],[-73.258243,44.765358],[-73.256321,44.759444],[-73.249575,44.750043],[-73.235709,44.736451],[-73.232021,44.730016],[-73.228854,44.722866],[-73.179423,44.704684],[-73.178757,44.704224],[-73.146977,44.692436],[-73.128713,44.685719],[-73.128166,44.685513],[-73.127547,44.685286],[-73.124639,44.684248],[-73.116903,44.681502],[-73.114905,44.680715],[-73.114353,44.680497],[-73.104272,44.676844],[-73.086235,44.669754],[-73.085492,44.669815],[-73.038028,44.651157],[-73.017432,44.647845],[-73.014168,44.64732],[-73.010465,44.646785],[-73.008483,44.64736],[-73.002121,44.645462],[-72.987801,44.643269],[-72.924112,44.633051],[-72.926135,44.634825],[-72.923629,44.636635],[-72.925293,44.638497],[-72.925507,44.639145],[-72.927158,44.640584],[-72.924272,44.641367],[-72.927057,44.644865],[-72.926993,44.646511],[-72.924494,44.649254],[-72.922477,44.649427],[-72.917642,44.645778],[-72.905059,44.645615],[-72.902625,44.646483],[-72.901375,44.648837],[-72.899132,44.651305],[-72.894198,44.654618],[-72.892554,44.655033],[-72.870895,44.683952],[-72.860359,44.698875],[-72.858253,44.701077],[-72.85107,44.71107],[-72.835584,44.706172],[-72.83075,44.704075],[-72.800059,44.693779],[-72.795505,44.6922],[-72.794794,44.695394],[-72.786134,44.727723],[-72.784304,44.734349],[-72.783056,44.740306],[-72.780403,44.740231],[-72.774125,44.740259],[-72.771553,44.740262],[-72.770583,44.746561],[-72.76703,44.766371],[-72.75645,44.766438],[-72.753747,44.776286],[-72.748977,44.776366],[-72.74736,44.78617],[-72.744603,44.786457],[-72.705617,44.790893],[-72.699194,44.791646],[-72.675841,44.794213],[-72.625057,44.79941],[-72.624817,44.7994],[-72.612102,44.801587],[-72.593494,44.790616],[-72.578161,44.781578],[-72.532648,44.833512],[-72.533997,44.842087],[-72.535125,44.856316],[-72.537291,44.874428],[-72.537257,44.87884],[-72.536584,44.881403],[-72.536,44.88363],[-72.537926,44.885811],[-72.538673,44.893393],[-72.538743,44.925602],[-72.535709,44.925777],[-72.549141,44.986269],[-72.549785,44.991792],[-72.549926,44.992167],[-72.551114,44.996868],[-72.552897,45.002591],[-72.55436092,45.00827458],[-72.55439676,45.00827526],[-72.555912,45.008304],[-72.57840375,45.01105735],[-72.582371,45.011543],[-72.586752,45.012881],[-72.58988,45.013237],[-72.61917893,45.0140039],[-72.65766051,45.01501116],[-72.67477,45.015459],[-72.69534062,45.01554206],[-72.70262312,45.01557146],[-72.777306,45.015873],[-72.81666137,45.01632572],[-72.8326354,45.01650948],[-72.845633,45.016659],[-72.90639018,45.01558138],[-72.930599,45.015152],[-72.936365,45.014656],[-72.93644,45.014267],[-72.968039,45.014098],[-72.99334815,45.01457573],[-72.99672353,45.01463944],[-73.014766,45.01498],[-73.015539,45.015072],[-73.048386,45.01479],[-73.052438,45.015721],[-73.059685,45.015869],[-73.065098,45.014786],[-73.084969,45.014751],[-73.085972,45.015494],[-73.17015024,45.01400571],[-73.19192479,45.01362074]]]},"properties":{"name":"Franklin=FRA","type":"county"}},
{"type":"Feature","geometry":{"type":"Polygon","coordinates":[[[-73.19192479,45.01362074],[-73.241061,45.012752],[-73.249323,45.012181],[-73.343124,45.01084],[-73.350188,44.994304],[-73.353429,44.990165],[-73.354633,44.987352],[-73.354112,44.984062],[-73.352886,44.980644],[-73.350218,44.976222],[-73.34474,44.970468],[-73.338734,44.965886],[-73.338243,44.96475],[-73.337906,44.960541],[-73.339603,44.94337],[-73.338482,44.924112],[-73.33893199,44.91828933],[-73.338979,44.917681],[-73.33919864,44.91736615],[-73.341106,44.914632],[-73.34297722,44.9137082],[-73.347837,44.911309],[-73.353657,44.907346],[-73.356218,44.904492],[-73.35808,44.901325],[-73.360327,44.897236],[-73.362229,44.891463],[-73.366459,44.87504],[-73.369103,44.86668],[-73.371967,44.862414],[-73.375709,44.860745],[-73.379822,44.857037],[-73.381397,44.848805],[-73.381359,44.845021],[-73.379452,44.83801],[-73.378717,44.837358],[-73.375345,44.836307],[-73.371329,44.830742],[-73.369647,44.829136],[-73.36918904,44.82882619],[-73.365678,44.826451],[-73.35808,44.82331],[-73.354945,44.8215],[-73.353472,44.820386],[-73.3502,44.816394],[-73.34267132,44.81037799],[-73.34112722,44.80914414],[-73.335443,44.804602],[-73.33532186,44.80431331],[-73.33485606,44.80320332],[-73.33443,44.802188],[-73.333933,44.7992],[-73.33388176,44.79851328],[-73.33318847,44.78922102],[-73.333154,44.788759],[-73.33334295,44.78766664],[-73.333771,44.785192],[-73.335713,44.782086],[-73.344254,44.776282],[-73.347072,44.772988],[-73.348694,44.768246],[-73.35200465,44.76068063],[-73.354361,44.755296],[-73.357671,44.751018],[-73.363791,44.745254],[-73.365561,44.741786],[-73.36555181,44.7414852],[-73.3654343,44.73763797],[-73.36515765,44.72858108],[-73.365068,44.725646],[-73.36556,44.700297],[-73.361323,44.695369],[-73.36131862,44.69512191],[-73.36131402,44.6948625],[-73.361308,44.694523],[-73.365297,44.687546],[-73.370142,44.684853],[-73.369685,44.683758],[-73.367414,44.681292],[-73.367209,44.678513],[-73.371089,44.67753],[-73.37137456,44.67731261],[-73.37163492,44.67711441],[-73.371843,44.676956],[-73.37203763,44.6751324],[-73.37272,44.668739],[-73.37013463,44.66614097],[-73.370065,44.666071],[-73.369669,44.663478],[-73.37059,44.662518],[-73.373063,44.662713],[-73.374134,44.66234],[-73.379074,44.656772],[-73.378968,44.65518],[-73.378014,44.653846],[-73.377973,44.652918],[-73.383157,44.645764],[-73.378561,44.641475],[-73.379748,44.64036],[-73.386783,44.636369],[-73.387169,44.635542],[-73.385899,44.631044],[-73.386497,44.626924],[-73.387346,44.623672],[-73.389966,44.61962],[-73.390231,44.618353],[-73.38982,44.61721],[-73.382932,44.612184],[-73.380726,44.605239],[-73.376849,44.599598],[-73.376332,44.597218],[-73.376806,44.595455],[-73.377897,44.593848],[-73.38164,44.590583],[-73.381848,44.589316],[-73.377794,44.585128],[-73.375666,44.582038],[-73.374389,44.575455],[-73.367275,44.567545],[-73.36156372,44.56357246],[-73.356686,44.564034],[-73.326746,44.570171],[-73.313533,44.57288],[-73.296003,44.577744],[-73.283662,44.582352],[-73.275754,44.586129],[-73.267742,44.591029],[-73.264358,44.59381],[-73.258378,44.600378],[-73.254995,44.605547],[-73.254334,44.606847],[-73.254465,44.607897],[-73.257022,44.628962],[-73.254484,44.637479],[-73.252756,44.641041],[-73.251156,44.642026],[-73.249574,44.642808],[-73.242007,44.644252],[-73.23802,44.64558],[-73.233762,44.648653],[-73.233209,44.649791],[-73.233642,44.671439],[-73.233336,44.673804],[-73.228098,44.688192],[-73.228668,44.705976],[-73.229363,44.709142],[-73.228854,44.722866],[-73.232021,44.730016],[-73.235709,44.736451],[-73.249575,44.750043],[-73.256321,44.759444],[-73.258243,44.765358],[-73.25906,44.771977],[-73.258552,44.776181],[-73.256107,44.782498],[-73.252995,44.788215],[-73.244552,44.800982],[-73.24188,44.80437],[-73.236082,44.810205],[-73.230562,44.814257],[-73.224392,44.817968],[-73.210587,44.822314],[-73.208864,44.823471],[-73.207812,44.825001],[-73.206933,44.829212],[-73.204674,44.831685],[-73.202501,44.835487],[-73.203876,44.840132],[-73.207234,44.845239],[-73.207554,44.846389],[-73.206959,44.852402],[-73.205594,44.856609],[-73.203417,44.861039],[-73.203276,44.866397],[-73.197145,44.873464],[-73.196443,44.876076],[-73.195948,44.882419],[-73.19402,44.886844],[-73.191821,44.893956],[-73.19141,44.902657],[-73.191709,44.906798],[-73.192787,44.9087],[-73.194939,44.910486],[-73.206444,44.911179],[-73.216611,44.915444],[-73.224434,44.918107],[-73.226274,44.919505],[-73.230777,44.927437],[-73.233094,44.931877],[-73.233863,44.935997],[-73.235157,44.938013],[-73.238811,44.941428],[-73.239891,44.943314],[-73.240909,44.947452],[-73.240994,44.949575],[-73.240323,44.951591],[-73.239145,44.953452],[-73.229711,44.959308],[-73.226726,44.96244],[-73.198425,45.002021],[-73.19192479,45.01362074]]]},"properties":{"name":"GrandIsle=GRA","type":"county"}},
{"type":"Feature","geometry":{"type":"Polygon","coordinates":[[[-72.578161,44.781578],[-72.593494,44.790616],[-72.612102,44.801587],[-72.624817,44.7994],[-72.625057,44.79941],[-72.675841,44.794213],[-72.699194,44.791646],[-72.705617,44.790893],[-72.744603,44.786457],[-72.74736,44.78617],[-72.748977,44.776366],[-72.753747,44.776286],[-72.75645,44.766438],[-72.76703,44.766371],[-72.770583,44.746561],[-72.771553,44.740262],[-72.774125,44.740259],[-72.780403,44.740231],[-72.783056,44.740306],[-72.784304,44.734349],[-72.786134,44.727723],[-72.794794,44.695394],[-72.795505,44.6922],[-72.800059,44.693779],[-72.83075,44.704075],[-72.835584,44.706172],[-72.85107,44.71107],[-72.858253,44.701077],[-72.860359,44.698875],[-72.870895,44.683952],[-72.892554,44.655033],[-72.894198,44.654618],[-72.899132,44.651305],[-72.901375,44.648837],[-72.902625,44.646483],[-72.905059,44.645615],[-72.917642,44.645778],[-72.922477,44.649427],[-72.924494,44.649254],[-72.926993,44.646511],[-72.927057,44.644865],[-72.924272,44.641367],[-72.927158,44.640584],[-72.925507,44.639145],[-72.925293,44.638497],[-72.923629,44.636635],[-72.926135,44.634825],[-72.924112,44.633051],[-72.910572,44.630855],[-72.904164,44.625888],[-72.867334,44.588457],[-72.829073,44.552273],[-72.809349,44.547921],[-72.830756,44.51643],[-72.826751,44.514918],[-72.803567,44.506172],[-72.838456,44.459472],[-72.838638,44.459229],[-72.804995,44.451676],[-72.765857,44.442596],[-72.739242,44.432839],[-72.729524,44.428797],[-72.719827,44.424952],[-72.695691,44.415172],[-72.691706,44.413557],[-72.684411,44.410601],[-72.681609,44.409411],[-72.677873,44.407825],[-72.654398,44.398224],[-72.611459,44.458819],[-72.596807,44.479292],[-72.534637,44.445785],[-72.530809,44.443621],[-72.510865,44.432997],[-72.503784,44.429045],[-72.490628,44.425713],[-72.490549,44.425693],[-72.477183,44.444776],[-72.476634,44.44556],[-72.470302,44.454458],[-72.462144,44.468165],[-72.442765,44.494066],[-72.434315,44.506098],[-72.429847,44.512045],[-72.42088,44.523797],[-72.419175,44.524889],[-72.411685,44.534382],[-72.403417,44.545482],[-72.398576,44.553005],[-72.396373,44.555888],[-72.394723,44.556887],[-72.38785,44.567083],[-72.374786,44.584125],[-72.367789,44.592731],[-72.375724,44.595682],[-72.378951,44.596863],[-72.388223,44.599436],[-72.427766,44.613875],[-72.440465,44.618651],[-72.444688,44.620047],[-72.445153,44.620218],[-72.46026,44.625727],[-72.464784,44.627417],[-72.466588,44.627995],[-72.471246,44.629782],[-72.482302,44.633928],[-72.476651,44.641841],[-72.454293,44.673037],[-72.423089,44.715163],[-72.417315,44.722893],[-72.428247,44.726443],[-72.466401,44.740172],[-72.488053,44.748299],[-72.49986,44.752147],[-72.5232,44.76106],[-72.527681,44.762312],[-72.578161,44.781578]]]},"properties":{"name":"Lamoille=LAM","type":"county"}},
{"type":"Feature","geometry":{"type":"Polygon","coordinates":[[[-72.368353,44.204057],[-72.397368,44.213426],[-72.419747,44.220979],[-72.424033,44.202863],[-72.436835,44.1536],[-72.437111,44.151854],[-72.438018,44.148896],[-72.443032,44.128669],[-72.444434,44.129201],[-72.456006,44.133085],[-72.472682,44.137957],[-72.474425,44.138738],[-72.492476,44.143777],[-72.507148,44.147977],[-72.521315,44.151898],[-72.521866,44.152143],[-72.559688,44.162858],[-72.562613,44.15632],[-72.564001,44.153629],[-72.575056,44.156537],[-72.583213,44.159436],[-72.583869,44.1596],[-72.589333,44.160282],[-72.596709,44.142892],[-72.613135,44.114846],[-72.627005,44.087208],[-72.628959,44.088651],[-72.635514,44.08955],[-72.642296,44.078771],[-72.642457,44.076787],[-72.643311,44.075569],[-72.647263,44.070885],[-72.650626,44.065545],[-72.651166,44.0647],[-72.670609,44.033688],[-72.677483,44.021764],[-72.683772,44.012938],[-72.712772,44.021209],[-72.723737,44.024996],[-72.727745,44.025551],[-72.74157,44.029511],[-72.760888,44.00283],[-72.769536,43.991247],[-72.791012,43.961667],[-72.786976,43.960345],[-72.791769,43.953778],[-72.786219,43.952155],[-72.790592,43.945743],[-72.78015,43.94264],[-72.784556,43.936179],[-72.779074,43.934596],[-72.783208,43.928967],[-72.74391,43.91896],[-72.707792,43.910383],[-72.707551,43.910325],[-72.703521,43.909347],[-72.702071,43.909196],[-72.672982,43.900731],[-72.670715,43.900235],[-72.666045,43.899064],[-72.663165,43.898083],[-72.662523,43.897894],[-72.632964,43.889977],[-72.6267,43.888288],[-72.590194,43.878049],[-72.576818,43.874051],[-72.574443,43.873348],[-72.572196,43.872643],[-72.506415,43.852494],[-72.49903,43.850224],[-72.467467,43.840528],[-72.460132,43.838291],[-72.452914,43.836406],[-72.42173,43.828728],[-72.402451,43.824348],[-72.360741,43.814983],[-72.348243,43.812215],[-72.337451,43.809705],[-72.326468,43.806706],[-72.257343,43.786404],[-72.255469,43.785916],[-72.237539,43.780442],[-72.221694,43.77604],[-72.20514863,43.77098444],[-72.2050159,43.77107958],[-72.20476,43.771263],[-72.20513489,43.77668985],[-72.205521,43.782279],[-72.2053,43.784474],[-72.20407,43.786097],[-72.197036,43.790006],[-72.195552,43.791492],[-72.193184,43.794697],[-72.190754,43.800807],[-72.184847,43.804698],[-72.183333,43.808177],[-72.184184,43.812524],[-72.186424,43.815857],[-72.18857,43.821153],[-72.188255,43.822888],[-72.186238,43.826931],[-72.183337,43.830699],[-72.182203,43.834032],[-72.182864,43.845109],[-72.187379,43.853612],[-72.187916,43.856126],[-72.184788,43.863393],[-72.18319016,43.86508678],[-72.182956,43.865335],[-72.18142633,43.86569749],[-72.17990234,43.86605864],[-72.179386,43.866181],[-72.174774,43.866386],[-72.167476,43.86915],[-72.16840287,43.87086979],[-72.16978,43.873425],[-72.171904,43.876149],[-72.173576,43.87967],[-72.172785,43.883716],[-72.171648,43.885361],[-72.170604,43.886388],[-72.167224,43.886113],[-72.160819,43.887223],[-72.159216,43.888313],[-72.158585,43.892762],[-72.155724,43.89712],[-72.151324,43.901704],[-72.145041,43.905288],[-72.135117,43.910024],[-72.121002,43.918956],[-72.11919,43.920952],[-72.118013,43.923292],[-72.116767,43.933923],[-72.116766,43.935278],[-72.11708017,43.93640314],[-72.11732306,43.93727303],[-72.11887505,43.94283123],[-72.118985,43.943225],[-72.11893432,43.94360203],[-72.11886057,43.94415064],[-72.118698,43.94536],[-72.11827754,43.94607856],[-72.11817564,43.94625269],[-72.117839,43.946828],[-72.11763058,43.94689293],[-72.11653014,43.94723578],[-72.115268,43.947629],[-72.110872,43.947654],[-72.105875,43.94937],[-72.104421,43.950536],[-72.09887928,43.95742351],[-72.098689,43.95766],[-72.098955,43.958879],[-72.100894,43.960851],[-72.100543,43.962478],[-72.098563,43.963833],[-72.09069265,43.96534454],[-72.090357,43.965409],[-72.090214,43.965814],[-72.091104,43.966443],[-72.096161,43.968132],[-72.104972,43.96995],[-72.107042,43.969513],[-72.110945,43.966959],[-72.114273,43.967513],[-72.114726,43.968332],[-72.114702,43.969478],[-72.113078,43.97279],[-72.11249,43.975654],[-72.11232718,43.97771449],[-72.111756,43.984943],[-72.112813,43.98802],[-72.116706,43.991954],[-72.116985,43.99448],[-72.11557958,43.99554827],[-72.109019,44.000535],[-72.10864965,44.00069683],[-72.103765,44.002837],[-72.103576,44.004231],[-72.104941,44.009395],[-72.10509078,44.01078957],[-72.10523115,44.01209647],[-72.105292,44.012663],[-72.10498483,44.01290497],[-72.102475,44.014882],[-72.09921289,44.01542447],[-72.098897,44.015477],[-72.09868151,44.01536501],[-72.095247,44.01358014],[-72.0934051,44.01048545],[-72.093384,44.01045],[-72.09328658,44.00962611],[-72.093257,44.009376],[-72.09123,44.009125],[-72.090059,44.009903],[-72.089807,44.011274],[-72.090504,44.012736],[-72.095193,44.016666],[-72.095669,44.019683],[-72.0951,44.021831],[-72.094056,44.023179],[-72.09203,44.024459],[-72.090478,44.024299],[-72.084871,44.021308],[-72.08275145,44.0220432],[-72.082432,44.022154],[-72.081673,44.023638],[-72.081864,44.026952],[-72.08178773,44.02718923],[-72.08148643,44.02812642],[-72.081357,44.028529],[-72.08115877,44.02870888],[-72.08042323,44.02937632],[-72.079996,44.029764],[-72.07964294,44.02991747],[-72.075648,44.031654],[-72.075004,44.032789],[-72.075486,44.034614],[-72.079397,44.039531],[-72.079595,44.041429],[-72.078989,44.042886],[-72.07835677,44.04355263],[-72.07778031,44.04416047],[-72.077372,44.044591],[-72.074881,44.045892],[-72.066422,44.049299],[-72.06215,44.049931],[-72.062713,44.051618],[-72.068405,44.054021],[-72.06870131,44.05433759],[-72.06901815,44.05467613],[-72.06915,44.054817],[-72.067612,44.058034],[-72.065415,44.058344],[-72.058863,44.057921],[-72.057173,44.058646],[-72.056341,44.059582],[-72.053482,44.06473],[-72.048289,44.069136],[-72.04857,44.071359],[-72.051144,44.07385],[-72.051602,44.075193],[-72.051166,44.075826],[-72.042088,44.077008],[-72.040912,44.076659],[-72.039076,44.07452],[-72.036641,44.073999],[-72.03345,44.074531],[-72.031898,44.076241],[-72.032009,44.077174],[-72.033739,44.07883],[-72.039783,44.081271],[-72.047305,44.085382],[-72.048781,44.087141],[-72.047684,44.088873],[-72.046235,44.089538],[-72.04095444,44.08887952],[-72.040012,44.088762],[-72.036291,44.089236],[-72.03429,44.090138],[-72.03372223,44.09066754],[-72.03323418,44.09112273],[-72.032894,44.09144],[-72.031878,44.093359],[-72.031019,44.097975],[-72.03124,44.100101],[-72.032983,44.101655],[-72.036883,44.103119],[-72.037378,44.10316369],[-72.03918541,44.10332688],[-72.039674,44.103371],[-72.03995333,44.10321632],[-72.0404642,44.10293342],[-72.040911,44.102686],[-72.04124315,44.10230227],[-72.042592,44.100744],[-72.042943,44.097636],[-72.043482,44.096996],[-72.04405796,44.09675625],[-72.04453324,44.09655841],[-72.044909,44.096402],[-72.04538023,44.09647121],[-72.048334,44.096905],[-72.050997,44.098848],[-72.052391,44.101088],[-72.05251369,44.10154301],[-72.05281365,44.10265543],[-72.05311919,44.10378858],[-72.054831,44.110137],[-72.054675,44.112147],[-72.052342,44.119891],[-72.04643,44.123911],[-72.041948,44.125653],[-72.040728,44.125668],[-72.038839,44.124628],[-72.037506,44.124708],[-72.033703,44.131541],[-72.034242,44.132524],[-72.037859,44.133782],[-72.04180946,44.13702264],[-72.041983,44.137165],[-72.04200202,44.13746892],[-72.04208067,44.13872536],[-72.04234514,44.14295059],[-72.042867,44.151288],[-72.042708,44.15227],[-72.040082,44.155749],[-72.042801,44.156613],[-72.046234,44.157563],[-72.047344,44.157836],[-72.065528,44.162794],[-72.070984,44.164364],[-72.083157,44.167671],[-72.083451,44.167775],[-72.109921,44.175046],[-72.110927,44.175333],[-72.166147,44.190938],[-72.17026,44.192053],[-72.175395,44.192186],[-72.199012,44.190573],[-72.210965,44.189741],[-72.237322,44.188057],[-72.24954,44.187528],[-72.30498,44.183149],[-72.321588,44.188629],[-72.368353,44.204057]]]},"properties":{"name":"Orange=ORA","type":"county"}},
{"type":"Feature","geometry":{"type":"Polygon","coordinates":[[[-72.55436092,45.00827458],[-72.552897,45.002591],[-72.551114,44.996868],[-72.549926,44.992167],[-72.549785,44.991792],[-72.549141,44.986269],[-72.535709,44.925777],[-72.538743,44.925602],[-72.538673,44.893393],[-72.537926,44.885811],[-72.536,44.88363],[-72.536584,44.881403],[-72.537257,44.87884],[-72.537291,44.874428],[-72.535125,44.856316],[-72.533997,44.842087],[-72.532648,44.833512],[-72.578161,44.781578],[-72.527681,44.762312],[-72.5232,44.76106],[-72.49986,44.752147],[-72.488053,44.748299],[-72.466401,44.740172],[-72.428247,44.726443],[-72.417315,44.722893],[-72.423089,44.715163],[-72.454293,44.673037],[-72.476651,44.641841],[-72.482302,44.633928],[-72.471246,44.629782],[-72.466588,44.627995],[-72.464784,44.627417],[-72.46026,44.625727],[-72.445153,44.620218],[-72.444688,44.620047],[-72.440465,44.618651],[-72.427766,44.613875],[-72.388223,44.599436],[-72.378951,44.596863],[-72.375724,44.595682],[-72.367789,44.592731],[-72.374786,44.584125],[-72.354192,44.576537],[-72.322536,44.56502],[-72.280975,44.54965],[-72.268653,44.544573],[-72.267242,44.544547],[-72.266593,44.544303],[-72.262965,44.542336],[-72.259827,44.54559],[-72.257866,44.548899],[-72.237433,44.576818],[-72.226097,44.591711],[-72.21978,44.600803],[-72.218155,44.602206],[-72.208816,44.614535],[-72.207016,44.617438],[-72.202901,44.624073],[-72.199855,44.62841],[-72.158868,44.685588],[-72.146873,44.703032],[-72.146226,44.703325],[-72.145589,44.702653],[-72.109358,44.690747],[-72.088864,44.683714],[-72.095146,44.700011],[-72.100813,44.714476],[-72.114503,44.749624],[-72.036351,44.711121],[-72.012504,44.698821],[-72.010696,44.699614],[-72.007273,44.70299],[-72.002948,44.706065],[-72.002575,44.706344],[-71.9954,44.715164],[-71.976089,44.733763],[-71.974771,44.735186],[-71.974591,44.73538],[-71.959928,44.749625],[-71.958847,44.750086],[-71.950607,44.758585],[-71.950276,44.758952],[-71.939936,44.769032],[-71.974318,44.786519],[-71.959409,44.800139],[-71.954307,44.806311],[-71.946174,44.813929],[-71.941895,44.816142],[-71.934857,44.822574],[-71.933181,44.826003],[-71.927104,44.831844],[-71.925377,44.832705],[-71.925369,44.832709],[-71.921757,44.834574],[-71.921577,44.834667],[-71.919732,44.836503],[-71.918707,44.83597],[-71.894932,44.857515],[-71.87788,44.87297],[-71.87466,44.876497],[-71.877198,44.877662],[-71.887791,44.88325],[-71.895149,44.888079],[-71.898029,44.888651],[-71.910406,44.89518],[-71.919535,44.900029],[-71.92851,44.907298],[-71.924484,44.914877],[-71.925075,44.919329],[-71.921204,44.932148],[-71.917738,44.943631],[-71.916183,44.948787],[-71.900703,45.000046],[-71.89765654,45.00821976],[-71.915009,45.007791],[-71.947201,45.008359],[-71.98342582,45.00791243],[-71.986705,45.007872],[-71.99445663,45.00764318],[-72.023292,45.006792],[-72.029739,45.006782],[-72.033614,45.008878],[-72.052169,45.006369],[-72.08768662,45.00583089],[-72.08824142,45.00582248],[-72.08828943,45.00582175],[-72.08869717,45.00581558],[-72.103058,45.005598],[-72.10989264,45.00566784],[-72.14211424,45.00599707],[-72.160506,45.006185],[-72.24672528,45.00462331],[-72.270869,45.004186],[-72.291866,45.004496],[-72.310073,45.003822],[-72.32924313,45.00471953],[-72.32994065,45.00475218],[-72.348583,45.005625],[-72.35997881,45.0058334],[-72.401298,45.006589],[-72.41812534,45.00727813],[-72.43348657,45.00790721],[-72.448865,45.008537],[-72.481033,45.00887],[-72.532503,45.00786],[-72.55436092,45.00827458]]]},"properties":{"name":"Orleans=ORL","type":"county"}},
{"type":"Feature","geometry":{"type":"Polygon","coordinates":[[[-73.36300082,43.75311616],[-73.36427665,43.75143846],[-73.36872827,43.74558468],[-73.369725,43.744274],[-73.36978901,43.74404562],[-73.36992075,43.74357564],[-73.370287,43.742269],[-73.370724,43.735571],[-73.369916,43.728789],[-73.3699411,43.72866422],[-73.370612,43.725329],[-73.377756,43.717712],[-73.382965,43.714058],[-73.385883,43.711336],[-73.39179,43.703481],[-73.393723,43.6992],[-73.395517,43.696831],[-73.398332,43.694625],[-73.402078,43.693106],[-73.40455041,43.69041803],[-73.404739,43.690213],[-73.40478058,43.69006072],[-73.405243,43.688367],[-73.40374748,43.68526182],[-73.403474,43.684694],[-73.40356005,43.68425123],[-73.404126,43.681339],[-73.40740006,43.67342744],[-73.40746599,43.67326811],[-73.407776,43.672519],[-73.408061,43.669438],[-73.414546,43.658209],[-73.415513,43.65245],[-73.418763,43.64788],[-73.423539,43.645676],[-73.425217,43.64429],[-73.426463,43.642598],[-73.428583,43.636543],[-73.42791,43.634428],[-73.418319,43.623325],[-73.417668,43.621687],[-73.417827,43.620586],[-73.423708,43.612356],[-73.423815,43.610989],[-73.422154,43.606511],[-73.421616,43.603023],[-73.424977,43.598775],[-73.430325,43.590532],[-73.431229,43.588285],[-73.430947,43.587036],[-73.428636,43.583994],[-73.426663,43.582974],[-73.420378,43.581489],[-73.416964,43.57773],[-73.405629,43.571179],[-73.400295,43.568889],[-73.398125,43.568065],[-73.395767,43.568087],[-73.39196,43.569915],[-73.384188,43.575512],[-73.383369,43.57677],[-73.382549,43.579193],[-73.383426,43.584727],[-73.383446,43.596778],[-73.377748,43.599656],[-73.373443,43.603292],[-73.372469,43.604848],[-73.372375,43.606014],[-73.376036,43.612596],[-73.374557,43.614677],[-73.369933,43.619093],[-73.36987,43.619711],[-73.372486,43.622751],[-73.37196577,43.62426549],[-73.371889,43.624489],[-73.37152433,43.62451595],[-73.36955055,43.62466184],[-73.368899,43.62471],[-73.36874543,43.62461353],[-73.367167,43.623622],[-73.365562,43.62344],[-73.35911,43.624598],[-73.358593,43.625065],[-73.347621,43.622509],[-73.342181,43.62607],[-73.327702,43.625913],[-73.323893,43.627629],[-73.317566,43.627355],[-73.312809,43.624602],[-73.310606,43.624114],[-73.307682,43.627492],[-73.306234,43.628018],[-73.304125,43.627057],[-73.302552,43.625708],[-73.302076,43.624364],[-73.30201399,43.62389456],[-73.30098625,43.61611449],[-73.300285,43.610806],[-73.29818926,43.61008614],[-73.29802,43.610028],[-73.293741,43.605203],[-73.292232,43.60255],[-73.292202,43.59816],[-73.29249522,43.59605557],[-73.292801,43.593861],[-73.293242,43.592558],[-73.296924,43.587323],[-73.292364,43.585104],[-73.29229772,43.58494687],[-73.29221486,43.58475047],[-73.292113,43.584509],[-73.29443997,43.58249431],[-73.29534359,43.58023527],[-73.2946207,43.57897021],[-73.29354992,43.57852405],[-73.29353636,43.5785184],[-73.284912,43.579272],[-73.281296,43.577579],[-73.280952,43.575407],[-73.279726,43.574241],[-73.26938,43.571973],[-73.264099,43.568884],[-73.26090948,43.56658869],[-73.258631,43.564949],[-73.252602,43.556851],[-73.248641,43.553857],[-73.24846768,43.55285313],[-73.24842,43.552577],[-73.250408,43.550425],[-73.250132,43.543429],[-73.247812,43.542814],[-73.246585,43.541855],[-73.24559572,43.54034593],[-73.242042,43.534925],[-73.241589,43.534973],[-73.24139,43.532345],[-73.241891,43.529418],[-73.243366,43.527726],[-73.246821,43.52578],[-73.247698,43.523173],[-73.247631,43.51924],[-73.24672,43.518875],[-73.247061,43.514919],[-73.248401,43.470443],[-73.24874353,43.46229587],[-73.24876388,43.46181171],[-73.25099651,43.4087083],[-73.252582,43.370997],[-73.252674,43.370285],[-73.252832,43.363493],[-73.253084,43.354714],[-73.25451394,43.3146702],[-73.174248,43.311434],[-73.173447,43.311406],[-73.168534,43.311208],[-73.136037,43.309429],[-73.122704,43.308682],[-73.093351,43.3071],[-73.080718,43.307117],[-73.048343,43.307168],[-73.019868,43.306113],[-72.996291,43.305257],[-72.98613,43.304829],[-72.991296,43.291643],[-72.976152,43.291641],[-72.975913,43.304444],[-72.961335,43.303954],[-72.959738,43.3039],[-72.90715,43.302132],[-72.867902,43.300742],[-72.866073,43.346969],[-72.853689,43.347583],[-72.85355,43.360575],[-72.853439,43.371076],[-72.82581,43.372339],[-72.825913,43.38029],[-72.770576,43.358484],[-72.758518,43.381953],[-72.749542,43.399866],[-72.740169,43.416453],[-72.73995,43.416864],[-72.737301,43.421777],[-72.732793,43.434847],[-72.731954,43.437288],[-72.728325,43.44782],[-72.723995,43.461694],[-72.728864,43.462494],[-72.727184,43.468717],[-72.749132,43.47383],[-72.749542,43.474427],[-72.771543,43.477862],[-72.770286,43.491832],[-72.79107,43.495],[-72.788755,43.501384],[-72.784684,43.524433],[-72.783863,43.529076],[-72.77784,43.563198],[-72.774982,43.579375],[-72.773762,43.58628],[-72.772829,43.591565],[-72.758005,43.587517],[-72.734538,43.625873],[-72.731046,43.631791],[-72.730891,43.632055],[-72.724046,43.643658],[-72.72049,43.649689],[-72.700945,43.682831],[-72.715356,43.686937],[-72.722854,43.689074],[-72.747728,43.696188],[-72.801166,43.711468],[-72.820043,43.716834],[-72.806064,43.742431],[-72.818605,43.746305],[-72.811629,43.757848],[-72.800977,43.775044],[-72.798544,43.778945],[-72.798043,43.779754],[-72.795602,43.783692],[-72.793032,43.787838],[-72.782919,43.80415],[-72.787776,43.805927],[-72.788723,43.806887],[-72.788185,43.808693],[-72.784586,43.810612],[-72.78449,43.81347],[-72.787235,43.815802],[-72.790897,43.816009],[-72.792002,43.816512],[-72.794149,43.819553],[-72.797051,43.828286],[-72.796875,43.829448],[-72.79931,43.830129],[-72.805608,43.83189],[-72.816088,43.83482],[-72.831096,43.839016],[-72.837594,43.829177],[-72.861388,43.836131],[-72.873366,43.839633],[-72.874552,43.858131],[-72.943575,43.832348],[-72.958865,43.826637],[-72.980988,43.818374],[-72.987379,43.815987],[-72.994912,43.812601],[-73.01658,43.805017],[-73.027382,43.841783],[-73.029695,43.841677],[-73.029746,43.84169],[-73.031828,43.842866],[-73.029792,43.844853],[-73.030535,43.846889],[-73.084504,43.844836],[-73.106088,43.844065],[-73.156296,43.842704],[-73.155523,43.839932],[-73.218416,43.837131],[-73.216516,43.823157],[-73.206217,43.766689],[-73.231379,43.76448],[-73.237938,43.763867],[-73.257838,43.761888],[-73.36300082,43.75311616]]]},"properties":{"name":"Rutland=RUT","type":"county"}},
{"type":"Feature","geometry":{"type":"Polygon","coordinates":[[[-72.368353,44.204057],[-72.336177,44.246264],[-72.333284,44.25006],[-72.329738,44.254806],[-72.327061,44.258388],[-72.316302,44.272583],[-72.317395,44.293961],[-72.31757,44.298423],[-72.308336,44.306161],[-72.295321,44.31908],[-72.292014,44.321754],[-72.289771,44.323567],[-72.282025,44.32927],[-72.269585,44.340461],[-72.267563,44.343747],[-72.254273,44.361075],[-72.249662,44.367162],[-72.247963,44.369843],[-72.240219,44.380321],[-72.229087,44.391162],[-72.224549,44.395985],[-72.226262,44.398726],[-72.225479,44.399979],[-72.21711,44.411083],[-72.218904,44.412313],[-72.22215,44.414167],[-72.22282,44.416063],[-72.219851,44.418865],[-72.220825,44.421665],[-72.222374,44.422757],[-72.222971,44.422583],[-72.227333,44.41927],[-72.228341,44.419488],[-72.2292,44.420381],[-72.228977,44.421181],[-72.227097,44.422119],[-72.223909,44.424587],[-72.223925,44.424667],[-72.230972,44.427489],[-72.236973,44.429199],[-72.23719,44.430035],[-72.238802,44.430515],[-72.277045,44.445563],[-72.30082,44.45469],[-72.321277,44.462572],[-72.348117,44.472931],[-72.350859,44.473996],[-72.371941,44.482113],[-72.374649,44.483164],[-72.403343,44.494088],[-72.4255,44.502596],[-72.434315,44.506098],[-72.442765,44.494066],[-72.462144,44.468165],[-72.470302,44.454458],[-72.476634,44.44556],[-72.477183,44.444776],[-72.490549,44.425693],[-72.490628,44.425713],[-72.503784,44.429045],[-72.510865,44.432997],[-72.530809,44.443621],[-72.534637,44.445785],[-72.596807,44.479292],[-72.611459,44.458819],[-72.654398,44.398224],[-72.677873,44.407825],[-72.681609,44.409411],[-72.684411,44.410601],[-72.691706,44.413557],[-72.695691,44.415172],[-72.719827,44.424952],[-72.729524,44.428797],[-72.739242,44.432839],[-72.765857,44.442596],[-72.804995,44.451676],[-72.815194,44.437238],[-72.839132,44.403355],[-72.804465,44.390468],[-72.825701,44.360257],[-72.826112,44.35919],[-72.828368,44.360432],[-72.831298,44.359283],[-72.833505,44.359293],[-72.85571,44.365408],[-72.8559401,44.36508262],[-72.85675,44.363897],[-72.879139,44.330026],[-72.881819,44.326027],[-72.882188,44.325476],[-72.896308,44.304399],[-72.898483,44.30114],[-72.902928,44.294482],[-72.907338,44.287865],[-72.911398,44.281769],[-72.89598,44.276284],[-72.92207,44.222232],[-72.930836,44.204937],[-72.932376,44.2019],[-72.947077,44.172905],[-72.952927,44.161368],[-72.93441,44.163654],[-72.93346,44.153559],[-72.928749,44.127232],[-72.916606,44.072011],[-72.896803,44.073682],[-72.85539,44.062012],[-72.851968,44.061243],[-72.846238,44.058978],[-72.821487,44.052539],[-72.74157,44.029511],[-72.727745,44.025551],[-72.723737,44.024996],[-72.712772,44.021209],[-72.683772,44.012938],[-72.677483,44.021764],[-72.670609,44.033688],[-72.651166,44.0647],[-72.650626,44.065545],[-72.647263,44.070885],[-72.643311,44.075569],[-72.642457,44.076787],[-72.642296,44.078771],[-72.635514,44.08955],[-72.628959,44.088651],[-72.627005,44.087208],[-72.613135,44.114846],[-72.596709,44.142892],[-72.589333,44.160282],[-72.583869,44.1596],[-72.583213,44.159436],[-72.575056,44.156537],[-72.564001,44.153629],[-72.562613,44.15632],[-72.559688,44.162858],[-72.521866,44.152143],[-72.521315,44.151898],[-72.507148,44.147977],[-72.492476,44.143777],[-72.474425,44.138738],[-72.472682,44.137957],[-72.456006,44.133085],[-72.444434,44.129201],[-72.443032,44.128669],[-72.438018,44.148896],[-72.437111,44.151854],[-72.436835,44.1536],[-72.424033,44.202863],[-72.419747,44.220979],[-72.397368,44.213426],[-72.368353,44.204057]]]},"properties":{"name":"Washington=WAS","type":"county"}},
{"type":"Feature","geometry":{"type":"Polygon","coordinates":[[[-72.819368,43.255498],[-72.847918,43.262488],[-72.851393,43.205321],[-72.861994,43.205095],[-72.864931,43.166229],[-72.865588,43.157563],[-72.865957,43.152682],[-72.86655,43.144816],[-72.867621,43.130386],[-72.867659,43.129888],[-72.868737,43.11317],[-72.870214,43.113243],[-72.911082,43.115307],[-72.911115,43.115309],[-72.916256,43.115547],[-72.962492,43.117554],[-72.978826,43.118285],[-72.996624,43.119082],[-72.997126,43.116994],[-72.998677,43.109304],[-72.998903,43.103947],[-72.99908,43.102052],[-72.99938,43.097861],[-72.998577,43.096858],[-72.999547,43.088067],[-73.000798,43.056783],[-73.002789,43.023007],[-73.002796,43.022882],[-73.002883,43.021429],[-73.005686,42.97284],[-73.005253,42.970096],[-73.006373,42.960622],[-73.007365,42.94113],[-73.008063,42.930087],[-72.992451,42.929566],[-72.921376,42.926792],[-72.924111,42.871695],[-72.92482,42.856164],[-72.925482,42.841712],[-72.926024,42.829915],[-72.927716,42.799909],[-72.928717,42.773673],[-72.928913,42.767534],[-72.92897,42.766043],[-72.928998,42.765328],[-72.930151,42.745045],[-72.93026047,42.73916046],[-72.809113,42.736581],[-72.68636661,42.73317513],[-72.61648644,42.73123615],[-72.56587304,42.72983177],[-72.458519,42.726853],[-72.458488,42.729094],[-72.461001,42.733209],[-72.467827,42.741209],[-72.473071,42.745916],[-72.474723,42.750729],[-72.475938,42.757702],[-72.477615,42.761245],[-72.479354,42.763119],[-72.484878,42.76554],[-72.4864,42.76698],[-72.487767,42.76938],[-72.491122,42.772465],[-72.495343,42.773286],[-72.497949,42.772918],[-72.498786,42.771981],[-72.499249,42.769054],[-72.50069,42.767657],[-72.50101186,42.76751392],[-72.507985,42.764414],[-72.510871,42.763752],[-72.51145924,42.76377043],[-72.513105,42.763822],[-72.51593016,42.76584051],[-72.516082,42.765949],[-72.51612042,42.76611007],[-72.516731,42.76867],[-72.514836,42.771436],[-72.510154,42.773221],[-72.508372,42.77461],[-72.508048,42.776885],[-72.508858,42.779919],[-72.50929017,42.78054675],[-72.51082137,42.78277091],[-72.511746,42.784114],[-72.51362574,42.78615636],[-72.51485275,42.78748951],[-72.515838,42.78856],[-72.518354,42.790651],[-72.5396,42.804832],[-72.542784,42.808482],[-72.54282101,42.80865281],[-72.54290918,42.80905972],[-72.54610443,42.82380613],[-72.546133,42.823938],[-72.547434,42.832603],[-72.547402,42.837587],[-72.54855,42.842021],[-72.553426,42.846709],[-72.55620442,42.85129729],[-72.55631266,42.85147603],[-72.55659008,42.85193415],[-72.55671579,42.85214176],[-72.557247,42.853019],[-72.55640419,42.85498107],[-72.55625128,42.85533707],[-72.554232,42.860038],[-72.555132,42.865731],[-72.556112,42.866252],[-72.55617179,42.86666113],[-72.556214,42.86695],[-72.555131,42.871058],[-72.555415,42.875428],[-72.552834,42.884968],[-72.552025,42.885631],[-72.546491,42.88714],[-72.540708,42.889379],[-72.537287,42.89187],[-72.532777,42.896076],[-72.531469,42.89795],[-72.53157156,42.90589074],[-72.53158196,42.90669658],[-72.531588,42.907164],[-72.53106687,42.90884225],[-72.53047146,42.91075974],[-72.530218,42.911576],[-72.529191,42.912719],[-72.5256354,42.91421017],[-72.525271,42.914363],[-72.52503241,42.91470684],[-72.52458396,42.91535312],[-72.52443,42.915575],[-72.524242,42.918501],[-72.527097,42.928584],[-72.526346,42.935717],[-72.526624,42.939901],[-72.527431,42.943148],[-72.52855,42.94532],[-72.529763,42.94612],[-72.531693,42.94651],[-72.533901,42.948591],[-72.534554,42.949894],[-72.534117,42.952133],[-72.532186,42.954945],[-72.52082897,42.96173166],[-72.518422,42.96317],[-72.51820974,42.96319019],[-72.507901,42.964171],[-72.504226,42.965815],[-72.492597,42.967648],[-72.486872,42.971789],[-72.481706,42.973985],[-72.479245,42.973597],[-72.476722,42.971746],[-72.47401786,42.97202529],[-72.473827,42.972045],[-72.47368514,42.97216123],[-72.47228104,42.97331161],[-72.465985,42.97847],[-72.46468759,42.97979063],[-72.461627,42.982906],[-72.46160166,42.98387155],[-72.461597,42.984049],[-72.464026,42.986107],[-72.465335,42.989558],[-72.464714,42.993582],[-72.46294,42.996943],[-72.459951,43.00008],[-72.456936,43.001306],[-72.451797,43.000577],[-72.448714,43.001169],[-72.444977,43.004416],[-72.443762,43.006245],[-72.44377463,43.0067904],[-72.44380625,43.00815551],[-72.443825,43.008965],[-72.44392601,43.00916465],[-72.444635,43.010566],[-72.452984,43.015731],[-72.457035,43.017285],[-72.45880686,43.01918323],[-72.458998,43.019388],[-72.45965328,43.02057788],[-72.462397,43.02556],[-72.4625315,43.02623388],[-72.46284728,43.02781596],[-72.46299,43.028531],[-72.46196678,43.0321773],[-72.460905,43.035961],[-72.460252,43.040671],[-72.462248,43.044214],[-72.465896,43.047505],[-72.466832,43.049197],[-72.467363,43.052648],[-72.46655624,43.05457331],[-72.466491,43.054729],[-72.46607821,43.05514117],[-72.46497374,43.05624399],[-72.463812,43.057404],[-72.46149983,43.05894926],[-72.45506519,43.06324962],[-72.45471,43.063487],[-72.45136195,43.0662565],[-72.445202,43.071352],[-72.43987,43.077043],[-72.43619,43.08173],[-72.435316,43.083536],[-72.435191,43.086622],[-72.439214,43.094852],[-72.443051,43.100841],[-72.442427,43.10363],[-72.44188064,43.10437679],[-72.44119496,43.10531401],[-72.440587,43.106145],[-72.44011184,43.10645714],[-72.434845,43.109917],[-72.433129,43.112637],[-72.432661,43.114077],[-72.432972,43.119655],[-72.43308012,43.11979092],[-72.43425024,43.12126185],[-72.435936,43.123381],[-72.43723088,43.12446895],[-72.43795793,43.1250798],[-72.440967,43.127608],[-72.442933,43.130192],[-72.442746,43.131152],[-72.44078,43.131472],[-72.440624,43.132203],[-72.440905,43.135793],[-72.441904,43.136615],[-72.444214,43.13737],[-72.448303,43.137187],[-72.451986,43.138924],[-72.45652493,43.14598971],[-72.45658966,43.14609046],[-72.45689,43.146558],[-72.45714,43.148493],[-72.45712019,43.14852701],[-72.45700582,43.14872331],[-72.456537,43.149528],[-72.45355586,43.15148218],[-72.452801,43.151977],[-72.45239085,43.15259653],[-72.45196708,43.15323665],[-72.451802,43.153486],[-72.45173674,43.15392345],[-72.45166094,43.15443153],[-72.451553,43.155155],[-72.4521,43.161414],[-72.451868,43.170174],[-72.452556,43.172117],[-72.45058851,43.17362167],[-72.444904,43.177969],[-72.44346314,43.17966074],[-72.443405,43.179729],[-72.44344726,43.18003515],[-72.44367443,43.18168078],[-72.443749,43.182221],[-72.44405312,43.18259267],[-72.449435,43.18917],[-72.45028,43.192485],[-72.44691842,43.19502602],[-72.44366692,43.19748384],[-72.438969,43.201035],[-72.4384333,43.20176998],[-72.43787165,43.20254056],[-72.437719,43.20275],[-72.43779398,43.2032867],[-72.438594,43.209013],[-72.440563,43.215254],[-72.4405,43.219049],[-72.437656,43.225266],[-72.434466,43.230432],[-72.43372379,43.2332746],[-72.496164,43.234847],[-72.498827,43.234908],[-72.549912,43.235809],[-72.553189,43.235613],[-72.555852,43.235387],[-72.587859,43.232536],[-72.598704,43.231385],[-72.639168,43.227265],[-72.639955,43.227149],[-72.67716,43.223277],[-72.68496,43.222466],[-72.685321,43.222428],[-72.68571,43.22246],[-72.698448,43.225544],[-72.729717,43.233105],[-72.755812,43.239805],[-72.785833,43.247254],[-72.819368,43.255498]]]},"properties":{"name":"Windham=WNH","type":"county"}},
{"type":"Feature","geometry":{"type":"Polygon","coordinates":[[[-72.791012,43.961667],[-72.803735,43.945158],[-72.806827,43.939931],[-72.809823,43.935853],[-72.815691,43.937415],[-72.819427,43.931625],[-72.820246,43.930357],[-72.825639,43.923277],[-72.831381,43.913528],[-72.832704,43.912299],[-72.85785,43.872961],[-72.862261,43.866102],[-72.865457,43.861444],[-72.874553,43.864539],[-72.875701,43.887063],[-72.876306,43.901991],[-72.900069,43.893589],[-72.91501,43.888334],[-72.922405,43.885733],[-72.952607,43.875064],[-72.952316,43.874737],[-72.971801,43.868361],[-72.96414,43.840335],[-72.958865,43.826637],[-72.943575,43.832348],[-72.874552,43.858131],[-72.873366,43.839633],[-72.861388,43.836131],[-72.837594,43.829177],[-72.831096,43.839016],[-72.816088,43.83482],[-72.805608,43.83189],[-72.79931,43.830129],[-72.796875,43.829448],[-72.797051,43.828286],[-72.794149,43.819553],[-72.792002,43.816512],[-72.790897,43.816009],[-72.787235,43.815802],[-72.78449,43.81347],[-72.784586,43.810612],[-72.788185,43.808693],[-72.788723,43.806887],[-72.787776,43.805927],[-72.782919,43.80415],[-72.793032,43.787838],[-72.795602,43.783692],[-72.798043,43.779754],[-72.798544,43.778945],[-72.800977,43.775044],[-72.811629,43.757848],[-72.818605,43.746305],[-72.806064,43.742431],[-72.820043,43.716834],[-72.801166,43.711468],[-72.747728,43.696188],[-72.722854,43.689074],[-72.715356,43.686937],[-72.700945,43.682831],[-72.72049,43.649689],[-72.724046,43.643658],[-72.730891,43.632055],[-72.731046,43.631791],[-72.734538,43.625873],[-72.758005,43.587517],[-72.772829,43.591565],[-72.773762,43.58628],[-72.774982,43.579375],[-72.77784,43.563198],[-72.783863,43.529076],[-72.784684,43.524433],[-72.788755,43.501384],[-72.79107,43.495],[-72.770286,43.491832],[-72.771543,43.477862],[-72.749542,43.474427],[-72.749132,43.47383],[-72.727184,43.468717],[-72.728864,43.462494],[-72.723995,43.461694],[-72.728325,43.44782],[-72.731954,43.437288],[-72.732793,43.434847],[-72.737301,43.421777],[-72.73995,43.416864],[-72.740169,43.416453],[-72.749542,43.399866],[-72.758518,43.381953],[-72.770576,43.358484],[-72.825913,43.38029],[-72.82581,43.372339],[-72.853439,43.371076],[-72.85355,43.360575],[-72.853689,43.347583],[-72.866073,43.346969],[-72.867902,43.300742],[-72.861262,43.300543],[-72.8199,43.29921],[-72.819778,43.289271],[-72.819483,43.265066],[-72.819368,43.255498],[-72.785833,43.247254],[-72.755812,43.239805],[-72.729717,43.233105],[-72.698448,43.225544],[-72.68571,43.22246],[-72.685321,43.222428],[-72.68496,43.222466],[-72.67716,43.223277],[-72.639955,43.227149],[-72.639168,43.227265],[-72.598704,43.231385],[-72.587859,43.232536],[-72.555852,43.235387],[-72.553189,43.235613],[-72.549912,43.235809],[-72.498827,43.234908],[-72.496164,43.234847],[-72.43372379,43.2332746],[-72.43371293,43.2333162],[-72.433684,43.233427],[-72.434216,43.234958],[-72.436654,43.238319],[-72.438937,43.24424],[-72.438693,43.252905],[-72.436378,43.257454],[-72.435221,43.258483],[-72.42966053,43.26050488],[-72.42743231,43.2613151],[-72.42202131,43.26328262],[-72.421583,43.263442],[-72.42139182,43.26368926],[-72.41545,43.271374],[-72.407842,43.282892],[-72.401666,43.303395],[-72.39554038,43.31287272],[-72.395462,43.312994],[-72.39557923,43.3135487],[-72.39576537,43.31442947],[-72.395805,43.314617],[-72.39661797,43.31571366],[-72.39736276,43.31671835],[-72.397619,43.317064],[-72.39797781,43.31730618],[-72.402532,43.32038],[-72.408696,43.327674],[-72.410197,43.330395],[-72.410353,43.331675],[-72.4099832,43.33243934],[-72.40946676,43.33350673],[-72.409037,43.334395],[-72.40659441,43.33784543],[-72.400981,43.345775],[-72.399289,43.347581],[-72.395403,43.350414],[-72.39092,43.354984],[-72.39079035,43.35529218],[-72.390103,43.356926],[-72.39139761,43.35751412],[-72.39217,43.357865],[-72.39533991,43.35779601],[-72.400441,43.357685],[-72.40073916,43.3577201],[-72.403949,43.358098],[-72.413377,43.362741],[-72.414692,43.364273],[-72.415099,43.365896],[-72.415978,43.376531],[-72.415381,43.380211],[-72.413154,43.384302],[-72.405253,43.389992],[-72.40403834,43.39162868],[-72.403811,43.391935],[-72.40154285,43.40368375],[-72.400131,43.410997],[-72.399972,43.415249],[-72.39645681,43.4288773],[-72.3960233,43.43055801],[-72.395916,43.430974],[-72.39591098,43.43112176],[-72.3958016,43.43434221],[-72.39566196,43.43845376],[-72.395659,43.438541],[-72.39550435,43.43910921],[-72.39459888,43.44243618],[-72.393992,43.444666],[-72.39372566,43.44510789],[-72.391196,43.449305],[-72.390567,43.451225],[-72.392628,43.465078],[-72.3925,43.467364],[-72.391526,43.46878],[-72.38453179,43.4741636],[-72.384491,43.474195],[-72.382951,43.476],[-72.38233773,43.47804308],[-72.38217249,43.47859355],[-72.38188862,43.47953923],[-72.381723,43.480091],[-72.380428,43.488525],[-72.38041305,43.48922917],[-72.38038689,43.49046164],[-72.380362,43.491634],[-72.380894,43.493394],[-72.384773,43.500259],[-72.389556,43.503899],[-72.396305,43.508062],[-72.39815033,43.51052749],[-72.398376,43.510829],[-72.398563,43.513435],[-72.39620323,43.51957575],[-72.395825,43.52056],[-72.395949,43.52388],[-72.394218,43.5274],[-72.3907,43.527261],[-72.3905825,43.52733466],[-72.38985135,43.52779306],[-72.389097,43.528266],[-72.38785016,43.52975782],[-72.38403868,43.53431815],[-72.38331,43.53519],[-72.38310646,43.53558569],[-72.380383,43.54088],[-72.381187,43.554915],[-72.382783,43.562459],[-72.382625,43.564127],[-72.38028384,43.57143496],[-72.37944,43.574069],[-72.3738707,43.578788],[-72.373126,43.579419],[-72.37188521,43.57998928],[-72.363916,43.583652],[-72.349926,43.587726],[-72.332382,43.599364],[-72.32962,43.600201],[-72.328514,43.600805],[-72.327665,43.602679],[-72.32814957,43.60623421],[-72.328232,43.606839],[-72.32847279,43.60712907],[-72.32927506,43.60809552],[-72.329522,43.608393],[-72.3327,43.610313],[-72.334745,43.614519],[-72.334401,43.61925],[-72.33236,43.62507],[-72.328966,43.626991],[-72.327236,43.630534],[-72.327362,43.631174],[-72.32935855,43.63275401],[-72.329471,43.632843],[-72.32966,43.634648],[-72.32953399,43.63486391],[-72.32953396,43.63486398],[-72.32953374,43.63486435],[-72.329126,43.635563],[-72.32887847,43.63573617],[-72.32802429,43.63633375],[-72.327395,43.636774],[-72.32660069,43.63712035],[-72.32601979,43.63737365],[-72.322517,43.638901],[-72.315247,43.641164],[-72.314083,43.64281],[-72.31405709,43.64325142],[-72.313863,43.646558],[-72.31467669,43.64850174],[-72.315059,43.649415],[-72.3142737,43.65451149],[-72.31402,43.656158],[-72.31350655,43.65719397],[-72.31321239,43.65778748],[-72.312887,43.658444],[-72.3121717,43.6588915],[-72.310841,43.659724],[-72.30907956,43.66209031],[-72.305771,43.666535],[-72.304322,43.669507],[-72.303408,43.674055],[-72.303092,43.678078],[-72.304351,43.681141],[-72.30602,43.683061],[-72.30598948,43.68361983],[-72.30598636,43.68367698],[-72.30598025,43.68378899],[-72.30565653,43.68971708],[-72.30562717,43.69025473],[-72.30550435,43.69250397],[-72.305326,43.69577],[-72.3033269,43.70141854],[-72.302867,43.702718],[-72.299715,43.706558],[-72.29504338,43.70892724],[-72.294894,43.709003],[-72.292215,43.711333],[-72.28695,43.717252],[-72.284805,43.72036],[-72.279855,43.724633],[-72.276072,43.727054],[-72.27118,43.734138],[-72.264245,43.734158],[-72.245068,43.743093],[-72.24143274,43.74462096],[-72.23384234,43.74781132],[-72.232713,43.748286],[-72.23021287,43.75092068],[-72.22575124,43.75562241],[-72.22398261,43.75748623],[-72.223645,43.757842],[-72.222069,43.759831],[-72.220116,43.763626],[-72.218099,43.765729],[-72.216491,43.766507],[-72.210815,43.767696],[-72.207535,43.769274],[-72.2058955,43.77044912],[-72.20514863,43.77098444],[-72.221694,43.77604],[-72.237539,43.780442],[-72.255469,43.785916],[-72.257343,43.786404],[-72.326468,43.806706],[-72.337451,43.809705],[-72.348243,43.812215],[-72.360741,43.814983],[-72.402451,43.824348],[-72.42173,43.828728],[-72.452914,43.836406],[-72.460132,43.838291],[-72.467467,43.840528],[-72.49903,43.850224],[-72.506415,43.852494],[-72.572196,43.872643],[-72.574443,43.873348],[-72.576818,43.874051],[-72.590194,43.878049],[-72.6267,43.888288],[-72.632964,43.889977],[-72.662523,43.897894],[-72.663165,43.898083],[-72.666045,43.899064],[-72.670715,43.900235],[-72.672982,43.900731],[-72.702071,43.909196],[-72.703521,43.909347],[-72.707551,43.910325],[-72.707792,43.910383],[-72.74391,43.91896],[-72.783208,43.928967],[-72.779074,43.934596],[-72.784556,43.936179],[-72.78015,43.94264],[-72.790592,43.945743],[-72.786219,43.952155],[-72.791769,43.953778],[-72.786976,43.960345],[-72.791012,43.961667]]]},"properties":{"name":"Windsor=WND","type":"county"}}
]}