{"type":"FeatureCollection", "features": [
{"type":"Feature","geometry":{"type":"MultiPolygon","coordinates":[[[[-108.12649022984534,35.28967155450836],[-108.12643448517635,35.2825524255224],[-108.12202001332727,35.28231806741714],[-108.12200145158208,35.27880799191338],[-108.11758791677175,35.27862480856379],[-108.11765511864294,35.28900456289662],[-108.12205695595469,35.28933696141065],[-108.12207551738189,35.292845959092475],[-108.13087145242383,35.293610114666826],[-108.13086081249651,35.29000140000257],[-108.12649022984534,35.28967155450836]]],[[[-108.10392391819265,35.306059217443675],[-108.11726640968354,35.30611144408849],[-108.11757325718753,35.29592266009332],[-108.11314730098911,35.29580679402111],[-108.11325852287564,35.292322456286804],[-108.1000024329736,35.29189764150539],[-108.09973786713232,35.29901751490694],[-108.10417048470457,35.29910890035267],[-108.10392391819265,35.306059217443675]]],[[[-108.13664826476541,35.31009414666258],[-108.14106378222489,35.31013117592485],[-108.1411004806781,35.30653596024812],[-108.15277054903738,35.30659558432725],[-108.15281858993808,35.30337817755553],[-108.14391735623369,35.303411939032266],[-108.14399545626961,35.29999041701824],[-108.13509404346111,35.30014999461312],[-108.13500444132417,35.30662998636606],[-108.13667776516365,35.306604228333235],[-108.13664826476541,35.31009414666258]]],[[[-108.14075000881255,35.33533476469371],[-108.15853988527653,35.33559375876691],[-108.15866885640604,35.32101417915218],[-108.14095350331479,35.32091700212661],[-108.14075000881255,35.33533476469371]]],[[[-108.17625847676929,35.33554748426801],[-108.18513091353685,35.335553685780674],[-108.18516218425351,35.32829575407675],[-108.1895931837042,35.32829624408515],[-108.18961815667194,35.321035431379535],[-108.17634424432904,35.321041340428984],[-108.17625847676929,35.33554748426801]]],[[[-108.19398663448649,35.33917868363451],[-108.19840809204892,35.33917305497391],[-108.19842426829332,35.335551198406456],[-108.19400550993055,35.33555970621034],[-108.19398663448649,35.33917868363451]]]]},"properties":{"NAME":"Bluewater Lake","County":"Cibola & McKinley"}},
{"type":"Feature","geometry":{"type":"Polygon","coordinates":[[[-104.33731542911185,33.36606003828053],[-104.34095781561422,33.36531577769581],[-104.34396981949807,33.36294494734542],[-104.34597703180424,33.36271218710911],[-104.34800578539662,33.3639606424797],[-104.35018561288298,33.362696008467644],[-104.35291905773991,33.363157294858944],[-104.34655005383883,33.35568301807445],[-104.34643057350968,33.35035853694571],[-104.34304610832234,33.35036405741777],[-104.34148709306794,33.34916439813907],[-104.3413412024301,33.339460723098426],[-104.33701562381282,33.339419669329445],[-104.33697741400009,33.313963720328175],[-104.32398377415636,33.31400193697865],[-104.32405265904643,33.33951891236397],[-104.32843216343363,33.339445709786624],[-104.3284799299172,33.34495365460455],[-104.33280937918846,33.34492275134774],[-104.33288820151552,33.350385737830884],[-104.33728261611674,33.350366424012314],[-104.33731542911185,33.36606003828053]]]},"properties":{"NAME":"Bottomless Lakes","County":"Chaves"}},
{"type":"Feature","geometry":{"type":"Polygon","coordinates":[[[-104.39558773681051,32.522470511974554],[-104.38764601486247,32.516734310896695],[-104.38470271012345,32.52080132821376],[-104.38241387399889,32.54034847127342],[-104.37902337104528,32.54782858979148],[-104.36419622824751,32.56607281701716],[-104.36153794086266,32.567324319996644],[-104.35680035871017,32.56765817831679],[-104.35415064682496,32.56769232625661],[-104.3505809832549,32.56631348773246],[-104.34949533787614,32.5683366076254],[-104.34603460561394,32.57137368298772],[-104.34607893154855,32.58080154581485],[-104.33787546239233,32.58083019282112],[-104.35232239540937,32.594605365764366],[-104.35585901047037,32.592881229275605],[-104.35864229303114,32.5900313811548],[-104.35545695598815,32.58602922540539],[-104.35938988085444,32.5879825976224],[-104.36039860666807,32.5848849727271],[-104.36081553065375,32.58572245430647],[-104.36146543428171,32.585510951304414],[-104.36184137917986,32.58417628602274],[-104.3625712784631,32.5846096044126],[-104.36367828077788,32.583541180172475],[-104.36596652742342,32.58286059113514],[-104.36625833048369,32.58145388385185],[-104.36726878050455,32.58207952915699],[-104.36856649513692,32.581942852234675],[-104.36893630032439,32.58146736066552],[-104.36829045981243,32.581106103790646],[-104.36930727126314,32.5808248022624],[-104.37833022413422,32.580511750603016],[-104.39330333616438,32.56606154034748],[-104.39330482113654,32.5624909600634],[-104.4086070366394,32.56252439310004],[-104.39807300611555,32.545789711509116],[-104.39735817580521,32.54270980862505],[-104.39772739795303,32.53706619333874],[-104.39559513236787,32.53706281278658],[-104.39558773681051,32.522470511974554]]]},"properties":{"NAME":"Brantley Lake","County":"Eddy"}},
{"type":"Feature","geometry":{"type":"Polygon","coordinates":[[[-107.30723534970421,32.89104255052784],[-107.30391177705006,32.88727580421865],[-107.29917883192084,32.88718452611119],[-107.29924190299269,32.890854510662926],[-107.29521430705826,32.890758736700015],[-107.29513530469188,32.87989301659214],[-107.29077840523959,32.879779789024234],[-107.29083820903958,32.897970600795354],[-107.28224125910948,32.89786514574709],[-107.28227463117952,32.90152327741138],[-107.28646788273164,32.901573008301106],[-107.2863190617947,32.92312706676714],[-107.28199743159489,32.92314129638768],[-107.28198958122546,32.93029009215688],[-107.28200595189819,32.95376974113807],[-107.2864346617735,32.95368872561367],[-107.28640666481247,32.96823528732294],[-107.31589573214124,32.968801669540376],[-107.31604066223663,32.961215346660495],[-107.30751845917126,32.96104626342572],[-107.30747244975078,32.94498029589551],[-107.315867614437,32.94485492907162],[-107.31601724345983,32.90924541640617],[-107.31213006895352,32.90905737991836],[-107.31152179799278,32.901900242251166],[-107.3166146558469,32.90197771754914],[-107.31205771303277,32.8964702543333],[-107.31052869782657,32.89598300672465],[-107.30723534970421,32.89104255052784]]]},"properties":{"NAME":"Caballo Lake","County":"Sierra"}},
{"type":"Feature","geometry":{"type":"Polygon","coordinates":[[[-106.12094953625102,35.445948301566965],[-106.11215296385333,35.44591348490969],[-106.11219864129544,35.449497972406625],[-106.10780402021378,35.4494803434274],[-106.10771606746513,35.4566485960875],[-106.11659605843312,35.45668405749942],[-106.11654685630164,35.45305051877919],[-106.12098775355553,35.453068009107426],[-106.12103715769818,35.45670155043073],[-106.12547829069837,35.45671887595577],[-106.12557644008022,35.4639106667784],[-106.14162859659304,35.46375836332062],[-106.1416349858696,35.44927150441318],[-106.13340422482929,35.449412652650494],[-106.13354622333095,35.44573536232735],[-106.12944187402847,35.44580560116484],[-106.12940416684262,35.44213075048857],[-106.1209122351058,35.442275936706125],[-106.12094953625102,35.445948301566965],[-106.12534290651799,35.44587502547441],[-106.12538042348692,35.44954988408366],[-106.12098594110888,35.44953274385916],[-106.12094953625102,35.445948301566965]]]},"properties":{"NAME":"Cerrillos Hills","County":"Santa Fe"}},
{"type":"Feature","geometry":{"type":"Polygon","coordinates":[[[-105.12572212018473,36.555599845142545],[-105.1299506235658,36.552191493723626],[-105.13197295856904,36.54852203581171],[-105.13585584922046,36.54642203554885],[-105.13898876081795,36.54128099346099],[-105.14344964201467,36.54305281411535],[-105.1462476010281,36.541141617731476],[-105.14698106990882,36.539475333191966],[-105.15096545458401,36.53721027853494],[-105.15435897365602,36.5383958784241],[-105.16517030657772,36.535816392838775],[-105.16676102482062,36.53421247280378],[-105.16922132383259,36.533490194355814],[-105.17301444666381,36.53111606239779],[-105.17474186745073,36.52928619052413],[-105.17694206153867,36.529511335203416],[-105.17770338754043,36.52867709872731],[-105.17699992523966,36.52441295763461],[-105.18448367431849,36.52657526420718],[-105.18602404785494,36.529319282319854],[-105.1883529871589,36.530675800127206],[-105.18978103856644,36.53269060328711],[-105.19238371148495,36.533826384087085],[-105.19248081297113,36.5366977074083],[-105.1953887221932,36.537504423165366],[-105.1977429158017,36.53946768340857],[-105.20557283557275,36.537459546666476],[-105.22166573436895,36.5392632145375],[-105.22493216135216,36.53842093441881],[-105.22560274224608,36.537285702011914],[-105.224342801753,36.536022086423316],[-105.22414478119639,36.536790422922515],[-105.22091845156815,36.537436879334905],[-105.20472908843398,36.536732641621924],[-105.19870973416393,36.53902219293595],[-105.19721229949619,36.53736731812071],[-105.19313251759061,36.5361492927649],[-105.19386706957543,36.533179838924035],[-105.19001600356758,36.531858757832964],[-105.19089707551873,36.53139567451947],[-105.18763953848318,36.5295493727394],[-105.18680550859297,36.527152825428466],[-105.18513837781758,36.52585569659382],[-105.18138829831477,36.52460849593836],[-105.1792369573958,36.524871893507296],[-105.17638873675867,36.52371509142513],[-105.1758157125359,36.52495580672441],[-105.17669499731682,36.52717047312272],[-105.176288191837,36.528600051382945],[-105.17317894218493,36.52876532735117],[-105.17218611008613,36.53020738834457],[-105.1701696125632,36.5304835969006],[-105.16205172864116,36.535996693177964],[-105.15413812006838,36.53784003203621],[-105.15046699888073,36.5362097924351],[-105.1468350332226,36.53787988072021],[-105.14388726540572,36.54136953603214],[-105.13994189748568,36.5405578380795],[-105.13573605940489,36.54172596877787],[-105.13486224470265,36.54392610954107],[-105.13264205573108,36.54540931776657],[-105.1318934518457,36.54520738196017],[-105.12994376990407,36.54702468822344],[-105.12935921420348,36.54921860251486],[-105.12659484872417,36.55336979134067],[-105.12404764933618,36.55586829527401],[-105.12403898786211,36.557344026086874],[-105.12572212018473,36.555599845142545]]]},"properties":{"NAME":"Cimarron Canyon","County":"Colfax"}},
{"type":"Feature","geometry":{"type":"Polygon","coordinates":[[[-107.94113581954919,32.60441016873505],[-107.96712261042778,32.60443801552551],[-107.9670724150994,32.59889304026381],[-107.97542779761638,32.59895212837103],[-107.97542443706203,32.597085164252235],[-107.98381806288,32.597152326391445],[-107.98386871657864,32.582645381026545],[-107.97447517692174,32.58243718326499],[-107.97437828726804,32.579505380316874],[-107.97777287588424,32.57480908533104],[-107.97771680435994,32.56921271208884],[-107.9889930190686,32.56910947531768],[-107.9889711025896,32.561090939236394],[-107.98110541955666,32.56100420949376],[-107.97653488072476,32.56328688770082],[-107.96686407227376,32.56448546501747],[-107.96678923450719,32.5680625561832],[-107.95827055544767,32.568063639634836],[-107.95823284848325,32.58256075474575],[-107.95395617403388,32.582567392103236],[-107.95394493365657,32.58989907503899],[-107.94108686764515,32.589964293904515],[-107.94113581954919,32.60441016873505]]]},"properties":{"NAME":"City of Rocks","County":"Grant"}},
{"type":"Feature","geometry":{"type":"Polygon","coordinates":[[[-103.31120443601009,36.58964483417428],[-103.31566680505819,36.58962529674153],[-103.3155972830124,36.58228401968862],[-103.31111952657898,36.58231094101809],[-103.31106143427775,36.575069677339805],[-103.3061398266457,36.57224787897391],[-103.30611958818368,36.57130373036793],[-103.30043167578148,36.572284419801036],[-103.29646309190338,36.57461471661471],[-103.2930409622041,36.575454854491674],[-103.29304961408498,36.57878168163405],[-103.29762292454221,36.57875410555979],[-103.30046980743178,36.580381638353785],[-103.30310956081442,36.58036639569029],[-103.30310081596105,36.578713768592976],[-103.30529161914019,36.57869756757455],[-103.30659603490791,36.58034621545899],[-103.30660171000274,36.584358758580464],[-103.31118187731626,36.587258187810164],[-103.31120443601009,36.58964483417428]]]},"properties":{"NAME":"Clayton Lake","County":"Union"}},
{"type":"Feature","geometry":{"type":"MultiPolygon","coordinates":[[[[-104.18454363836385,35.39126879263143],[-104.18279303441119,35.39074262991876],[-104.18018044212639,35.39488042412665],[-104.19044254294118,35.40140134640915],[-104.1917724262743,35.4010433825182],[-104.19073647994972,35.40068425112788],[-104.19053560811051,35.399510537784984],[-104.18951478487308,35.39886176322032],[-104.19013689380425,35.39792886483186],[-104.18739845010252,35.39576046089995],[-104.18780641423554,35.394548384761784],[-104.1858526806417,35.39490251236676],[-104.18524151466256,35.393620897997245],[-104.18564677028213,35.39210660547264],[-104.18454363836385,35.39126879263143]]],[[[-104.19314177953545,35.40942180743],[-104.19066577181613,35.41607978974112],[-104.1940874253554,35.41695477283296],[-104.19606848450483,35.41493751525711],[-104.19607271746843,35.410994389772576],[-104.19510027348912,35.409902083264186],[-104.19314177953545,35.40942180743]]],[[[-104.18329167057881,35.42992607760684],[-104.18701280686982,35.43040359817205],[-104.19439974560808,35.429779105341254],[-104.19406625045727,35.427821357397846],[-104.19693018853086,35.42698959520787],[-104.19655722973344,35.42486432602501],[-104.19385819044976,35.424716272059364],[-104.19308440141712,35.42339901105837],[-104.19499448546179,35.4215318868208],[-104.19457955725068,35.419005127638535],[-104.18932556352155,35.41918406259339],[-104.18802923929427,35.42161043733373],[-104.18450413257678,35.423237167413305],[-104.18329167057881,35.42992607760684]]]]},"properties":{"NAME":"Conchas Lake","County":"San Miguel"}},
{"type":"Feature","geometry":{"type":"Polygon","coordinates":[[[-105.23435173962316,36.178722959298845],[-105.2345819350868,36.17796871700657],[-105.23643991453001,36.17745111307528],[-105.23880955425473,36.17563598625055],[-105.23650054991893,36.169501910082296],[-105.21927990349481,36.169260579487826],[-105.22072342422565,36.171673491098566],[-105.22021843094497,36.172428214382734],[-105.21808245430798,36.17174685778501],[-105.21700618240142,36.172228499898225],[-105.2150581839417,36.17846793426341],[-105.23435173962316,36.178722959298845]]]},"properties":{"NAME":"Coyote Creek","County":"Mora"}},
{"type":"Feature","geometry":{"type":"Polygon","coordinates":[[[-105.2425648695491,36.537436963410066],[-105.2505409253986,36.54593554394437],[-105.25955399330668,36.55023509056353],[-105.26092099297868,36.548367749401955],[-105.26352974058915,36.55064996400383],[-105.26242471975935,36.55186208638182],[-105.26432918950938,36.55318341504227],[-105.2675201732782,36.55307430293182],[-105.27105171025961,36.55188615708146],[-105.26987203785224,36.547503045637605],[-105.27011458583205,36.53962986948499],[-105.26799311532999,36.53833300313001],[-105.26832146048164,36.53798325056527],[-105.26530968617332,36.536692499798455],[-105.26493699189824,36.53411913572634],[-105.2679735011901,36.53044592131753],[-105.26789578571639,36.529293993086135],[-105.27345135055873,36.5293213870645],[-105.27358463349822,36.52240978694257],[-105.27561178875074,36.520429665341446],[-105.27842445268196,36.50216964364944],[-105.27749141304695,36.49924039411847],[-105.27360404927975,36.49398768447758],[-105.27322089491373,36.48617060112584],[-105.26438713710174,36.486349507237485],[-105.26427636425854,36.487703812872134],[-105.26206365892367,36.48901219506204],[-105.26044548819429,36.492768876333265],[-105.25748746292048,36.49508690181183],[-105.25776836148869,36.496644149720154],[-105.25584850108072,36.49964725072168],[-105.25613066413139,36.50315470380866],[-105.2554238089576,36.505453638015126],[-105.25565474403972,36.50748847545359],[-105.25737243092105,36.510375467863184],[-105.25381871980686,36.51345676131615],[-105.25555819893205,36.51438377338089],[-105.25059494328005,36.52030508422521],[-105.24772168425244,36.520963830265906],[-105.24765675568027,36.52175290812753],[-105.24585376736053,36.522985441768135],[-105.24320633903292,36.523378754193416],[-105.24152619398464,36.53122059225948],[-105.23945056263538,36.53232714158812],[-105.23506893292696,36.53072908891685],[-105.23127273666823,36.53023418524735],[-105.2290796099421,36.531271610126225],[-105.2296265426592,36.53204973336668],[-105.23178494157229,36.53122071718381],[-105.23543999437119,36.53180436107166],[-105.23670468522901,36.532501117201974],[-105.23753107659537,36.53451585624745],[-105.23904843142479,36.53578302779663],[-105.2425648695491,36.537436963410066]]]},"properties":{"NAME":"Eagle Nest Lake","County":"Colfax"}},
{"type":"Feature","geometry":{"type":"Polygon","coordinates":[[[-106.71161687611783,36.664271297224666],[-106.7219281751701,36.66259675150496],[-106.72920810627984,36.65790129841548],[-106.73091011711779,36.64762235905555],[-106.74337925445087,36.65595942153284],[-106.74470221741308,36.65574719137298],[-106.74746385193463,36.65515099818256],[-106.75720806502981,36.64839725660188],[-106.76387976322614,36.66421639881616],[-106.77404564226158,36.665184813979536],[-106.77218097569522,36.65961532480027],[-106.77657591326663,36.65319026710003],[-106.77302317565237,36.64897049192603],[-106.77193206078657,36.643562609377554],[-106.77757758623608,36.64157790242739],[-106.77733975150126,36.639975493544114],[-106.76856626540487,36.63962367977536],[-106.76793183009762,36.63836758764386],[-106.76866090399155,36.634013075263184],[-106.7708147368969,36.6337049312506],[-106.76926548420413,36.63102511168686],[-106.76985616648972,36.62327999554619],[-106.76503975354966,36.615371434719826],[-106.76287201432177,36.6147404092641],[-106.76255726180484,36.60796429180899],[-106.76102416962041,36.608373316805626],[-106.75803931530125,36.60526259324714],[-106.75972305610817,36.600375543015836],[-106.75262294633524,36.58959598080464],[-106.74909540437741,36.58973363000929],[-106.74946218363247,36.585050562180314],[-106.7440576611372,36.58532104244868],[-106.74425788259408,36.5896564406687],[-106.74045399503949,36.59043156163761],[-106.73581692058005,36.59360078558963],[-106.73417462570868,36.59291228994253],[-106.73146697673066,36.59565360671209],[-106.73324430462287,36.597078647094065],[-106.73165050809412,36.6004901039352],[-106.73415516426735,36.60544657031729],[-106.73142942698766,36.61437286320082],[-106.73706103185526,36.621299061164734],[-106.7408957940334,36.633410390562744],[-106.74100315450794,36.63644699726572],[-106.73665336053168,36.6352146014758],[-106.7357616957852,36.63667476498813],[-106.738642797284,36.63822836421293],[-106.74485260756437,36.6390539120091],[-106.74640529035776,36.64337905450097],[-106.7413679322546,36.64436366641517],[-106.74080705457041,36.64876163770546],[-106.73683294739465,36.64522137866988],[-106.7309778881693,36.646578282193104],[-106.72556849730753,36.649897836087774],[-106.72453881267401,36.65616294846075],[-106.72771241837103,36.657417053467036],[-106.72248565174411,36.66174391377576],[-106.71924433998242,36.6616505740842],[-106.71917333429433,36.658458366362794],[-106.7137814740416,36.66218878473054],[-106.7118817645287,36.66267557059568],[-106.70921960190945,36.660921926679485],[-106.70210994929539,36.66178187784642],[-106.70097264992093,36.65934002303986],[-106.69947979347681,36.658878907091136],[-106.69918075451903,36.65971785703148],[-106.69913611252449,36.659873380869925],[-106.69931477093462,36.660348399483176],[-106.70074538313078,36.663181765730535],[-106.70286777702205,36.663410601114556],[-106.70570205801317,36.66253054743499],[-106.70887243111584,36.66400745698612],[-106.71161687611783,36.664271297224666]]]},"properties":{"NAME":"El Vado Lake","County":"Rio Arrriba"}},
{"type":"Feature","geometry":{"type":"Polygon","coordinates":[[[-107.1729507635251,33.390759004386105],[-107.1730042946329,33.37574265992542],[-107.19040736752595,33.37604305441898],[-107.19050657627746,33.35436164129121],[-107.19489331966912,33.35439460220838],[-107.19489340734485,33.35076065896943],[-107.20359146469472,33.35043295852973],[-107.20361420110405,33.33957131589418],[-107.20797846368143,33.33943515720297],[-107.2079933015482,33.31080968954396],[-107.21657677945261,33.31084840523774],[-107.216553713773,33.2999402161639],[-107.21215918624522,33.29994191281353],[-107.21217441710398,33.2963595369362],[-107.20349172052951,33.296295190216284],[-107.20346124830955,33.28909317407453],[-107.19921161130884,33.28905801525607],[-107.19922681497938,33.28539897479517],[-107.19496181251311,33.28537295180345],[-107.19517105886169,33.25610485370867],[-107.20391518140953,33.25601692178703],[-107.20401638374321,33.24105112805404],[-107.2135569517175,33.241082036536],[-107.21355055148821,33.23767517355423],[-107.2222200443723,33.23785453697225],[-107.22201733269402,33.22670199417893],[-107.23106435090521,33.22666548597672],[-107.23111720571607,33.2085465102367],[-107.21577444068743,33.20845869636273],[-107.21569226072326,33.183798092451205],[-107.20919259226211,33.1812788828658],[-107.20561288930878,33.171355155707175],[-107.2025406186992,33.16852743612365],[-107.20005700133167,33.1676790481343],[-107.19892501976184,33.16318949252236],[-107.19555359570721,33.16000447728943],[-107.16409926530487,33.15998339192359],[-107.16409837786495,33.17809530608957],[-107.15968946778462,33.17808432446205],[-107.15974213929383,33.18164478946283],[-107.14246712053234,33.181668507298895],[-107.14248201803275,33.185542956025984],[-107.12956426851355,33.18552195738979],[-107.1295416605626,33.1960605928079],[-107.14686425748368,33.19582221865269],[-107.14680974093766,33.200098682896346],[-107.15102110394959,33.20009274169701],[-107.15100343848843,33.21079023961969],[-107.15526341332544,33.21084900895643],[-107.15536745698385,33.215315816202214],[-107.15099648790924,33.215324682081565],[-107.150610364981,33.22227905762726],[-107.14576071478592,33.22222921891325],[-107.14570113110706,33.23605883744681],[-107.1421708078636,33.23613342282359],[-107.14219287117416,33.25843209216575],[-107.13360553834806,33.25844618665214],[-107.13357397272425,33.2687274372916],[-107.1380077470194,33.26871779606273],[-107.13795940823202,33.276258322857466],[-107.13358543201254,33.27627472822741],[-107.13360752086774,33.290750118074655],[-107.14001764236343,33.290695589512616],[-107.13983002147647,33.31807379785524],[-107.15113702387217,33.31805654503951],[-107.15121357300231,33.33982087779506],[-107.16425732264635,33.33977164808835],[-107.16436742941744,33.36870008881967],[-107.15570018576801,33.368781077999536],[-107.15567288086012,33.39074470321131],[-107.1729507635251,33.390759004386105]]]},"properties":{"NAME":"Elephant Butte Lake","County":"Sierra"}},
{"type":"Feature","geometry":{"type":"Polygon","coordinates":[[[-106.71803001281289,35.892054688613655],[-106.7202428517764,35.89200046941104],[-106.72031890004975,35.89005893840828],[-106.72142531600105,35.89002505073943],[-106.72150914634383,35.888076647017904],[-106.72370643779136,35.88806089858774],[-106.7237905623488,35.88609671328099],[-106.72598763078048,35.88613727145138],[-106.72607170422347,35.88415730772468],[-106.73525770580369,35.88426380889],[-106.73088589471935,35.88348627293975],[-106.74051127256482,35.87989363508979],[-106.74316789846135,35.87661487513303],[-106.7462704769705,35.8752772796465],[-106.74492240945929,35.87372249980146],[-106.74087031909724,35.87359192368627],[-106.74008524870945,35.87533211395184],[-106.73821387797265,35.87690007481383],[-106.72706014262842,35.88088990273746],[-106.72544196189338,35.88251554098263],[-106.72244767021249,35.881987190327926],[-106.72277562775707,35.88411900045932],[-106.72166157361706,35.884180055342036],[-106.7215854107151,35.88613060309599],[-106.72047147757242,35.88618262892082],[-106.72039538402471,35.88812190620344],[-106.71817507963746,35.88821004198841],[-106.71814459655748,35.88917055699294],[-106.71592450476297,35.88925414016696],[-106.71589375256906,35.89020339011187],[-106.71367373170466,35.890275661566996],[-106.7136432485913,35.89122265359524],[-106.71806845555705,35.89109406013356],[-106.71803001281289,35.892054688613655]]]},"properties":{"NAME":"Fenton Lake","County":"Sandoval"}},
{"type":"Feature","geometry":{"type":"Polygon","coordinates":[[[-106.74470221741308,36.65574719137298],[-106.74337925445087,36.65595942153284],[-106.73091011711779,36.64762235905555],[-106.72920810627984,36.65790129841548],[-106.7219281751701,36.66259675150496],[-106.71161687611783,36.664271297224666],[-106.70887905536024,36.66400809383316],[-106.70570205801317,36.66253054743499],[-106.70286777702205,36.663410601114556],[-106.70074538313078,36.663181765730535],[-106.69931477093462,36.660348399483176],[-106.69913611252449,36.659873380869925],[-106.69918075451903,36.65971785703148],[-106.6958543219122,36.659461947144884],[-106.69201260706966,36.66122682192819],[-106.68836506294359,36.6576317609651],[-106.68411153283539,36.65799420857181],[-106.6835300635678,36.6589335731173],[-106.68365112873714,36.674397395860616],[-106.66661110484662,36.68103042428694],[-106.64287672368378,36.70373078018078],[-106.63883052001567,36.703786561747734],[-106.63890778716892,36.710827256552996],[-106.62912852577541,36.71096152282738],[-106.62912941156571,36.71571458629339],[-106.64022088371615,36.719325221087125],[-106.62904902771183,36.73243263812713],[-106.63155859861702,36.732441459038505],[-106.64322458793032,36.72684928510344],[-106.6478506347689,36.71778430962578],[-106.6608285514122,36.70586274322852],[-106.67699355780708,36.711421486405385],[-106.68682193390806,36.707807665411785],[-106.6975510610583,36.71235262273368],[-106.71473746998022,36.71706541453719],[-106.74675066598084,36.707628983601836],[-106.73666258461729,36.69512022708621],[-106.72700595578308,36.6802086011684],[-106.74349122018312,36.65895766702585],[-106.74470221741308,36.65574719137298]]]},"properties":{"NAME":"Heron Lake","County":"Rio Arriba"}},
{"type":"Feature","geometry":{"type":"Polygon","coordinates":[[[-105.8311491948861,35.747238095325315],[-105.83228592125026,35.74720318720327],[-105.83342270361214,35.746212573474445],[-105.83600941389324,35.7463569106905],[-105.83732921897912,35.747436416406444],[-105.84009923837752,35.74793219216778],[-105.84001472030606,35.73915000282018],[-105.83667561261754,35.73914805651653],[-105.83672979536676,35.735512300579444],[-105.83997659564584,35.73548750917324],[-105.84013671559721,35.728293848056296],[-105.83136264629127,35.728275899252445],[-105.83114903216662,35.73548570149073],[-105.83453547914013,35.735504744075],[-105.83452153785827,35.73818836663417],[-105.83338895075717,35.73818444970049],[-105.83338399061563,35.73913670321346],[-105.83114933847928,35.73913944942215],[-105.8311491948861,35.747238095325315]]]},"properties":{"NAME":"Hyde Memorial","County":"Santa Fe"}},
{"type":"Feature","geometry":{"type":"Polygon","coordinates":[[[-106.92118880900433,32.50015012060742],[-106.926310616301,32.50004657919915],[-106.92628383065417,32.49885493052325],[-106.93078902579758,32.49973212036858],[-106.93064586313582,32.49286983606627],[-106.92297984830992,32.49286907171361],[-106.92416480494556,32.48912459854994],[-106.92202981152806,32.48998927707355],[-106.92203027277039,32.48912797103492],[-106.91266401858806,32.48842284125172],[-106.9177199960976,32.48940266116641],[-106.91790276559468,32.50020026671841],[-106.92118880900433,32.50015012060742]]]},"properties":{"NAME":"Leasburg Dam","County":"Dona Ana"}},
{"type":"Feature","geometry":{"type":"Polygon","coordinates":[[[-104.28484007560134,32.46554811975913],[-104.29794788158061,32.46550236938969],[-104.29790377030098,32.4363263958638],[-104.2935942241463,32.43633606125652],[-104.29368729463752,32.43422822420636],[-104.29180245648082,32.43268279197996],[-104.28946845727273,32.43268458776776],[-104.28929598097771,32.43634653872061],[-104.27174638908701,32.43622969335124],[-104.27170883526657,32.45106880518982],[-104.28464903219391,32.45101443054378],[-104.28467948748458,32.45465001351197],[-104.28038427269485,32.45467289889749],[-104.28042983020859,32.45831081999642],[-104.28470992029177,32.45828784770694],[-104.28484007560134,32.46554811975913]]]},"properties":{"NAME":"Living Desert Zoo and Gardens","County":"Eddy"}},
{"type":"Feature","geometry":{"type":"Polygon","coordinates":[[[-106.36054394568606,34.60548499410328],[-106.3705622224423,34.605490708237156],[-106.37053495683773,34.59979257655465],[-106.36566199987978,34.599345728888245],[-106.36562301179826,34.59625895996237],[-106.35866745686502,34.596887732859344],[-106.35860977933947,34.59834203494756],[-106.36206936707208,34.59871143028127],[-106.3601609910023,34.60447292072639],[-106.36082961823095,34.604424905045],[-106.36054394568606,34.60548499410328]]]},"properties":{"NAME":"Manzano Mountains","County":"Torrance"}},
{"type":"Feature","geometry":{"type":"Polygon","coordinates":[[[-106.81209704408755,32.23657968424464],[-106.81817986512459,32.24827542415872],[-106.8184852134551,32.2529834633534],[-106.81959110501576,32.256617441574726],[-106.82600531205652,32.26308995572507],[-106.82669156657988,32.26280570488623],[-106.82439273005572,32.26084193115757],[-106.82289012426419,32.25627036420578],[-106.82423477795633,32.25693637937103],[-106.8270039994755,32.25443840797675],[-106.82547187662969,32.25218101098296],[-106.82643975827472,32.25064781443792],[-106.82797000458163,32.25004954700353],[-106.8246036835687,32.24718045800752],[-106.81730967950658,32.242905922707024],[-106.81209704408755,32.23657968424464]]]},"properties":{"NAME":"Mesilla Valley Bosque","County":"Dona Ana"}},
{"type":"Feature","geometry":{"type":"Polygon","coordinates":[[[-105.4007302572532,35.942132261069396],[-105.40002324420658,35.94064080487386],[-105.39518849442514,35.93996264474926],[-105.39515657080918,35.94297799509822],[-105.39673928834378,35.94387448498913],[-105.39919888928446,35.94412873342365],[-105.4007302572532,35.942132261069396]]]},"properties":{"NAME":"Morphy Lake","County":"Mora"}},
{"type":"Feature","geometry":{"type":"Polygon","coordinates":[[[-107.5829707889535,36.81079064435805],[-107.58309173484074,36.812624049518355],[-107.58089723978316,36.81262403865839],[-107.58090982304068,36.82712126919045],[-107.5745914123868,36.83402167026756],[-107.56270979382099,36.84124969298817],[-107.54931324169262,36.84163328234481],[-107.54883744398374,36.84517250205904],[-107.53590810714591,36.845353806140935],[-107.53578746022043,36.84888540182941],[-107.53116224404084,36.84898403663166],[-107.53133429263313,36.85060181310919],[-107.52683069401209,36.85079306785534],[-107.527010890619,36.87787683483158],[-107.53342061347462,36.87783565994682],[-107.53377858009708,36.86352122588853],[-107.53781788536533,36.86362575138413],[-107.53816935558221,36.87782964653811],[-107.54018938476337,36.87788183765785],[-107.54036804199052,36.87969020577991],[-107.54487643519194,36.87959368482527],[-107.54481947483727,36.877878095513374],[-107.54576542036801,36.877762444853595],[-107.54611791616315,36.86335275120933],[-107.5446945188075,36.86338325337824],[-107.54457751609164,36.85985675308429],[-107.54932511701168,36.85985033681367],[-107.54926669604136,36.86166378092149],[-107.56267629553751,36.86156599214545],[-107.56291762653967,36.87233850979209],[-107.56731007124098,36.872339023585845],[-107.56742923664055,36.8688074628613],[-107.57169965044393,36.868715076888705],[-107.57158138401813,36.86518865512661],[-107.56742021118939,36.86499253887169],[-107.56736391668558,36.85621897178762],[-107.56961099321887,36.855979629079485],[-107.56961466751947,36.852545938148644],[-107.58076918067947,36.852494888156],[-107.58083009825364,36.854305744215836],[-107.58534006926709,36.85430305410828],[-107.58539075764692,36.84524105638732],[-107.598919006459,36.84523201382825],[-107.59892308251838,36.84885627213104],[-107.61791014782239,36.8488208802548],[-107.61796261947482,36.833225544001564],[-107.63156769113994,36.83245048785819],[-107.63112933859682,36.82874764214094],[-107.65776333770157,36.828526837946534],[-107.65691353914939,36.82479754403549],[-107.65456014021319,36.82467131254739],[-107.65843492035172,36.821451562911044],[-107.66172421047604,36.821628290883055],[-107.66134061903102,36.818518068811095],[-107.66278866519944,36.81645438236162],[-107.66620030190946,36.815035460564886],[-107.66616967613835,36.81552018336011],[-107.67085681700662,36.81565774203354],[-107.67059830427436,36.818524965644016],[-107.67522532292483,36.818540106396995],[-107.67554617917989,36.81498011560829],[-107.68020094355101,36.81494675297662],[-107.68055119401755,36.811386087474055],[-107.68968412652468,36.811370480736045],[-107.69023417678889,36.804222898092384],[-107.6946171004252,36.80397200101458],[-107.69452059764065,36.80037374194362],[-107.69872224692035,36.800104171726375],[-107.69838218092728,36.79643770770876],[-107.69021740670881,36.79695661224208],[-107.69028490167588,36.80057938044396],[-107.68574787865347,36.800562774332015],[-107.68574227701362,36.804151603745446],[-107.67194253830644,36.80422166139038],[-107.67145472666704,36.80903960453284],[-107.66666978428135,36.811293044339244],[-107.65292988372214,36.811004462245265],[-107.65194939033546,36.81773610811165],[-107.64279502062291,36.81715319328138],[-107.64385362842194,36.81085860597356],[-107.63486460386595,36.81074827101513],[-107.63606705184574,36.80430748236758],[-107.62708121312446,36.80426800611546],[-107.62713807144335,36.797256497914084],[-107.6182443361797,36.797285835944955],[-107.61821027045998,36.79454447352843],[-107.59887869567281,36.79451568101034],[-107.59891386068966,36.798186973542016],[-107.59443362951531,36.79809409629424],[-107.59441307123694,36.805390982455016],[-107.58993562641989,36.80539325955893],[-107.58987989818084,36.80901884903376],[-107.58537179684774,36.80899778133032],[-107.58537265886739,36.81078610660076],[-107.5829707889535,36.81079064435805]]]},"properties":{"NAME":"Navajo Lake","County":"Rio Arriba & San Juan"}},
{"type":"Feature","geometry":{"type":"Polygon","coordinates":[[[-103.33608718615396,34.25997036368145],[-103.35362746718738,34.25998184049197],[-103.35362762296234,34.251927255668335],[-103.34485366031615,34.251951101775454],[-103.34486061279713,34.25921902227942],[-103.33608723078332,34.25924448586898],[-103.33608718615396,34.25997036368145]]]},"properties":{"NAME":"Oasis","County":"Roosevelt"}},
{"type":"Feature","geometry":{"type":"MultiPolygon","coordinates":[[[[-105.91543166765538,32.730109312517335],[-105.9197116457461,32.730098283011394],[-105.91971927216206,32.73373114170661],[-105.928302589272,32.73371072032908],[-105.9282720963236,32.71918378915221],[-105.91540115868418,32.719226550956655],[-105.91543166765538,32.730109312517335]]],[[[-105.911166827101,32.75189277600585],[-105.9197501193385,32.75186164802701],[-105.91974230283321,32.74460941774717],[-105.9132142550702,32.74465944533206],[-105.91324166986718,32.73737121948047],[-105.9111818339304,32.73737679816116],[-105.911166827101,32.75189277600585]]]]},"properties":{"NAME":"Oliver Lee Memorial","County":"Otero"}},
{"type":"Feature","geometry":{"type":"Polygon","coordinates":[[[-107.64056043164834,31.828164053659727],[-107.64580250672032,31.82643666031869],[-107.64541731496665,31.825559786243982],[-107.6430886585386,31.826312723541346],[-107.64280747355592,31.825168322822808],[-107.64208652876897,31.825104496296376],[-107.64182170153724,31.821273793953278],[-107.63854965625445,31.821301132824317],[-107.64056043164834,31.828164053659727]]]},"properties":{"NAME":"Pancho Villa","County":"Luna"}},
{"type":"Feature","geometry":{"type":"MultiPolygon","coordinates":[[[[-105.67853766367976,35.73894923685477],[-105.67841471007401,35.741024425152794],[-105.67578182880351,35.743886046588386],[-105.67591545373239,35.74570343129171],[-105.68006107950745,35.74549766887332],[-105.67948020709828,35.73513432384171],[-105.67515157972456,35.735325677707394],[-105.67540805926176,35.738775863198924],[-105.67853766367976,35.73894923685477]]],[[[-105.66995742121922,35.760805642123564],[-105.66922314734342,35.7636612875764],[-105.67551154969438,35.763420921785354],[-105.67473674122384,35.75630285046476],[-105.67690910404421,35.75624116576208],[-105.67616685447477,35.749165185318],[-105.6720701028483,35.74932673117259],[-105.67352839411086,35.751291338422625],[-105.67327745289192,35.75363651622289],[-105.67172558084219,35.75659126697303],[-105.67192283806418,35.760559665034556],[-105.66995742121922,35.760805642123564]]],[[[-105.65880140334664,35.789097381969],[-105.66102138387893,35.78906222626765],[-105.66093216273967,35.77272974811873],[-105.66531655715997,35.77266454183138],[-105.66526842133972,35.77085622035288],[-105.6587610681371,35.770967587897815],[-105.65878690204757,35.77640782170102],[-105.65434770231128,35.7764471588786],[-105.65433563089134,35.77826028931744],[-105.6520329392376,35.778250985682014],[-105.65211745366202,35.779996722266986],[-105.65657897994741,35.78000107165896],[-105.6565292601169,35.7782265226731],[-105.65879548609583,35.77821485765743],[-105.65880140334664,35.789097381969]]]]},"properties":{"NAME":"Pecos Canyon","County":"San Miguel"}},
{"type":"Feature","geometry":{"type":"Polygon","coordinates":[[[-107.30253592649457,32.865749787134085],[-107.30299823991383,32.868158964638475],[-107.30545774003457,32.869026447410576],[-107.30783775697452,32.868285901803006],[-107.30884656841275,32.865789582181584],[-107.30253592649457,32.865749787134085]]]},"properties":{"NAME":"Percha Dam","County":"Sierra"}},
{"type":"Feature","geometry":{"type":"Polygon","coordinates":[[[-106.68126338549281,35.12840414030685],[-106.68061025959645,35.13000106464131],[-106.68141573411872,35.13250400345088],[-106.6809340125213,35.13508461498885],[-106.6853709326762,35.129483500345984],[-106.68580987985307,35.127775510904684],[-106.6850716823726,35.12749435393678],[-106.68437802959738,35.12872358337092],[-106.68523450321568,35.12922915468551],[-106.68126338549281,35.12840414030685]]]},"properties":{"NAME":"Rio Grande Nature Center","County":"Beralillo"}},
{"type":"Feature","geometry":{"type":"MultiPolygon","coordinates":[[[[-107.62003729139781,32.15111329896527],[-107.62004569815667,32.15268064749438],[-107.6329217486491,32.152697151036215],[-107.63291953978424,32.13818871853164],[-107.6285257787195,32.13819659020613],[-107.62854580900988,32.14182509136086],[-107.62435740293556,32.141861957479016],[-107.62437834425172,32.13818965459337],[-107.61581461973012,32.138188092445375],[-107.61580578122552,32.15112931539084],[-107.61734558125376,32.15112821282022],[-107.61735116158215,32.151639442972545],[-107.6177070183495,32.15112457631838],[-107.61807855569515,32.15163207610684],[-107.62003729139781,32.15111329896527]]],[[[-107.61013892509088,32.19133472701296],[-107.61018472971776,32.19497458156091],[-107.61390253440646,32.1949405733523],[-107.61385453360899,32.18926507811209],[-107.61813464588786,32.189255391925585],[-107.61806596167786,32.18202707789509],[-107.61008260631223,32.18214738377051],[-107.60757307509348,32.18047499209282],[-107.60587387763388,32.18049129290576],[-107.6054224409166,32.1913922637794],[-107.61013892509088,32.19133472701296]]]]},"properties":{"NAME":"Rockhound","County":"Luna"}},
{"type":"Feature","geometry":{"type":"MultiPolygon","coordinates":[[[[-104.67819553436536,35.02420956869914],[-104.6774809936867,35.02488297443377],[-104.67250973731352,35.02507541720684],[-104.67233150036115,35.02634640265335],[-104.67870348825642,35.02551931306567],[-104.67819553436536,35.02420956869914]]],[[[-104.67682843548232,35.03240537453051],[-104.67760208401259,35.0332184370278],[-104.68130835524184,35.03288416443144],[-104.68179136216578,35.031607484731516],[-104.68325471727061,35.03178334530514],[-104.68367035838816,35.0324725549571],[-104.68367310444667,35.03175986079823],[-104.68465888910863,35.03181157828894],[-104.6873004158821,35.02859896828657],[-104.68514759983164,35.02751449445827],[-104.68378832095814,35.03014172650465],[-104.68211261977378,35.02822598030143],[-104.67534442688537,35.03094596688162],[-104.67611459133992,35.03256078067031],[-104.67682843548232,35.03240537453051]]],[[[-104.68833782848368,35.04088147515816],[-104.6935299846532,35.040332586246016],[-104.69695915365861,35.03134961240805],[-104.6882489166606,35.030592058495046],[-104.68696024607124,35.03162092899097],[-104.68617524638012,35.03375700621699],[-104.68641145949856,35.03449489390709],[-104.68769747214318,35.03417872333516],[-104.68685692620905,35.03520874538734],[-104.68512581411059,35.03471274738977],[-104.68180148134137,35.03554198489229],[-104.68833782848368,35.04088147515816]]]]},"properties":{"NAME":"Santa Rosa Lake","County":"Guadalup"}},
{"type":"Feature","geometry":{"type":"Polygon","coordinates":[[[-105.23087078021202,35.66152029851356],[-105.2335401477995,35.66150951522878],[-105.23293642194292,35.66007878706291],[-105.23406475191636,35.65924962843094],[-105.23316656349434,35.658061495552545],[-105.23357827238581,35.65665415730033],[-105.23245975431115,35.65545932360972],[-105.23280715351231,35.653473934946994],[-105.23600647727953,35.65286296996599],[-105.24005461173563,35.65348509942642],[-105.24275727291051,35.65705395887344],[-105.24484032527916,35.65832614869917],[-105.2448333560343,35.65221186076434],[-105.24009461944894,35.65219167710798],[-105.24011816148735,35.651268401499195],[-105.23124807859728,35.65127492664657],[-105.23118336083434,35.656447138313894],[-105.23212693968425,35.659040763580066],[-105.23087078021202,35.66152029851356]]]},"properties":{"NAME":"Storrie Lake","County":"San Miguel"}},
{"type":"Feature","geometry":{"type":"Polygon","coordinates":[[[-104.35525019178236,36.99370279315359],[-104.41741101827294,36.99358464371726],[-104.41268536661991,36.989459085024265],[-104.40915364104238,36.98849274486634],[-104.40595835468764,36.986611263267385],[-104.40453151988723,36.98128947804433],[-104.40288224145692,36.97930160719632],[-104.39945835095321,36.977122293396434],[-104.39809360416785,36.97375962264897],[-104.3978596988904,36.97175499764791],[-104.39850443718437,36.97141481870825],[-104.39676840039976,36.968176223942656],[-104.3972405030652,36.96546248258459],[-104.397941975448,36.96470521108127],[-104.40061254329576,36.96413438441764],[-104.40354681032602,36.961759339138105],[-104.40465568452163,36.96248757467109],[-104.40616795203704,36.9624369290851],[-104.40517291299496,36.96197401862805],[-104.40522627459588,36.95969894591536],[-104.39976494314688,36.95373799676654],[-104.3980500197951,36.95324558200783],[-104.39508789779289,36.946762259566846],[-104.39598656324577,36.94472045404489],[-104.38552413380089,36.94460390244334],[-104.38554311968224,36.93730377366021],[-104.37652845055128,36.937256793605115],[-104.37636773390379,36.94447401102668],[-104.36718296435224,36.94429098284611],[-104.36836695835652,36.944845847596255],[-104.37185654337394,36.949417424613536],[-104.37495732882871,36.961116196300466],[-104.37086170810767,36.9725034341067],[-104.36814183904372,36.97430162250761],[-104.36661197313425,36.972659250807496],[-104.36418272992249,36.9726694826896],[-104.36414943272948,36.97553037196781],[-104.36279748403985,36.977240352359],[-104.36257388635781,36.979099484224776],[-104.35820632361892,36.981995240530736],[-104.35718096620852,36.987260624252464],[-104.35405935125658,36.98724367944032],[-104.35406349747473,36.98323684178228],[-104.35052456477806,36.98686663817845],[-104.35000242025258,36.99232550789686],[-104.3479696563084,36.99343055511153],[-104.35525019178236,36.99370279315359]]]},"properties":{"NAME":"Sugarite Canyon","County":"Colfax"}},
{"type":"Feature","geometry":{"type":"MultiPolygon","coordinates":[[[[-104.39479930741255,34.62232790541805],[-104.39589856402911,34.621985002050494],[-104.39597999976837,34.62110259637613],[-104.39520624929814,34.62113693868659],[-104.39454984272703,34.620115350027916],[-104.39375279359658,34.62176725513699],[-104.39479930741255,34.62232790541805]]],[[[-104.39738118852785,34.6248638509288],[-104.39875432520735,34.62480859157295],[-104.4003902297261,34.62329296381775],[-104.39538669978569,34.623117949708956],[-104.39738118852785,34.6248638509288]]],[[[-104.37486639162807,34.623133095397655],[-104.36602833762618,34.62316824700579],[-104.36603253096241,34.63400054178392],[-104.37209369822496,34.63410347576952],[-104.40097005421971,34.612330595872464],[-104.39651092829513,34.612308619564246],[-104.39652195261895,34.60599920052277],[-104.39157975024021,34.606652391551584],[-104.39058704958174,34.60428532096954],[-104.39179792869862,34.602850232327064],[-104.38936979553469,34.60185508254832],[-104.3892794223015,34.601192759746205],[-104.38567542620191,34.601192323793825],[-104.3860985520606,34.60251055861956],[-104.3847706838773,34.602580221788294],[-104.38665597709792,34.60440305506018],[-104.38670703943599,34.606092582739535],[-104.38487029661287,34.604724284475395],[-104.38200474633611,34.60470803640997],[-104.38104336210877,34.603358907834156],[-104.378501068158,34.60326185449891],[-104.37293431301647,34.605020824486516],[-104.37488485730131,34.6050403771766],[-104.37487518749512,34.612490765336666],[-104.36608495731831,34.612311792874856],[-104.36610931537555,34.61594097762943],[-104.37046908205426,34.61592060627418],[-104.37052830498824,34.61954424363359],[-104.37486459596893,34.619523595111474],[-104.37486639162807,34.623133095397655]]]]},"properties":{"NAME":"Sumner Lake","County":"De Baca"}},
{"type":"Feature","geometry":{"type":"MultiPolygon","coordinates":[[[[-103.4342079619383,35.346004707198595],[-103.43512416755539,35.34665064442677],[-103.43699936962413,35.34572380680605],[-103.43772522216076,35.346208745645576],[-103.4391331235303,35.345434350203234],[-103.43838810780495,35.34393465989318],[-103.44275659194969,35.342120519071486],[-103.44532831374836,35.34319984679794],[-103.4508044938778,35.34212883972125],[-103.45075319808828,35.33873589616983],[-103.44776459713486,35.3387227507498],[-103.44745307424697,35.33702773434323],[-103.44728366566844,35.338691372001826],[-103.44642087165394,35.33868028438346],[-103.44629664349193,35.33506447634938],[-103.43739606197569,35.33517165815141],[-103.43756453160402,35.34249735577382],[-103.4330748505982,35.342566042883206],[-103.43319175277173,35.3465304954272],[-103.4342079619383,35.346004707198595]]],[[[-103.47282208493019,35.347350712140496],[-103.47381269996377,35.34746818655754],[-103.47348764002714,35.34602088290772],[-103.47437088575084,35.34503491828784],[-103.47484322841157,35.347166316943955],[-103.47498264694143,35.34656455747128],[-103.47577670786622,35.34691569484198],[-103.47678456274274,35.34611496332009],[-103.47641364185151,35.34540180847699],[-103.47538511344251,35.345598756304426],[-103.47509402130946,35.34404692574488],[-103.47799238138805,35.34489690153737],[-103.47604471005515,35.34287811878527],[-103.47803371941339,35.34269326336467],[-103.4793676267546,35.34328733421478],[-103.48060001294259,35.34246315449648],[-103.47963746570719,35.34085040925978],[-103.4783912808716,35.34070352624618],[-103.47794301941359,35.33899228144166],[-103.47905067461204,35.33627726459715],[-103.47886705075055,35.33924007473977],[-103.47943006399387,35.33995564047599],[-103.48007677615625,35.33962265507056],[-103.48146251311768,35.342578954909],[-103.48273682585567,35.34293607999063],[-103.48079908128078,35.34380389650984],[-103.47990167148305,35.345550691354916],[-103.47805349429413,35.346760709511905],[-103.48237248836725,35.345293105227924],[-103.48273744546964,35.344615447632535],[-103.48281878245551,35.34540366895481],[-103.48358526184056,35.345518249088684],[-103.48954580248508,35.34359865167948],[-103.48949690670878,35.34278459951273],[-103.49049920898932,35.342272321321865],[-103.48999865076928,35.34163630767724],[-103.49099947195242,35.34120272695822],[-103.48992261660388,35.3405595161005],[-103.49116022283572,35.33944665057012],[-103.49003497811684,35.33796315423469],[-103.4902830002996,35.33668048966417],[-103.48904125166823,35.336297611910254],[-103.49019476360674,35.336259546997326],[-103.49038899699893,35.334425168121236],[-103.489081029336,35.332440819367356],[-103.49026845129599,35.33229821651497],[-103.49040967799247,35.33159149826391],[-103.49087426646399,35.33243698220792],[-103.48949573848707,35.33252472317233],[-103.4909711050131,35.33411755595209],[-103.49072163830847,35.33547892513909],[-103.49152054056326,35.335567619055304],[-103.49257716737439,35.33384895636105],[-103.49180525960165,35.335754852174574],[-103.49255850661565,35.33657769135604],[-103.49397301099631,35.336280443783096],[-103.49255119722383,35.33697120182647],[-103.4922151367742,35.341270379041134],[-103.49106429846334,35.34288289881035],[-103.49319889151366,35.341754969014204],[-103.49356556277226,35.342704182715266],[-103.49476042959463,35.342168029066364],[-103.49364943933061,35.34336122888443],[-103.49155560656953,35.34401735405671],[-103.4920576551084,35.34457466044007],[-103.49453181918996,35.34413318568793],[-103.49386954250755,35.34530573580892],[-103.49150261476962,35.34514501444649],[-103.49136234525842,35.34579926371587],[-103.48982007838005,35.34606864178769],[-103.49478396467794,35.34607808925605],[-103.49492954059163,35.327869286854124],[-103.49944512690364,35.32782046638579],[-103.49941261380188,35.324382604573415],[-103.49051181449771,35.324376746546534],[-103.49041004155143,35.33149841632136],[-103.48602438753899,35.33151040921812],[-103.48602788231035,35.32788932286057],[-103.48164083832214,35.327913016460414],[-103.48163812921085,35.331481630405484],[-103.48387903067511,35.331509759323865],[-103.48387118198727,35.33707255009144],[-103.48054112367967,35.337056972204856],[-103.48054398178085,35.33519396629901],[-103.4794554950425,35.335180277598674],[-103.47948940680597,35.3333701418048],[-103.47612749142074,35.33335404247359],[-103.47611909938605,35.3406224184159],[-103.47275787635294,35.340553749821176],[-103.47282208493019,35.347350712140496]]],[[[-103.4461976604748,35.36049423633351],[-103.45503219436067,35.36050690487863],[-103.45504808334174,35.35686725680264],[-103.45621336363207,35.356872029965764],[-103.45574163195282,35.357419584170295],[-103.45778217940426,35.35642247955401],[-103.4568377129168,35.35673831881819],[-103.45647667294851,35.35539994844205],[-103.45132487423692,35.35210929327748],[-103.44971968490724,35.35383991197927],[-103.44685024316895,35.35317037283887],[-103.44634593767353,35.34975310975041],[-103.44535880619475,35.349728200697214],[-103.44419849125464,35.356834074712935],[-103.44623462329774,35.356845042732104],[-103.4461976604748,35.36049423633351]]],[[[-103.48592727710883,35.378685316315156],[-103.49922003950866,35.378627199888086],[-103.49926905996068,35.37154976156405],[-103.49478481232342,35.371516374578356],[-103.49480425714,35.36605128684323],[-103.49701951316837,35.366034067098404],[-103.49703333636533,35.362338417525606],[-103.49438161616064,35.36230540368398],[-103.49441321936737,35.360603480292646],[-103.48604694753978,35.36056613931637],[-103.48592727710883,35.378685316315156]]]]},"properties":{"NAME":"Ute Lake","County":"Quay"}},
{"type":"Feature","geometry":{"type":"Polygon","coordinates":[[[-105.39749484233568,35.274280651899225],[-105.39755084135075,35.26373945958791],[-105.37092156475015,35.26367133411082],[-105.37087519246433,35.25636630911671],[-105.36203576227294,35.25630719087972],[-105.3620148209885,35.248978744475195],[-105.32654560727144,35.24910547520661],[-105.32651260604518,35.26002963839936],[-105.33087657156143,35.26002558297155],[-105.33087683154243,35.2636136254057],[-105.33198565854275,35.26363759319386],[-105.33189710386522,35.27463639752704],[-105.33536729107887,35.27462907395933],[-105.33537753138806,35.26716971695442],[-105.34422213053622,35.26718183379262],[-105.3442408580072,35.26368894616666],[-105.3394649390759,35.26372823070294],[-105.33546829416336,35.26282589155918],[-105.33908076159454,35.26175554771426],[-105.34185949286055,35.257941384477654],[-105.35629883715997,35.25536514597742],[-105.36485134323412,35.25762282729296],[-105.36565740947253,35.26029720696862],[-105.3694034536275,35.26277655112544],[-105.37336990163955,35.26759551616514],[-105.37829041284495,35.26915482490433],[-105.38008589410721,35.270530543908976],[-105.38149833920701,35.27396157070678],[-105.38080636680846,35.2748237050651],[-105.38175183420789,35.2746932958366],[-105.38329827855142,35.27573338214397],[-105.3878669431894,35.28169871355754],[-105.38856424473053,35.28177184671304],[-105.38864671527959,35.274468662375696],[-105.39749484233568,35.274280651899225]]]},"properties":{"NAME":"Villanueva","County":"San Miguel"}}
]}