{"type":"FeatureCollection", "features": [
{"type":"Feature","geometry":{"type":"Polygon","coordinates":[[[-73.51822675,41.6668898],[-73.520017,41.641197],[-73.521041,41.619773],[-73.52571719,41.57180964],[-73.5271167,41.55745501],[-73.530067,41.527194],[-73.53063719,41.52025284],[-73.53236915,41.49916878],[-73.533969,41.479693],[-73.534055,41.478968],[-73.53415,41.47806],[-73.534269,41.476911],[-73.534269,41.476394],[-73.534369,41.475894],[-73.53471415,41.47127519],[-73.535769,41.457159],[-73.535857,41.455709],[-73.535885,41.455236],[-73.535986,41.45306],[-73.536067,41.451331],[-73.536969,41.441094],[-73.53722713,41.43840743],[-73.537469,41.43589],[-73.537673,41.433905],[-73.541169,41.405994],[-73.54240565,41.38989341],[-73.543425,41.376622],[-73.544728,41.366375],[-73.54858377,41.32997185],[-73.548973,41.326297],[-73.54950706,41.31708565],[-73.549574,41.315931],[-73.548929,41.307598],[-73.54922128,41.30584661],[-73.54988649,41.30186059],[-73.550961,41.295422],[-73.54051237,41.28300853],[-73.518384,41.256719],[-73.51739847,41.25550462],[-73.50638455,41.24193319],[-73.50266152,41.23734565],[-73.482709,41.21276],[-73.48535794,41.21157827],[-73.49588525,41.20688191],[-73.50195462,41.20417429],[-73.50396539,41.20327726],[-73.509487,41.200814],[-73.514617,41.198434],[-73.52400856,41.19409243],[-73.54638022,41.18375036],[-73.55522965,41.1796594],[-73.564941,41.17517],[-73.57898801,41.16884809],[-73.58614136,41.1656287],[-73.59353559,41.1623009],[-73.59723389,41.16063647],[-73.632153,41.144921],[-73.63388933,41.14412985],[-73.639672,41.141495],[-73.66051951,41.13184087],[-73.6685946,41.12810143],[-73.68285755,41.12149651],[-73.69600022,41.11541036],[-73.727775,41.100696],[-73.722575,41.093596],[-73.716875,41.087596],[-73.694273,41.059296],[-73.68901104,41.05292311],[-73.687173,41.050697],[-73.679973,41.041797],[-73.67530491,41.03604848],[-73.67172292,41.03163744],[-73.670472,41.030097],[-73.66627526,41.02493178],[-73.662672,41.020497],[-73.655371,41.012797],[-73.654671,41.011697],[-73.65479776,41.01113362],[-73.655167,41.00949256],[-73.655571,41.007697],[-73.65714486,41.00430167],[-73.65771563,41.00307034],[-73.659372,40.999497],[-73.658772,40.993497],[-73.659671,40.987909],[-73.657336,40.985171],[-73.65733585,40.98517124],[-73.651175,40.995229],[-73.64392704,41.00176577],[-73.64347793,41.00217082],[-73.64195324,41.00266777],[-73.62125597,41.00941372],[-73.60395171,41.01505378],[-73.59580205,41.01598312],[-73.59569891,41.01599489],[-73.58498825,41.0105366],[-73.58487001,41.0094194],[-73.583968,41.000897],[-73.570068,41.001597],[-73.567668,41.010897],[-73.56422954,41.01445611],[-73.561968,41.016797],[-73.5526945,41.02347207],[-73.55149361,41.02433646],[-73.5395025,41.02996522],[-73.53656305,41.03134503],[-73.53533778,41.03192018],[-73.53490845,41.03187802],[-73.53278616,41.03166958],[-73.53018899,41.02877623],[-73.53116862,41.02191876],[-73.528866,41.016397],[-73.522666,41.019297],[-73.51687086,41.02931572],[-73.516766,41.029497],[-73.51676697,41.02956253],[-73.516899,41.03843683],[-73.51690348,41.03873752],[-73.51588046,41.03914694],[-73.49517632,41.047433],[-73.49332711,41.04817307],[-73.48902031,41.044888],[-73.477364,41.035997],[-73.46823887,41.05134665],[-73.46464266,41.05250335],[-73.4613595,41.05355936],[-73.45344862,41.05610385],[-73.450364,41.057096],[-73.44792241,41.05703217],[-73.44693096,41.05700625],[-73.44667379,41.05699953],[-73.435063,41.056696],[-73.42054263,41.06793762],[-73.41852974,41.069496],[-73.41847878,41.06953545],[-73.41770794,41.07013223],[-73.41766039,41.07016904],[-73.41366997,41.07325842],[-73.41339678,41.07352201],[-73.4015043,41.08499651],[-73.40015421,41.08629915],[-73.39390061,41.08739213],[-73.392162,41.087696],[-73.38328292,41.094992],[-73.37229582,41.10402018],[-73.37031117,41.10430503],[-73.3473004,41.10760767],[-73.34706851,41.10764095],[-73.33066,41.109996],[-73.31970911,41.11366571],[-73.31186,41.116296],[-73.29892551,41.12413964],[-73.29866289,41.12429889],[-73.29815774,41.12460522],[-73.296359,41.125696],[-73.286759,41.127896],[-73.28634855,41.12772106],[-73.26584409,41.11898181],[-73.262358,41.117496],[-73.247958,41.126396],[-73.2454012,41.12988434],[-73.23906258,41.13853239],[-73.23601084,41.142696],[-73.235058,41.143996],[-73.22829533,41.14260239],[-73.22811903,41.14270892],[-73.22792961,41.14282339],[-73.2202733,41.14745003],[-73.202656,41.158096],[-73.18524687,41.16411383],[-73.18108728,41.16555169],[-73.17777429,41.16669689],[-73.17642797,41.1663634],[-73.17462758,41.16591743],[-73.17070139,41.16494489],[-73.17007413,41.16053244],[-73.164253,41.15852457],[-73.13712984,41.14916902],[-73.130253,41.146797],[-73.11315773,41.15035833],[-73.111052,41.150797],[-73.10835151,41.15371801],[-73.109952,41.156997],[-73.110352,41.159697],[-73.10860998,41.16635646],[-73.10798704,41.16873783],[-73.112152,41.171397],[-73.119853,41.175697],[-73.121997,41.178927],[-73.121353,41.187497],[-73.116233,41.192586],[-73.110553,41.200297],[-73.109553,41.205297],[-73.110653,41.208495],[-73.110253,41.213996],[-73.108353,41.218296],[-73.110453,41.225296],[-73.110553,41.227396],[-73.109953,41.229396],[-73.104953,41.236596],[-73.102053,41.239596],[-73.093652,41.244796],[-73.091152,41.246496],[-73.086752,41.254596],[-73.087852,41.260096],[-73.087752,41.265296],[-73.088652,41.271696],[-73.086852,41.276596],[-73.08153,41.282856],[-73.075451,41.285749],[-73.071251,41.287296],[-73.068751,41.289196],[-73.065685,41.29419],[-73.065051,41.297596],[-73.066151,41.299496],[-73.067851,41.300996],[-73.075352,41.305596],[-73.077652,41.307696],[-73.078952,41.311596],[-73.082052,41.313096],[-73.086652,41.314496],[-73.091052,41.319096],[-73.096853,41.322596],[-73.115754,41.332196],[-73.122854,41.341396],[-73.123527,41.343699],[-73.124654,41.345296],[-73.126154,41.346596],[-73.136054,41.351196],[-73.138155,41.353896],[-73.139555,41.361196],[-73.147555,41.367696],[-73.150955,41.370196],[-73.157055,41.376696],[-73.157955,41.377196],[-73.158956,41.378996],[-73.158055,41.382696],[-73.158656,41.383396],[-73.161256,41.383696],[-73.166556,41.383196],[-73.171556,41.383196],[-73.172663,41.383442],[-73.174154,41.384175],[-73.183269,41.391711],[-73.187957,41.397296],[-73.188157,41.398196],[-73.187557,41.399596],[-73.185357,41.402196],[-73.184857,41.406296],[-73.186557,41.408596],[-73.190257,41.410296],[-73.198157,41.411896],[-73.199757,41.413196],[-73.201557,41.415796],[-73.207688,41.420544],[-73.211835,41.42277],[-73.218235,41.42907],[-73.226479,41.430309],[-73.226769,41.429824],[-73.229969,41.429124],[-73.235897,41.426159],[-73.236771,41.426187],[-73.238411,41.426253],[-73.242289,41.429841],[-73.242344,41.436072],[-73.244334,41.439558],[-73.245259,41.439895],[-73.246759,41.439495],[-73.247922,41.439029],[-73.249559,41.438348],[-73.252982,41.436716],[-73.25695,41.433852],[-73.258438,41.433364],[-73.263678,41.434532],[-73.265465,41.436515],[-73.265784,41.436799],[-73.267488,41.443576],[-73.270238,41.448003],[-73.273692,41.451645],[-73.278251,41.452635],[-73.283195,41.451612],[-73.287798,41.450315],[-73.291263,41.448108],[-73.293948,41.447355],[-73.296137,41.447775],[-73.298863,41.449657],[-73.300073,41.452479],[-73.300793,41.455903],[-73.298313,41.464767],[-73.298265,41.467631],[-73.299177,41.469535],[-73.300601,41.470847],[-73.302761,41.471439],[-73.305033,41.471151],[-73.310473,41.468815],[-73.312873,41.467415],[-73.326774,41.469515],[-73.331262,41.472495],[-73.336662,41.475695],[-73.347663,41.478095],[-73.349263,41.479395],[-73.350663,41.479795],[-73.358863,41.482094],[-73.362963,41.484594],[-73.375263,41.489194],[-73.376764,41.498994],[-73.378964,41.501894],[-73.381964,41.503594],[-73.387064,41.505194],[-73.388564,41.506494],[-73.387464,41.509094],[-73.384964,41.510994],[-73.385064,41.512494],[-73.386964,41.514794],[-73.393607,41.512394],[-73.395064,41.511794],[-73.402464,41.509094],[-73.414165,41.503594],[-73.417465,41.502094],[-73.425465,41.499294],[-73.430765,41.497994],[-73.438839,41.49291],[-73.439366,41.492594],[-73.441466,41.491294],[-73.44226,41.49561],[-73.444566,41.508894],[-73.442766,41.514094],[-73.445086,41.522574],[-73.445666,41.524694],[-73.450566,41.535094],[-73.454066,41.542794],[-73.455166,41.547194],[-73.474667,41.589794],[-73.47894,41.59897],[-73.488528,41.617406],[-73.497362,41.637125],[-73.497872,41.638285],[-73.496208,41.639918],[-73.496256,41.640798],[-73.495796,41.642805],[-73.495152,41.64323],[-73.491728,41.645364],[-73.491424,41.645534],[-73.484768,41.647406],[-73.49032,41.653278],[-73.491888,41.656014],[-73.493648,41.660862],[-73.494864,41.661214],[-73.498288,41.658861],[-73.506289,41.663325],[-73.506929,41.664029],[-73.506961,41.665869],[-73.510865,41.666541],[-73.515809,41.665981],[-73.51822675,41.6668898]]]},"properties":{"name":"Fairfield=FAICT","type":"county"}},
{"type":"Feature","geometry":{"type":"Polygon","coordinates":[[[-73.00874323,42.03885981],[-73.020539,42.000094],[-73.029537,41.966606],[-73.001208,41.968581],[-72.999549,41.96847],[-72.998591,41.968513],[-72.958194,41.970526],[-72.957767,41.970548],[-72.954079,41.970741],[-72.953347,41.970741],[-72.953339,41.970718],[-72.88706,41.973121],[-72.892744,41.958095],[-72.896345,41.948096],[-72.905945,41.921696],[-72.915346,41.896796],[-72.940647,41.895196],[-72.944577,41.882546],[-72.946342,41.874027],[-72.947335,41.871384],[-72.953626,41.85395],[-72.953647,41.853897],[-72.953844,41.848578],[-72.953847,41.848497],[-72.952147,41.844597],[-72.951547,41.842597],[-72.943147,41.843197],[-72.936647,41.840497],[-72.936447,41.840097],[-72.936383,41.839905],[-72.936347,41.839797],[-72.938451,41.834735],[-72.939847,41.830897],[-72.940528,41.828854],[-72.940547,41.828797],[-72.941423,41.826851],[-72.941447,41.826797],[-72.941647,41.826197],[-72.946447,41.813497],[-72.947247,41.811497],[-72.949024,41.806431],[-72.984849,41.801997],[-72.999549,41.800023],[-73.016675,41.798183],[-73.009603,41.764207],[-73.006645,41.750098],[-73.002649,41.733397],[-72.99895,41.714398],[-72.99855,41.712498],[-72.99355,41.690198],[-72.99135,41.679798],[-72.98945,41.669398],[-72.98925,41.668598],[-72.98775,41.660498],[-72.98605,41.651998],[-72.98325,41.639598],[-72.98323,41.639599],[-72.97315,41.640398],[-72.964049,41.641298],[-72.95431,41.642537],[-72.950549,41.642898],[-72.938501,41.644311],[-72.935038,41.618067],[-72.934047,41.612197],[-72.933847,41.606597],[-72.941048,41.577697],[-72.942648,41.570997],[-72.945448,41.559797],[-72.946348,41.556797],[-72.903846,41.561697],[-72.884046,41.563797],[-72.879745,41.563197],[-72.878819,41.561906],[-72.876845,41.560497],[-72.871977,41.554881],[-72.869929,41.554593],[-72.868201,41.548849],[-72.862537,41.547841],[-72.859658,41.547219],[-72.853081,41.546113],[-72.844145,41.544698],[-72.845744,41.553497],[-72.848539,41.567328],[-72.840244,41.569098],[-72.829444,41.570698],[-72.827844,41.570398],[-72.829644,41.562398],[-72.825743,41.564298],[-72.825774,41.563406],[-72.826144,41.555897],[-72.821243,41.554197],[-72.819143,41.554297],[-72.810243,41.562398],[-72.809243,41.561998],[-72.805243,41.566598],[-72.801243,41.573098],[-72.780042,41.575898],[-72.768241,41.577298],[-72.752181,41.578894],[-72.752941,41.592498],[-72.74284,41.594398],[-72.73154,41.595798],[-72.72994,41.601498],[-72.725067,41.60278],[-72.724139,41.602959],[-72.714615,41.60435],[-72.714966,41.608096],[-72.711213,41.617687],[-72.713527,41.621168],[-72.715511,41.622626],[-72.715862,41.623511],[-72.715684,41.625099],[-72.713939,41.627699],[-72.688638,41.631399],[-72.67596,41.633083],[-72.675838,41.633099],[-72.648737,41.637099],[-72.634036,41.639199],[-72.630136,41.639799],[-72.627836,41.640199],[-72.630236,41.633299],[-72.628636,41.633399],[-72.576334,41.639099],[-72.559533,41.640999],[-72.559443,41.641111],[-72.54423,41.642696],[-72.534368,41.643822],[-72.534391,41.643811],[-72.532297,41.643985],[-72.532319,41.64399],[-72.521832,41.645499],[-72.505431,41.646999],[-72.481931,41.608299],[-72.481631,41.607899],[-72.474342,41.595157],[-72.46673,41.583899],[-72.417229,41.590598],[-72.415629,41.593498],[-72.410629,41.601798],[-72.410315,41.602796],[-72.41005,41.604647],[-72.409528,41.608298],[-72.409228,41.622798],[-72.408128,41.625198],[-72.409628,41.630998],[-72.414228,41.635199],[-72.414628,41.637799],[-72.415728,41.639299],[-72.420928,41.648199],[-72.429429,41.662299],[-72.448129,41.671899],[-72.452229,41.688799],[-72.453029,41.692299],[-72.454129,41.697799],[-72.454329,41.698799],[-72.460129,41.727299],[-72.463729,41.745599],[-72.464929,41.749299],[-72.468729,41.770498],[-72.470829,41.782998],[-72.471029,41.784198],[-72.472029,41.790398],[-72.472629,41.792698],[-72.472829,41.794898],[-72.473429,41.798098],[-72.473509,41.798499],[-72.473629,41.799098],[-72.476029,41.812998],[-72.485229,41.812298],[-72.490129,41.811498],[-72.49723,41.810798],[-72.50233,41.810198],[-72.50753,41.809698],[-72.50643,41.815498],[-72.50543,41.820298],[-72.50533,41.820998],[-72.50443,41.824698],[-72.50263,41.833598],[-72.49913,41.849898],[-72.49833,41.853998],[-72.49693,41.860197],[-72.51493,41.857498],[-72.51833,41.856898],[-72.51733,41.869897],[-72.51693,41.873497],[-72.51593,41.892397],[-72.51523,41.899197],[-72.51463,41.916597],[-72.51413,41.932497],[-72.513817,41.938593],[-72.51333,41.945397],[-72.50553,41.946397],[-72.492729,41.947496],[-72.49903,41.979496],[-72.499357,41.981356],[-72.49943,41.981696],[-72.49973,41.984296],[-72.50323,42.003296],[-72.50393,42.006596],[-72.50463,42.009496],[-72.50539,42.013567],[-72.505927,42.016442],[-72.508637,42.031135],[-72.50920596,42.0342166],[-72.52228754,42.03427079],[-72.5247312,42.03428092],[-72.528131,42.034295],[-72.55299825,42.03200457],[-72.56129005,42.03124084],[-72.573231,42.030141],[-72.57512978,42.02900478],[-72.582332,42.024695],[-72.589633,42.024695],[-72.590233,42.024695],[-72.606933,42.024995],[-72.607933,42.030795],[-72.61691882,42.03120343],[-72.643134,42.032395],[-72.67287098,42.03486947],[-72.68630352,42.03598721],[-72.69289725,42.03653589],[-72.695927,42.036788],[-72.69758309,42.03677161],[-72.71263437,42.03662263],[-72.71492879,42.03659992],[-72.75136014,42.03623932],[-72.755838,42.036195],[-72.757538,42.033295],[-72.753538,42.032095],[-72.751738,42.030195],[-72.754038,42.025395],[-72.757467,42.020947],[-72.758151,42.020865],[-72.76055793,42.02184556],[-72.76215054,42.02152703],[-72.7623098,42.01977516],[-72.76186938,42.01904113],[-72.76135424,42.01818255],[-72.759738,42.016995],[-72.761238,42.014595],[-72.763238,42.012795],[-72.76326537,42.00974169],[-72.766139,42.007695],[-72.76620375,42.00718781],[-72.766739,42.002995],[-72.77475688,42.0021291],[-72.78387879,42.00114398],[-72.79470637,41.99997464],[-72.816741,41.997595],[-72.813541,42.036494],[-72.847142,42.036894],[-72.863619,42.037709],[-72.863733,42.03771],[-72.92405769,42.03812885],[-72.95459469,42.03834087],[-72.999549,42.038653],[-73.00829576,42.03884974],[-73.00874323,42.03885981]]]},"properties":{"name":"Hartford=HARCT","type":"county"}},
{"type":"Feature","geometry":{"type":"Polygon","coordinates":[[[-73.00874323,42.03885981],[-73.053254,42.039861],[-73.12727583,42.04196412],[-73.229798,42.044877],[-73.231056,42.044945],[-73.23295856,42.04500618],[-73.293097,42.04694],[-73.29442,42.046984],[-73.3259597,42.04780513],[-73.34092541,42.04819476],[-73.42637588,42.05041944],[-73.42805222,42.05046308],[-73.432812,42.050587],[-73.487314,42.049638],[-73.489615,42.000092],[-73.492975,41.958524],[-73.4932061,41.95617243],[-73.49348733,41.95331073],[-73.4960862,41.92686542],[-73.496527,41.92238],[-73.49656035,41.92181943],[-73.498304,41.892508],[-73.50093595,41.86834055],[-73.50098027,41.86793355],[-73.501984,41.858717],[-73.504944,41.824285],[-73.505008,41.823773],[-73.50795437,41.79159013],[-73.510961,41.758749],[-73.511921,41.740941],[-73.51599146,41.69628641],[-73.51626635,41.69327076],[-73.51658972,41.68972332],[-73.516785,41.687581],[-73.51822675,41.6668898],[-73.515809,41.665981],[-73.510865,41.666541],[-73.506961,41.665869],[-73.506929,41.664029],[-73.506289,41.663325],[-73.498288,41.658861],[-73.494864,41.661214],[-73.493648,41.660862],[-73.491888,41.656014],[-73.49032,41.653278],[-73.484768,41.647406],[-73.491424,41.645534],[-73.491728,41.645364],[-73.495152,41.64323],[-73.495796,41.642805],[-73.496256,41.640798],[-73.496208,41.639918],[-73.497872,41.638285],[-73.497362,41.637125],[-73.488528,41.617406],[-73.47894,41.59897],[-73.474667,41.589794],[-73.455166,41.547194],[-73.454066,41.542794],[-73.450566,41.535094],[-73.445666,41.524694],[-73.445086,41.522574],[-73.442766,41.514094],[-73.444566,41.508894],[-73.44226,41.49561],[-73.441466,41.491294],[-73.439366,41.492594],[-73.438839,41.49291],[-73.430765,41.497994],[-73.425465,41.499294],[-73.417465,41.502094],[-73.414165,41.503594],[-73.402464,41.509094],[-73.395064,41.511794],[-73.393607,41.512394],[-73.386964,41.514794],[-73.385064,41.512494],[-73.384964,41.510994],[-73.387464,41.509094],[-73.388564,41.506494],[-73.387064,41.505194],[-73.381964,41.503594],[-73.378964,41.501894],[-73.376764,41.498994],[-73.375263,41.489194],[-73.362963,41.484594],[-73.358863,41.482094],[-73.350663,41.479795],[-73.349263,41.479395],[-73.347663,41.478095],[-73.336662,41.475695],[-73.331262,41.472495],[-73.326774,41.469515],[-73.312873,41.467415],[-73.310473,41.468815],[-73.314281,41.471103],[-73.320906,41.477007],[-73.327114,41.484527],[-73.326794,41.493039],[-73.320874,41.503615],[-73.319386,41.505151],[-73.307897,41.505999],[-73.254471,41.511999],[-73.250311,41.512255],[-73.249559,41.512498],[-73.242855,41.512991],[-73.242103,41.512943],[-73.219718,41.510223],[-73.213894,41.509647],[-73.211526,41.509311],[-73.208006,41.509007],[-73.20711,41.508831],[-73.197877,41.509311],[-73.185333,41.510816],[-73.155812,41.514208],[-73.156228,41.517888],[-73.15642,41.518496],[-73.158068,41.52632],[-73.159257,41.532108],[-73.162548,41.5472],[-73.164676,41.557088],[-73.145155,41.557796],[-73.131455,41.560796],[-73.118754,41.563796],[-73.098453,41.568996],[-73.093853,41.570196],[-73.089353,41.575296],[-73.086753,41.579596],[-73.085853,41.581096],[-73.085538,41.581546],[-73.085153,41.582096],[-73.082653,41.586096],[-73.082253,41.586796],[-73.078753,41.587396],[-73.075053,41.587696],[-73.064152,41.588496],[-73.058052,41.588596],[-73.057552,41.589196],[-73.059652,41.592896],[-73.060652,41.600797],[-73.059252,41.602297],[-73.059652,41.605797],[-73.058052,41.606897],[-73.050752,41.609597],[-73.046404,41.611287],[-73.036351,41.615197],[-73.03433,41.615105],[-73.01865,41.614097],[-73.02147,41.627105],[-73.004046,41.628577],[-73.003022,41.629153],[-72.98325,41.639598],[-72.98605,41.651998],[-72.98775,41.660498],[-72.98925,41.668598],[-72.98945,41.669398],[-72.99135,41.679798],[-72.99355,41.690198],[-72.99855,41.712498],[-72.99895,41.714398],[-73.002649,41.733397],[-73.006645,41.750098],[-73.009603,41.764207],[-73.016675,41.798183],[-72.999549,41.800023],[-72.984849,41.801997],[-72.949024,41.806431],[-72.947247,41.811497],[-72.946447,41.813497],[-72.941647,41.826197],[-72.941447,41.826797],[-72.941423,41.826851],[-72.940547,41.828797],[-72.940528,41.828854],[-72.939847,41.830897],[-72.938451,41.834735],[-72.936347,41.839797],[-72.936383,41.839905],[-72.936447,41.840097],[-72.936647,41.840497],[-72.943147,41.843197],[-72.951547,41.842597],[-72.952147,41.844597],[-72.953847,41.848497],[-72.953844,41.848578],[-72.953647,41.853897],[-72.953626,41.85395],[-72.947335,41.871384],[-72.946342,41.874027],[-72.944577,41.882546],[-72.940647,41.895196],[-72.915346,41.896796],[-72.905945,41.921696],[-72.896345,41.948096],[-72.892744,41.958095],[-72.88706,41.973121],[-72.953339,41.970718],[-72.953347,41.970741],[-72.954079,41.970741],[-72.957767,41.970548],[-72.958194,41.970526],[-72.998591,41.968513],[-72.999549,41.96847],[-73.001208,41.968581],[-73.029537,41.966606],[-73.020539,42.000094],[-73.00874323,42.03885981]]]},"properties":{"name":"Litchfield=LITCT","type":"county"}},
{"type":"Feature","geometry":{"type":"Polygon","coordinates":[[[-72.46673,41.583899],[-72.474342,41.595157],[-72.481631,41.607899],[-72.481931,41.608299],[-72.505431,41.646999],[-72.521832,41.645499],[-72.532319,41.64399],[-72.532297,41.643985],[-72.534391,41.643811],[-72.534368,41.643822],[-72.54423,41.642696],[-72.559443,41.641111],[-72.559533,41.640999],[-72.576334,41.639099],[-72.628636,41.633399],[-72.630236,41.633299],[-72.627836,41.640199],[-72.630136,41.639799],[-72.634036,41.639199],[-72.648737,41.637099],[-72.675838,41.633099],[-72.67596,41.633083],[-72.688638,41.631399],[-72.713939,41.627699],[-72.715684,41.625099],[-72.715862,41.623511],[-72.715511,41.622626],[-72.713527,41.621168],[-72.711213,41.617687],[-72.714966,41.608096],[-72.714615,41.60435],[-72.724139,41.602959],[-72.725067,41.60278],[-72.72994,41.601498],[-72.73154,41.595798],[-72.74284,41.594398],[-72.752941,41.592498],[-72.752181,41.578894],[-72.750667,41.562741],[-72.750242,41.559199],[-72.748942,41.546099],[-72.748905,41.54428],[-72.747242,41.528198],[-72.747042,41.527198],[-72.744742,41.497698],[-72.74333,41.483114],[-72.733886,41.485368],[-72.735448,41.4732],[-72.739117,41.438295],[-72.746141,41.423297],[-72.72064,41.427397],[-72.690339,41.432597],[-72.682539,41.433797],[-72.678739,41.433797],[-72.653838,41.438198],[-72.650938,41.435098],[-72.649138,41.435598],[-72.642337,41.429198],[-72.648938,41.421898],[-72.650438,41.419298],[-72.649438,41.417898],[-72.638537,41.412598],[-72.632837,41.412498],[-72.631637,41.411998],[-72.631737,41.407998],[-72.630437,41.403498],[-72.625837,41.397198],[-72.622337,41.393498],[-72.617637,41.390598],[-72.612237,41.386198],[-72.612737,41.384998],[-72.613837,41.384398],[-72.614037,41.380898],[-72.612637,41.378098],[-72.608836,41.373598],[-72.608136,41.367498],[-72.609737,41.363398],[-72.611337,41.363298],[-72.612237,41.362698],[-72.612537,41.358298],[-72.612637,41.357198],[-72.612537,41.352998],[-72.611237,41.343898],[-72.611437,41.343198],[-72.612837,41.342498],[-72.613837,41.340398],[-72.614537,41.337298],[-72.614837,41.331998],[-72.614237,41.329598],[-72.612537,41.329498],[-72.611637,41.327598],[-72.608437,41.328198],[-72.605437,41.327698],[-72.603236,41.326198],[-72.600836,41.325898],[-72.597236,41.328598],[-72.595836,41.328098],[-72.596036,41.327698],[-72.593168,41.324226],[-72.586536,41.324298],[-72.586036,41.323998],[-72.585336,41.319598],[-72.585536,41.318598],[-72.588236,41.315898],[-72.588336,41.314498],[-72.587436,41.313798],[-72.586336,41.314198],[-72.585436,41.314198],[-72.585036,41.312898],[-72.586636,41.312898],[-72.588736,41.311698],[-72.585836,41.309798],[-72.585096,41.306981],[-72.584059,41.306536],[-72.576436,41.302398],[-72.575944,41.300951],[-72.573513,41.299421],[-72.570936,41.297798],[-72.564835,41.290498],[-72.564535,41.289998],[-72.564635,41.289498],[-72.559189,41.28496],[-72.558835,41.284498],[-72.557435,41.283699],[-72.557235,41.281999],[-72.555035,41.280599],[-72.551635,41.280599],[-72.54918,41.281732],[-72.546564,41.280056],[-72.547136,41.279198],[-72.548335,41.277399],[-72.546135,41.275899],[-72.545235,41.275099],[-72.544835,41.273699],[-72.547035,41.271599],[-72.546695,41.269512],[-72.546487,41.268235],[-72.546335,41.267299],[-72.547635,41.264299],[-72.547235,41.262499],[-72.545835,41.260299],[-72.53777601,41.25564639],[-72.53674589,41.25620696],[-72.53324666,41.26268974],[-72.52941593,41.26442094],[-72.5221897,41.26547202],[-72.52131245,41.26559962],[-72.5186604,41.26125321],[-72.506634,41.260099],[-72.499534,41.265866],[-72.48622894,41.27068681],[-72.48622887,41.27068684],[-72.48619472,41.27069921],[-72.485693,41.270881],[-72.48292606,41.27071735],[-72.4799933,41.27054389],[-72.472539,41.270103],[-72.47208334,41.27029712],[-72.451925,41.278885],[-72.43177325,41.27867163],[-72.41664264,41.27851143],[-72.40593,41.278398],[-72.398688,41.278172],[-72.3979939,41.27722953],[-72.39437914,41.27232132],[-72.386629,41.261798],[-72.36405934,41.26642185],[-72.36140428,41.26696579],[-72.34882812,41.26954227],[-72.348068,41.269698],[-72.34849235,41.27541988],[-72.34864263,41.27744636],[-72.34125626,41.28018548],[-72.342227,41.282498],[-72.34314,41.286444],[-72.349548,41.296302],[-72.349727,41.297398],[-72.349227,41.310898],[-72.347427,41.319198],[-72.347916,41.321784],[-72.349121,41.324492],[-72.357835,41.335135],[-72.362489,41.338942],[-72.369328,41.342398],[-72.376206,41.345435],[-72.377687,41.346465],[-72.378771,41.347998],[-72.379397,41.349746],[-72.378393,41.35591],[-72.376969,41.366889],[-72.374971,41.372519],[-72.375093,41.374507],[-72.375256,41.375098],[-72.376004,41.376255],[-72.381601,41.380606],[-72.382594,41.38248],[-72.384833,41.38519],[-72.38718,41.386054],[-72.402022,41.388545],[-72.416213,41.389347],[-72.421671,41.390568],[-72.425753,41.395968],[-72.425663,41.400805],[-72.425123,41.407237],[-72.425479,41.411656],[-72.426102,41.413069],[-72.43371,41.423995],[-72.427613,41.423289],[-72.409477,41.425295],[-72.405314,41.424919],[-72.403114,41.424861],[-72.399852,41.426179],[-72.390761,41.427158],[-72.387803,41.427477],[-72.386399,41.427629],[-72.380968,41.428214],[-72.314517,41.43532],[-72.313298,41.43545],[-72.305531,41.436282],[-72.312537,41.478411],[-72.315246,41.478091],[-72.321859,41.512291],[-72.322931,41.518119],[-72.323394,41.53425],[-72.331625,41.533507],[-72.344435,41.532406],[-72.348635,41.532179],[-72.353797,41.531801],[-72.358433,41.531464],[-72.361794,41.530796],[-72.374528,41.529909],[-72.430823,41.524562],[-72.438013,41.535517],[-72.44152,41.541339],[-72.444861,41.546962],[-72.446853,41.550377],[-72.446906,41.550472],[-72.44741,41.551433],[-72.448249,41.552585],[-72.460624,41.572956],[-72.46673,41.583899]]]},"properties":{"name":"MiddlesexCT=MIDCT","type":"county"}},
{"type":"Feature","geometry":{"type":"Polygon","coordinates":[[[-72.752181,41.578894],[-72.768241,41.577298],[-72.780042,41.575898],[-72.801243,41.573098],[-72.805243,41.566598],[-72.809243,41.561998],[-72.810243,41.562398],[-72.819143,41.554297],[-72.821243,41.554197],[-72.826144,41.555897],[-72.825774,41.563406],[-72.825743,41.564298],[-72.829644,41.562398],[-72.827844,41.570398],[-72.829444,41.570698],[-72.840244,41.569098],[-72.848539,41.567328],[-72.845744,41.553497],[-72.844145,41.544698],[-72.853081,41.546113],[-72.859658,41.547219],[-72.862537,41.547841],[-72.868201,41.548849],[-72.869929,41.554593],[-72.871977,41.554881],[-72.876845,41.560497],[-72.878819,41.561906],[-72.879745,41.563197],[-72.884046,41.563797],[-72.903846,41.561697],[-72.946348,41.556797],[-72.945448,41.559797],[-72.942648,41.570997],[-72.941048,41.577697],[-72.933847,41.606597],[-72.934047,41.612197],[-72.935038,41.618067],[-72.938501,41.644311],[-72.950549,41.642898],[-72.95431,41.642537],[-72.964049,41.641298],[-72.97315,41.640398],[-72.98323,41.639599],[-72.98325,41.639598],[-73.003022,41.629153],[-73.004046,41.628577],[-73.02147,41.627105],[-73.01865,41.614097],[-73.03433,41.615105],[-73.036351,41.615197],[-73.046404,41.611287],[-73.050752,41.609597],[-73.058052,41.606897],[-73.059652,41.605797],[-73.059252,41.602297],[-73.060652,41.600797],[-73.059652,41.592896],[-73.057552,41.589196],[-73.058052,41.588596],[-73.064152,41.588496],[-73.075053,41.587696],[-73.078753,41.587396],[-73.082253,41.586796],[-73.082653,41.586096],[-73.085153,41.582096],[-73.085538,41.581546],[-73.085853,41.581096],[-73.086753,41.579596],[-73.089353,41.575296],[-73.093853,41.570196],[-73.098453,41.568996],[-73.118754,41.563796],[-73.131455,41.560796],[-73.145155,41.557796],[-73.164676,41.557088],[-73.162548,41.5472],[-73.159257,41.532108],[-73.158068,41.52632],[-73.15642,41.518496],[-73.156228,41.517888],[-73.155812,41.514208],[-73.185333,41.510816],[-73.197877,41.509311],[-73.20711,41.508831],[-73.208006,41.509007],[-73.211526,41.509311],[-73.213894,41.509647],[-73.219718,41.510223],[-73.242103,41.512943],[-73.242855,41.512991],[-73.249559,41.512498],[-73.250311,41.512255],[-73.254471,41.511999],[-73.307897,41.505999],[-73.319386,41.505151],[-73.320874,41.503615],[-73.326794,41.493039],[-73.327114,41.484527],[-73.320906,41.477007],[-73.314281,41.471103],[-73.310473,41.468815],[-73.305033,41.471151],[-73.302761,41.471439],[-73.300601,41.470847],[-73.299177,41.469535],[-73.298265,41.467631],[-73.298313,41.464767],[-73.300793,41.455903],[-73.300073,41.452479],[-73.298863,41.449657],[-73.296137,41.447775],[-73.293948,41.447355],[-73.291263,41.448108],[-73.287798,41.450315],[-73.283195,41.451612],[-73.278251,41.452635],[-73.273692,41.451645],[-73.270238,41.448003],[-73.267488,41.443576],[-73.265784,41.436799],[-73.265465,41.436515],[-73.263678,41.434532],[-73.258438,41.433364],[-73.25695,41.433852],[-73.252982,41.436716],[-73.249559,41.438348],[-73.247922,41.439029],[-73.246759,41.439495],[-73.245259,41.439895],[-73.244334,41.439558],[-73.242344,41.436072],[-73.242289,41.429841],[-73.238411,41.426253],[-73.236771,41.426187],[-73.235897,41.426159],[-73.229969,41.429124],[-73.226769,41.429824],[-73.226479,41.430309],[-73.218235,41.42907],[-73.211835,41.42277],[-73.207688,41.420544],[-73.201557,41.415796],[-73.199757,41.413196],[-73.198157,41.411896],[-73.190257,41.410296],[-73.186557,41.408596],[-73.184857,41.406296],[-73.185357,41.402196],[-73.187557,41.399596],[-73.188157,41.398196],[-73.187957,41.397296],[-73.183269,41.391711],[-73.174154,41.384175],[-73.172663,41.383442],[-73.171556,41.383196],[-73.166556,41.383196],[-73.161256,41.383696],[-73.158656,41.383396],[-73.158055,41.382696],[-73.158956,41.378996],[-73.157955,41.377196],[-73.157055,41.376696],[-73.150955,41.370196],[-73.147555,41.367696],[-73.139555,41.361196],[-73.138155,41.353896],[-73.136054,41.351196],[-73.126154,41.346596],[-73.124654,41.345296],[-73.123527,41.343699],[-73.122854,41.341396],[-73.115754,41.332196],[-73.096853,41.322596],[-73.091052,41.319096],[-73.086652,41.314496],[-73.082052,41.313096],[-73.078952,41.311596],[-73.077652,41.307696],[-73.075352,41.305596],[-73.067851,41.300996],[-73.066151,41.299496],[-73.065051,41.297596],[-73.065685,41.29419],[-73.068751,41.289196],[-73.071251,41.287296],[-73.075451,41.285749],[-73.08153,41.282856],[-73.086852,41.276596],[-73.088652,41.271696],[-73.087752,41.265296],[-73.087852,41.260096],[-73.086752,41.254596],[-73.091152,41.246496],[-73.093652,41.244796],[-73.102053,41.239596],[-73.104953,41.236596],[-73.109953,41.229396],[-73.110553,41.227396],[-73.110453,41.225296],[-73.108353,41.218296],[-73.110253,41.213996],[-73.110653,41.208495],[-73.109553,41.205297],[-73.110553,41.200297],[-73.116233,41.192586],[-73.121353,41.187497],[-73.121997,41.178927],[-73.119853,41.175697],[-73.112152,41.171397],[-73.10798704,41.16873783],[-73.107987,41.168738],[-73.105493,41.172194],[-73.09222264,41.18331302],[-73.09040046,41.18483979],[-73.08645073,41.1881492],[-73.08201404,41.19186664],[-73.07994573,41.19359963],[-73.07945,41.194015],[-73.07517546,41.196712],[-73.07452131,41.19712473],[-73.05935,41.206697],[-73.05492451,41.20847737],[-73.05451667,41.20864144],[-73.05065,41.210197],[-73.05004406,41.21013231],[-73.04880661,41.2100002],[-73.04573017,41.20967177],[-73.03508548,41.20853537],[-73.0348812,41.20851356],[-73.022549,41.207197],[-73.020449,41.206397],[-73.02022726,41.204697],[-73.020149,41.204097],[-73.014948,41.204297],[-73.01257337,41.20619028],[-73.007548,41.210197],[-73.00392384,41.21491596],[-73.00369577,41.21521292],[-73.00358913,41.21535178],[-72.99969493,41.22042235],[-72.9993618,41.22085612],[-72.997948,41.222697],[-72.99675299,41.22379999],[-72.99244392,41.22777725],[-72.986247,41.233497],[-72.98498693,41.23443945],[-72.98480462,41.23457581],[-72.98430255,41.23495132],[-72.98035255,41.23790566],[-72.97931581,41.23868107],[-72.97599232,41.24116683],[-72.97493291,41.24195919],[-72.96954306,41.24599044],[-72.9654941,41.2490188],[-72.962047,41.251597],[-72.96012662,41.2520989],[-72.95551587,41.25330393],[-72.94186253,41.25687229],[-72.935646,41.258497],[-72.93021022,41.26231674],[-72.920846,41.268897],[-72.92074848,41.27028441],[-72.92042435,41.27489607],[-72.92006165,41.28005641],[-72.91981859,41.28020495],[-72.91682671,41.28203332],[-72.91649817,41.28206754],[-72.91523494,41.28219913],[-72.90820021,41.28293191],[-72.90805381,41.282697],[-72.90797865,41.28257639],[-72.90336642,41.27517544],[-72.89610576,41.26352469],[-72.8953371,41.26229129],[-72.893845,41.259897],[-72.894745,41.256197],[-72.89671079,41.25539174],[-72.903045,41.252797],[-72.905245,41.248297],[-72.904345,41.247297],[-72.90085293,41.24588448],[-72.90059368,41.24577961],[-72.895445,41.243697],[-72.881445,41.242597],[-72.88045425,41.24273008],[-72.861344,41.245297],[-72.8597731,41.24582351],[-72.854055,41.24774],[-72.85352001,41.24882578],[-72.85024163,41.25547941],[-72.85020997,41.25554367],[-72.84858354,41.25630668],[-72.84776702,41.25668974],[-72.84644199,41.25669386],[-72.84062186,41.25671193],[-72.82688296,41.2567546],[-72.82588811,41.25639785],[-72.82587251,41.25639225],[-72.81937233,41.25406128],[-72.81873732,41.25224384],[-72.81097597,41.25523267],[-72.80564922,41.25728395],[-72.79895181,41.25986306],[-72.78967849,41.26343413],[-72.786142,41.264796],[-72.7782247,41.26538082],[-72.77147832,41.26587915],[-72.770651,41.26594026],[-72.76744635,41.26617698],[-72.76630849,41.26626103],[-72.76103393,41.26665064],[-72.75787407,41.26688405],[-72.7574767,41.2669134],[-72.75444406,41.2669134],[-72.75234422,41.26573046],[-72.74322216,41.26059157],[-72.73897597,41.25819948],[-72.73281275,41.25472745],[-72.72243905,41.25913816],[-72.71245976,41.25416749],[-72.71120761,41.25101813],[-72.71367397,41.2490071],[-72.710595,41.24448],[-72.70707119,41.24458893],[-72.70638336,41.24461019],[-72.70118426,41.24477091],[-72.694744,41.24497],[-72.690439,41.246697],[-72.685539,41.251297],[-72.68515037,41.2553776],[-72.684939,41.257597],[-72.67433242,41.26550985],[-72.67428107,41.26554816],[-72.672339,41.266997],[-72.66711056,41.26820767],[-72.66651346,41.26834593],[-72.66309308,41.26913794],[-72.662838,41.269197],[-72.65479231,41.26624691],[-72.653838,41.265897],[-72.641538,41.266998],[-72.63137772,41.26908851],[-72.619113,41.27161201],[-72.617237,41.271998],[-72.598036,41.268698],[-72.5850156,41.27135522],[-72.58481418,41.27139633],[-72.584373,41.27148637],[-72.583336,41.271698],[-72.58250792,41.27145365],[-72.571136,41.268098],[-72.547235,41.250499],[-72.53777601,41.25564639],[-72.545835,41.260299],[-72.547235,41.262499],[-72.547635,41.264299],[-72.546335,41.267299],[-72.546487,41.268235],[-72.546695,41.269512],[-72.547035,41.271599],[-72.544835,41.273699],[-72.545235,41.275099],[-72.546135,41.275899],[-72.548335,41.277399],[-72.547136,41.279198],[-72.546564,41.280056],[-72.54918,41.281732],[-72.551635,41.280599],[-72.555035,41.280599],[-72.557235,41.281999],[-72.557435,41.283699],[-72.558835,41.284498],[-72.559189,41.28496],[-72.564635,41.289498],[-72.564535,41.289998],[-72.564835,41.290498],[-72.570936,41.297798],[-72.573513,41.299421],[-72.575944,41.300951],[-72.576436,41.302398],[-72.584059,41.306536],[-72.585096,41.306981],[-72.585836,41.309798],[-72.588736,41.311698],[-72.586636,41.312898],[-72.585036,41.312898],[-72.585436,41.314198],[-72.586336,41.314198],[-72.587436,41.313798],[-72.588336,41.314498],[-72.588236,41.315898],[-72.585536,41.318598],[-72.585336,41.319598],[-72.586036,41.323998],[-72.586536,41.324298],[-72.593168,41.324226],[-72.596036,41.327698],[-72.595836,41.328098],[-72.597236,41.328598],[-72.600836,41.325898],[-72.603236,41.326198],[-72.605437,41.327698],[-72.608437,41.328198],[-72.611637,41.327598],[-72.612537,41.329498],[-72.614237,41.329598],[-72.614837,41.331998],[-72.614537,41.337298],[-72.613837,41.340398],[-72.612837,41.342498],[-72.611437,41.343198],[-72.611237,41.343898],[-72.612537,41.352998],[-72.612637,41.357198],[-72.612537,41.358298],[-72.612237,41.362698],[-72.611337,41.363298],[-72.609737,41.363398],[-72.608136,41.367498],[-72.608836,41.373598],[-72.612637,41.378098],[-72.614037,41.380898],[-72.613837,41.384398],[-72.612737,41.384998],[-72.612237,41.386198],[-72.617637,41.390598],[-72.622337,41.393498],[-72.625837,41.397198],[-72.630437,41.403498],[-72.631737,41.407998],[-72.631637,41.411998],[-72.632837,41.412498],[-72.638537,41.412598],[-72.649438,41.417898],[-72.650438,41.419298],[-72.648938,41.421898],[-72.642337,41.429198],[-72.649138,41.435598],[-72.650938,41.435098],[-72.653838,41.438198],[-72.678739,41.433797],[-72.682539,41.433797],[-72.690339,41.432597],[-72.72064,41.427397],[-72.746141,41.423297],[-72.739117,41.438295],[-72.735448,41.4732],[-72.733886,41.485368],[-72.74333,41.483114],[-72.744742,41.497698],[-72.747042,41.527198],[-72.747242,41.528198],[-72.748905,41.54428],[-72.748942,41.546099],[-72.750242,41.559199],[-72.750667,41.562741],[-72.752181,41.578894]]]},"properties":{"name":"NewHaven=NHVCT","type":"county"}},
{"type":"Feature","geometry":{"type":"Polygon","coordinates":[[[-72.239559,41.714191],[-72.239717,41.713989],[-72.242707,41.713394],[-72.24789,41.708567],[-72.247309,41.707127],[-72.251556,41.70164],[-72.261154,41.69868],[-72.261306,41.695498],[-72.26445,41.691592],[-72.266648,41.690768],[-72.269074,41.69208],[-72.273759,41.693194],[-72.274415,41.692965],[-72.274705,41.690554],[-72.270905,41.687419],[-72.267533,41.680529],[-72.266877,41.676531],[-72.267548,41.673678],[-72.268357,41.671916],[-72.268418,41.671137],[-72.278672,41.671977],[-72.286362,41.666369],[-72.290592,41.663247],[-72.29204,41.662318],[-72.294863,41.660159],[-72.303667,41.653964],[-72.331576,41.644435],[-72.332568,41.64416],[-72.334226,41.643598],[-72.333934,41.642773],[-72.329226,41.629598],[-72.32451,41.61857],[-72.328095,41.605471],[-72.343142,41.599406],[-72.351928,41.599057],[-72.352913,41.598848],[-72.356191,41.597615],[-72.364022,41.600653],[-72.371392,41.599529],[-72.374527,41.601413],[-72.376119,41.601588],[-72.378328,41.596298],[-72.380991,41.595765],[-72.383828,41.591898],[-72.384828,41.588998],[-72.393928,41.592598],[-72.394138,41.592679],[-72.400428,41.595098],[-72.404528,41.597198],[-72.407328,41.599398],[-72.408928,41.601898],[-72.410629,41.601798],[-72.415629,41.593498],[-72.417229,41.590598],[-72.46673,41.583899],[-72.460624,41.572956],[-72.448249,41.552585],[-72.44741,41.551433],[-72.446906,41.550472],[-72.446853,41.550377],[-72.444861,41.546962],[-72.44152,41.541339],[-72.438013,41.535517],[-72.430823,41.524562],[-72.374528,41.529909],[-72.361794,41.530796],[-72.358433,41.531464],[-72.353797,41.531801],[-72.348635,41.532179],[-72.344435,41.532406],[-72.331625,41.533507],[-72.323394,41.53425],[-72.322931,41.518119],[-72.321859,41.512291],[-72.315246,41.478091],[-72.312537,41.478411],[-72.305531,41.436282],[-72.313298,41.43545],[-72.314517,41.43532],[-72.380968,41.428214],[-72.386399,41.427629],[-72.387803,41.427477],[-72.390761,41.427158],[-72.399852,41.426179],[-72.403114,41.424861],[-72.405314,41.424919],[-72.409477,41.425295],[-72.427613,41.423289],[-72.43371,41.423995],[-72.426102,41.413069],[-72.425479,41.411656],[-72.425123,41.407237],[-72.425663,41.400805],[-72.425753,41.395968],[-72.421671,41.390568],[-72.416213,41.389347],[-72.402022,41.388545],[-72.38718,41.386054],[-72.384833,41.38519],[-72.382594,41.38248],[-72.381601,41.380606],[-72.376004,41.376255],[-72.375256,41.375098],[-72.375093,41.374507],[-72.374971,41.372519],[-72.376969,41.366889],[-72.378393,41.35591],[-72.379397,41.349746],[-72.378771,41.347998],[-72.377687,41.346465],[-72.376206,41.345435],[-72.369328,41.342398],[-72.362489,41.338942],[-72.357835,41.335135],[-72.349121,41.324492],[-72.347916,41.321784],[-72.347427,41.319198],[-72.349227,41.310898],[-72.349727,41.297398],[-72.349548,41.296302],[-72.34314,41.286444],[-72.342227,41.282498],[-72.34125626,41.28018548],[-72.33389394,41.28291567],[-72.32922823,41.27961554],[-72.32759502,41.27846034],[-72.31776035,41.27778207],[-72.27996608,41.28123683],[-72.261487,41.282926],[-72.251323,41.289997],[-72.250515,41.294386],[-72.25189461,41.29861997],[-72.24832424,41.29944953],[-72.24816065,41.29948754],[-72.235531,41.300413],[-72.22527593,41.29904705],[-72.2244839,41.2985545],[-72.21391157,41.29197966],[-72.2129239,41.29136544],[-72.204022,41.299097],[-72.203022,41.313197],[-72.201422,41.315697],[-72.19161612,41.32276855],[-72.191022,41.323197],[-72.184122,41.323997],[-72.177622,41.322497],[-72.17752171,41.32236419],[-72.173922,41.317597],[-72.16158,41.31026221],[-72.15495965,41.30763328],[-72.134221,41.299398],[-72.1255967,41.2992825],[-72.11182,41.299098],[-72.10208199,41.30550886],[-72.09982,41.306998],[-72.09444271,41.31416446],[-72.09234457,41.31531714],[-72.08448734,41.31963377],[-72.08235153,41.31953836],[-72.07517912,41.31921794],[-72.05498548,41.31831582],[-72.054719,41.31830391],[-72.02189756,41.31683766],[-72.01994402,41.31705412],[-72.01320466,41.31780088],[-72.00309634,41.31892094],[-72.00031513,41.31922911],[-71.98815331,41.3205767],[-71.98219351,41.32986105],[-71.98027503,41.32994925],[-71.97944707,41.32998732],[-71.97095521,41.32452601],[-71.96033843,41.32851982],[-71.95674717,41.32987078],[-71.945652,41.337799],[-71.93729272,41.33794177],[-71.936284,41.337959],[-71.923282,41.335113],[-71.922092,41.334518],[-71.91671011,41.33221684],[-71.91345213,41.33266615],[-71.91138151,41.3329517],[-71.90583971,41.33371596],[-71.89238136,41.33557198],[-71.88630173,41.33641041],[-71.88231688,41.33520411],[-71.874514,41.33284201],[-71.86823457,41.3309411],[-71.85956972,41.32239914],[-71.84817959,41.32947376],[-71.84716327,41.33010501],[-71.83978188,41.33468972],[-71.83253044,41.34120373],[-71.83123993,41.34464509],[-71.83134155,41.35179625],[-71.83155776,41.36701181],[-71.831613,41.370899],[-71.83236394,41.37649003],[-71.83249044,41.37743188],[-71.83291626,41.38060224],[-71.83332683,41.38365909],[-71.833443,41.384524],[-71.83373091,41.38488306],[-71.83822034,41.39048193],[-71.8382207,41.39048238],[-71.84171185,41.39483627],[-71.842131,41.395359],[-71.84216096,41.39559293],[-71.843472,41.40583],[-71.84292518,41.40825129],[-71.842563,41.409855],[-71.84232004,41.41004376],[-71.839649,41.412119],[-71.82186679,41.41837569],[-71.81839,41.419599],[-71.81129288,41.41860848],[-71.797683,41.416709],[-71.79550318,41.46388163],[-71.79357554,41.50559682],[-71.79050776,41.57198534],[-71.789356,41.59691],[-71.78763743,41.63989763],[-71.789398,41.640013],[-71.789662,41.64003],[-71.853551,41.644042],[-71.854941,41.644103],[-71.857917,41.644227],[-71.884422,41.641204],[-71.909069,41.638665],[-71.936713,41.635867],[-71.951936,41.634328],[-71.954983,41.634799],[-71.970535,41.637349],[-71.972367,41.637647],[-71.975253,41.638117],[-71.991771,41.640804],[-72.014836,41.644574],[-72.031092,41.647222],[-72.062114,41.652248],[-72.092324,41.657183],[-72.103647,41.659318],[-72.11,41.660224],[-72.120328,41.661925],[-72.123289,41.662003],[-72.147021,41.665161],[-72.153391,41.665643],[-72.157382,41.658002],[-72.157546,41.657627],[-72.186654,41.676285],[-72.199009,41.685501],[-72.210423,41.693658],[-72.211648,41.694448],[-72.214587,41.696343],[-72.218236,41.698784],[-72.237947,41.713167],[-72.239559,41.714191]]]},"properties":{"name":"NewLondon=NLNCT","type":"county"}},
{"type":"Feature","geometry":{"type":"Polygon","coordinates":[[[-72.1021701,42.02889951],[-72.135687,42.030245],[-72.20507537,42.03108678],[-72.24125569,42.03152571],[-72.249523,42.031626],[-72.30197205,42.03184394],[-72.317148,42.031907],[-72.32103864,42.03196533],[-72.3217091,42.03197538],[-72.33622639,42.03219304],[-72.39742787,42.03311063],[-72.45668,42.033999],[-72.45849534,42.03400652],[-72.4600899,42.03401313],[-72.46171246,42.03401985],[-72.47947608,42.03409344],[-72.50920596,42.0342166],[-72.508637,42.031135],[-72.505927,42.016442],[-72.50539,42.013567],[-72.50463,42.009496],[-72.50393,42.006596],[-72.50323,42.003296],[-72.49973,41.984296],[-72.49943,41.981696],[-72.499357,41.981356],[-72.49903,41.979496],[-72.492729,41.947496],[-72.50553,41.946397],[-72.51333,41.945397],[-72.513817,41.938593],[-72.51413,41.932497],[-72.51463,41.916597],[-72.51523,41.899197],[-72.51593,41.892397],[-72.51693,41.873497],[-72.51733,41.869897],[-72.51833,41.856898],[-72.51493,41.857498],[-72.49693,41.860197],[-72.49833,41.853998],[-72.49913,41.849898],[-72.50263,41.833598],[-72.50443,41.824698],[-72.50533,41.820998],[-72.50543,41.820298],[-72.50643,41.815498],[-72.50753,41.809698],[-72.50233,41.810198],[-72.49723,41.810798],[-72.490129,41.811498],[-72.485229,41.812298],[-72.476029,41.812998],[-72.473629,41.799098],[-72.473509,41.798499],[-72.473429,41.798098],[-72.472829,41.794898],[-72.472629,41.792698],[-72.472029,41.790398],[-72.471029,41.784198],[-72.470829,41.782998],[-72.468729,41.770498],[-72.464929,41.749299],[-72.463729,41.745599],[-72.460129,41.727299],[-72.454329,41.698799],[-72.454129,41.697799],[-72.453029,41.692299],[-72.452229,41.688799],[-72.448129,41.671899],[-72.429429,41.662299],[-72.420928,41.648199],[-72.415728,41.639299],[-72.414628,41.637799],[-72.414228,41.635199],[-72.409628,41.630998],[-72.408128,41.625198],[-72.409228,41.622798],[-72.409528,41.608298],[-72.41005,41.604647],[-72.410315,41.602796],[-72.410629,41.601798],[-72.408928,41.601898],[-72.407328,41.599398],[-72.404528,41.597198],[-72.400428,41.595098],[-72.394138,41.592679],[-72.393928,41.592598],[-72.384828,41.588998],[-72.383828,41.591898],[-72.380991,41.595765],[-72.378328,41.596298],[-72.376119,41.601588],[-72.374527,41.601413],[-72.371392,41.599529],[-72.364022,41.600653],[-72.356191,41.597615],[-72.352913,41.598848],[-72.351928,41.599057],[-72.343142,41.599406],[-72.328095,41.605471],[-72.32451,41.61857],[-72.329226,41.629598],[-72.333934,41.642773],[-72.334226,41.643598],[-72.332568,41.64416],[-72.331576,41.644435],[-72.303667,41.653964],[-72.294863,41.660159],[-72.29204,41.662318],[-72.290592,41.663247],[-72.286362,41.666369],[-72.278672,41.671977],[-72.268418,41.671137],[-72.268357,41.671916],[-72.267548,41.673678],[-72.266877,41.676531],[-72.267533,41.680529],[-72.270905,41.687419],[-72.274705,41.690554],[-72.274415,41.692965],[-72.273759,41.693194],[-72.269074,41.69208],[-72.266648,41.690768],[-72.26445,41.691592],[-72.261306,41.695498],[-72.261154,41.69868],[-72.251556,41.70164],[-72.247309,41.707127],[-72.24789,41.708567],[-72.242707,41.713394],[-72.239717,41.713989],[-72.239559,41.714191],[-72.244371,41.717329],[-72.246596,41.722901],[-72.247628,41.723703],[-72.252044,41.724238],[-72.252746,41.728202],[-72.251433,41.728203],[-72.24812,41.728201],[-72.245007,41.728208],[-72.227183,41.728072],[-72.21631,41.728034],[-72.209451,41.728036],[-72.198126,41.728176],[-72.197091,41.730826],[-72.195291,41.730118],[-72.19233,41.730506],[-72.191018,41.73165],[-72.191064,41.732999],[-72.193154,41.734713],[-72.194439,41.734945],[-72.195106,41.735706],[-72.195689,41.73703],[-72.19572,41.738711],[-72.193845,41.743209],[-72.192581,41.744568],[-72.189047,41.747113],[-72.188772,41.748414],[-72.18925,41.750405],[-72.185731,41.751914],[-72.187987,41.753741],[-72.188028,41.754805],[-72.186979,41.755427],[-72.182275,41.756211],[-72.17787,41.75537],[-72.17748,41.753837],[-72.178338,41.753045],[-72.176027,41.751363],[-72.176541,41.750641],[-72.176358,41.749908],[-72.174735,41.750098],[-72.17462,41.750953],[-72.174116,41.751132],[-72.172997,41.749445],[-72.171612,41.748446],[-72.169133,41.751547],[-72.164978,41.750098],[-72.162567,41.750098],[-72.157654,41.751773],[-72.156188,41.753419],[-72.156777,41.753739],[-72.159416,41.781083],[-72.164558,41.834913],[-72.169168,41.834903],[-72.200238,41.835046],[-72.217719,41.835184],[-72.2171,41.872251],[-72.216926,41.882754],[-72.2169,41.884464],[-72.216334,41.891221],[-72.216638,41.898765],[-72.216548,41.90946],[-72.21665,41.918667],[-72.217289,41.942996],[-72.21698,41.958161],[-72.195536,41.959332],[-72.168962,41.95938],[-72.167991,41.959367],[-72.151522,41.959302],[-72.127202,41.959108],[-72.099229,41.958948],[-72.099537,41.966322],[-72.1021701,42.02889951]]]},"properties":{"name":"Tolland=TOLCT","type":"county"}},
{"type":"Feature","geometry":{"type":"Polygon","coordinates":[[[-71.78763743,41.63989763],[-71.786994,41.655992],[-71.78865453,41.69852102],[-71.789678,41.724734],[-71.791062,41.770273],[-71.79124522,41.77421989],[-71.79125807,41.77449651],[-71.792767,41.807001],[-71.792786,41.80867],[-71.79367671,41.82905654],[-71.794161,41.840141],[-71.794161,41.841101],[-71.79448526,41.84923066],[-71.79460779,41.85230263],[-71.79668886,41.90447818],[-71.7978018,41.93238141],[-71.797922,41.935395],[-71.7982479,41.95333698],[-71.79867754,41.9769897],[-71.79882545,41.98513272],[-71.799242,42.008065],[-71.80065,42.023569],[-71.85933678,42.02408926],[-71.88263432,42.02429579],[-71.89078,42.024368],[-71.91805525,42.02507767],[-71.92087765,42.0251511],[-71.96302949,42.02624784],[-71.987326,42.02688],[-72.01012287,42.02701977],[-72.063496,42.027347],[-72.1021701,42.02889951],[-72.099537,41.966322],[-72.099229,41.958948],[-72.127202,41.959108],[-72.151522,41.959302],[-72.167991,41.959367],[-72.168962,41.95938],[-72.195536,41.959332],[-72.21698,41.958161],[-72.217289,41.942996],[-72.21665,41.918667],[-72.216548,41.90946],[-72.216638,41.898765],[-72.216334,41.891221],[-72.2169,41.884464],[-72.216926,41.882754],[-72.2171,41.872251],[-72.217719,41.835184],[-72.200238,41.835046],[-72.169168,41.834903],[-72.164558,41.834913],[-72.159416,41.781083],[-72.156777,41.753739],[-72.156188,41.753419],[-72.157654,41.751773],[-72.162567,41.750098],[-72.164978,41.750098],[-72.169133,41.751547],[-72.171612,41.748446],[-72.172997,41.749445],[-72.174116,41.751132],[-72.17462,41.750953],[-72.174735,41.750098],[-72.176358,41.749908],[-72.176541,41.750641],[-72.176027,41.751363],[-72.178338,41.753045],[-72.17748,41.753837],[-72.17787,41.75537],[-72.182275,41.756211],[-72.186979,41.755427],[-72.188028,41.754805],[-72.187987,41.753741],[-72.185731,41.751914],[-72.18925,41.750405],[-72.188772,41.748414],[-72.189047,41.747113],[-72.192581,41.744568],[-72.193845,41.743209],[-72.19572,41.738711],[-72.195689,41.73703],[-72.195106,41.735706],[-72.194439,41.734945],[-72.193154,41.734713],[-72.191064,41.732999],[-72.191018,41.73165],[-72.19233,41.730506],[-72.195291,41.730118],[-72.197091,41.730826],[-72.198126,41.728176],[-72.209451,41.728036],[-72.21631,41.728034],[-72.227183,41.728072],[-72.245007,41.728208],[-72.24812,41.728201],[-72.251433,41.728203],[-72.252746,41.728202],[-72.252044,41.724238],[-72.247628,41.723703],[-72.246596,41.722901],[-72.244371,41.717329],[-72.239559,41.714191],[-72.237947,41.713167],[-72.218236,41.698784],[-72.214587,41.696343],[-72.211648,41.694448],[-72.210423,41.693658],[-72.199009,41.685501],[-72.186654,41.676285],[-72.157546,41.657627],[-72.157382,41.658002],[-72.153391,41.665643],[-72.147021,41.665161],[-72.123289,41.662003],[-72.120328,41.661925],[-72.11,41.660224],[-72.103647,41.659318],[-72.092324,41.657183],[-72.062114,41.652248],[-72.031092,41.647222],[-72.014836,41.644574],[-71.991771,41.640804],[-71.975253,41.638117],[-71.972367,41.637647],[-71.970535,41.637349],[-71.954983,41.634799],[-71.951936,41.634328],[-71.936713,41.635867],[-71.909069,41.638665],[-71.884422,41.641204],[-71.857917,41.644227],[-71.854941,41.644103],[-71.853551,41.644042],[-71.789662,41.64003],[-71.789398,41.640013],[-71.78763743,41.63989763]]]},"properties":{"name":"WindhamCT=WINCT","type":"county"}}
]}