{"type": "FeatureCollection", "name": "US-MT POTA PARKS", "features": [{"type": "Feature", "geometry": {"type": "Point", "coordinates": [-113.725, 48.773]}, "properties": {"NAME": "US-0028", "TITLE": "Glacier National Park"}}, {"type": "Feature", "geometry": {"type": "Point", "coordinates": [-116.824, 46.447]}, "properties": {"NAME": "US-0054", "TITLE": "Nez Perce National Historical Park"}}, {"type": "Feature", "geometry": {"type": "Point", "coordinates": [-110.587, 44.4281]}, "properties": {"NAME": "US-0070", "TITLE": "Yellowstone National Park"}}, {"type": "Feature", "geometry": {"type": "Point", "coordinates": [-111.33, 47.6775]}, "properties": {"NAME": "US-0396", "TITLE": "Benton Lake National Wildlife Refuge"}}, {"type": "Feature", "geometry": {"type": "Point", "coordinates": [-107.579, 48.3953]}, "properties": {"NAME": "US-0398", "TITLE": "Bowdoin National Wildlife Refuge"}}, {"type": "Feature", "geometry": {"type": "Point", "coordinates": [-107.167, 47.7002]}, "properties": {"NAME": "US-0399", "TITLE": "Charles M. Russell National Wildlife Refuge"}}, {"type": "Feature", "geometry": {"type": "Point", "coordinates": [-109.117, 45.9497]}, "properties": {"NAME": "US-0400", "TITLE": "Halfbreed Lake National Wildlife Refuge"}}, {"type": "Feature", "geometry": {"type": "Point", "coordinates": [-108.674, 46.514]}, "properties": {"NAME": "US-0401", "TITLE": "Lake Mason National Wildlife Refuge"}}, {"type": "Feature", "geometry": {"type": "Point", "coordinates": [-114.077, 46.5559]}, "properties": {"NAME": "US-0402", "TITLE": "Lee Metcalf National Wildlife Refuge"}}, {"type": "Feature", "geometry": {"type": "Point", "coordinates": [-114.907, 48.175]}, "properties": {"NAME": "US-0403", "TITLE": "Lost Trail National Wildlife Refuge"}}, {"type": "Feature", "geometry": {"type": "Point", "coordinates": [-104.45, 48.4835]}, "properties": {"NAME": "US-0404", "TITLE": "Medicine Lake National Wildlife Refuge"}}, {"type": "Feature", "geometry": {"type": "Point", "coordinates": [-114.255, 47.3672]}, "properties": {"NAME": "US-0405", "TITLE": "CSKT Bison Range Protected Area"}}, {"type": "Feature", "geometry": {"type": "Point", "coordinates": [-111.811, 44.5995]}, "properties": {"NAME": "US-0407", "TITLE": "Red Rock Lakes National Wildlife Refuge"}}, {"type": "Feature", "geometry": {"type": "Point", "coordinates": [-107.88, 47.6003]}, "properties": {"NAME": "US-0408", "TITLE": "UL Bend National Wildlife Refuge"}}, {"type": "Feature", "geometry": {"type": "Point", "coordinates": [-108.564, 47.1134]}, "properties": {"NAME": "US-0409", "TITLE": "War Horse National Wildlife Refuge"}}, {"type": "Feature", "geometry": {"type": "Point", "coordinates": [-107.976, 45.3]}, "properties": {"NAME": "US-0674", "TITLE": "Bighorn Canyon National Recreation Area"}}, {"type": "Feature", "geometry": {"type": "Point", "coordinates": [-113.653, 45.645]}, "properties": {"NAME": "US-0701", "TITLE": "Big Hole National Battlefield"}}, {"type": "Feature", "geometry": {"type": "Point", "coordinates": [-104.039, 48.002]}, "properties": {"NAME": "US-0823", "TITLE": "Fort Union Trading Post National Historic Site"}}, {"type": "Feature", "geometry": {"type": "Point", "coordinates": [-112.734, 46.4297]}, "properties": {"NAME": "US-0829", "TITLE": "Grant-Kohrs Ranch National Historic Site"}}, {"type": "Feature", "geometry": {"type": "Point", "coordinates": [-113.511, 47.9134]}, "properties": {"NAME": "US-0883", "TITLE": "Flathead National Wild and Scenic River"}}, {"type": "Feature", "geometry": {"type": "Point", "coordinates": [-107.429, 45.5647]}, "properties": {"NAME": "US-0947", "TITLE": "Little Bighorn Battlefield National Monument"}}, {"type": "Feature", "geometry": {"type": "Point", "coordinates": [-109.935, 46.9599]}, "properties": {"NAME": "US-2556", "TITLE": "Ackley Lake State Park"}}, {"type": "Feature", "geometry": {"type": "Point", "coordinates": [-112.932, 46.1233]}, "properties": {"NAME": "US-2557", "TITLE": "Anaconda Smelter Stack State Park"}}, {"type": "Feature", "geometry": {"type": "Point", "coordinates": [-113.001, 45.1645]}, "properties": {"NAME": "US-2558", "TITLE": "Bannack State Park"}}, {"type": "Feature", "geometry": {"type": "Point", "coordinates": [-112.459, 45.3854]}, "properties": {"NAME": "US-2559", "TITLE": "Beaverhead Rock State Park"}}, {"type": "Feature", "geometry": {"type": "Point", "coordinates": [-113.576, 46.7193]}, "properties": {"NAME": "US-2560", "TITLE": "Beavertail Hill State Park"}}, {"type": "Feature", "geometry": {"type": "Point", "coordinates": [-114.308, 47.8147]}, "properties": {"NAME": "US-2561", "TITLE": "Big Arm State Park"}}, {"type": "Feature", "geometry": {"type": "Point", "coordinates": [-111.887, 46.7455]}, "properties": {"NAME": "US-2562", "TITLE": "Black Sandy State Park"}}, {"type": "Feature", "geometry": {"type": "Point", "coordinates": [-104.104, 48.6052]}, "properties": {"NAME": "US-2563", "TITLE": "Brush Lake State Park"}}, {"type": "Feature", "geometry": {"type": "Point", "coordinates": [-108.549, 45.4265]}, "properties": {"NAME": "US-2564", "TITLE": "Chief Plenty Coups State Park"}}, {"type": "Feature", "geometry": {"type": "Point", "coordinates": [-112.634, 45.235]}, "properties": {"NAME": "US-2565", "TITLE": "Clarks Lookout State Park"}}, {"type": "Feature", "geometry": {"type": "Point", "coordinates": [-109.233, 45.4404]}, "properties": {"NAME": "US-2566", "TITLE": "Cooney Reservoir State Park"}}, {"type": "Feature", "geometry": {"type": "Point", "coordinates": [-114.159, 46.9106]}, "properties": {"NAME": "US-2567", "TITLE": "Council Grove State Park"}}, {"type": "Feature", "geometry": {"type": "Point", "coordinates": [-111.946, 46.2751]}, "properties": {"NAME": "US-2568", "TITLE": "Elkhorn State Park"}}, {"type": "Feature", "geometry": {"type": "Point", "coordinates": [-114.086, 47.7516]}, "properties": {"NAME": "US-2569", "TITLE": "Finley Point State Park"}}, {"type": "Feature", "geometry": {"type": "Point", "coordinates": [-111.518, 47.4782]}, "properties": {"NAME": "US-2570", "TITLE": "First Peoples Buffalo Jump State Park"}}, {"type": "Feature", "geometry": {"type": "Point", "coordinates": [-114.716, 46.9899]}, "properties": {"NAME": "US-2571", "TITLE": "Fish Creek State Park"}}, {"type": "Feature", "geometry": {"type": "Point", "coordinates": [-114.097, 46.5202]}, "properties": {"NAME": "US-2572", "TITLE": "Fort Owen State Park"}}, {"type": "Feature", "geometry": {"type": "Point", "coordinates": [-114.257, 47.0231]}, "properties": {"NAME": "US-2573", "TITLE": "Frenchtown Pond State Park"}}, {"type": "Feature", "geometry": {"type": "Point", "coordinates": [-111.229, 47.5344]}, "properties": {"NAME": "US-2574", "TITLE": "Giant Springs State Park"}}, {"type": "Feature", "geometry": {"type": "Point", "coordinates": [-109.793, 45.7628]}, "properties": {"NAME": "US-2576", "TITLE": "Grey Cliff Prairie Dog State Park"}}, {"type": "Feature", "geometry": {"type": "Point", "coordinates": [-106.887, 47.6166]}, "properties": {"NAME": "US-2577", "TITLE": "Hell Creek State Park"}}, {"type": "Feature", "geometry": {"type": "Point", "coordinates": [-108.477, 45.8394]}, "properties": {"NAME": "US-2578", "TITLE": "Lake Elmo State Park"}}, {"type": "Feature", "geometry": {"type": "Point", "coordinates": [-114.384, 47.9268]}, "properties": {"NAME": "US-2579", "TITLE": "Lake Mary Ronan State Park"}}, {"type": "Feature", "geometry": {"type": "Point", "coordinates": [-114.372, 48.4589]}, "properties": {"NAME": "US-2580", "TITLE": "Les Mason State Park"}}, {"type": "Feature", "geometry": {"type": "Point", "coordinates": [-111.863, 45.8339]}, "properties": {"NAME": "US-2581", "TITLE": "Lewis and Clark Caverns State Park"}}, {"type": "Feature", "geometry": {"type": "Point", "coordinates": [-115.067, 48.033]}, "properties": {"NAME": "US-2582", "TITLE": "Logan State Park"}}, {"type": "Feature", "geometry": {"type": "Point", "coordinates": [-114.34, 48.1732]}, "properties": {"NAME": "US-2583", "TITLE": "Lone Pine State Park"}}, {"type": "Feature", "geometry": {"type": "Point", "coordinates": [-113.003, 46.2093]}, "properties": {"NAME": "US-2584", "TITLE": "Lost Creek State Park"}}, {"type": "Feature", "geometry": {"type": "Point", "coordinates": [-111.469, 45.7943]}, "properties": {"NAME": "US-2585", "TITLE": "Madison Buffalo Jump State Park"}}, {"type": "Feature", "geometry": {"type": "Point", "coordinates": [-104.71, 47.0902]}, "properties": {"NAME": "US-2586", "TITLE": "Makoshika State Park"}}, {"type": "Feature", "geometry": {"type": "Point", "coordinates": [-112.043, 48.4554]}, "properties": {"NAME": "US-2587", "TITLE": "Marias River Wildlife Management Area"}}, {"type": "Feature", "geometry": {"type": "Point", "coordinates": [-104.457, 46.0459]}, "properties": {"NAME": "US-2588", "TITLE": "Medicine Rocks State Park"}}, {"type": "Feature", "geometry": {"type": "Point", "coordinates": [-111.501, 45.9284]}, "properties": {"NAME": "US-2589", "TITLE": "Missouri Headwaters State Park"}}, {"type": "Feature", "geometry": {"type": "Point", "coordinates": [-114.302, 45.6804]}, "properties": {"NAME": "US-2590", "TITLE": "Painted Rocks State Park"}}, {"type": "Feature", "geometry": {"type": "Point", "coordinates": [-108.431, 45.7378]}, "properties": {"NAME": "US-2591", "TITLE": "Pictograph Cave State Park"}}, {"type": "Feature", "geometry": {"type": "Point", "coordinates": [-105.818, 46.4403]}, "properties": {"NAME": "US-2592", "TITLE": "Pirogue Island State Park"}}, {"type": "Feature", "geometry": {"type": "Point", "coordinates": [-113.503, 47.1198]}, "properties": {"NAME": "US-2593", "TITLE": "Placid Lake State Park"}}, {"type": "Feature", "geometry": {"type": "Point", "coordinates": [-106.974, 45.2188]}, "properties": {"NAME": "US-2594", "TITLE": "Rosebud Battlefield State Park"}}, {"type": "Feature", "geometry": {"type": "Point", "coordinates": [-113.397, 47.0915]}, "properties": {"NAME": "US-2595", "TITLE": "Salmon Lake State Park"}}, {"type": "Feature", "geometry": {"type": "Point", "coordinates": [-110.945, 47.1995]}, "properties": {"NAME": "US-2596", "TITLE": "Sluice Boxes State Park"}}, {"type": "Feature", "geometry": {"type": "Point", "coordinates": [-111.182, 46.8017]}, "properties": {"NAME": "US-2597", "TITLE": "Smith River State Park"}}, {"type": "Feature", "geometry": {"type": "Point", "coordinates": [-112.077, 46.6114]}, "properties": {"NAME": "US-2598", "TITLE": "Spring Meadow Lake State Park"}}, {"type": "Feature", "geometry": {"type": "Point", "coordinates": [-115.39, 47.6179]}, "properties": {"NAME": "US-2599", "TITLE": "Thompson Falls State Park"}}, {"type": "Feature", "geometry": {"type": "Point", "coordinates": [-106.789, 45.104]}, "properties": {"NAME": "US-2600", "TITLE": "Tongue River Reservoir State Park"}}, {"type": "Feature", "geometry": {"type": "Point", "coordinates": [-111.815, 47.1835]}, "properties": {"NAME": "US-2601", "TITLE": "Tower Rock State Park"}}, {"type": "Feature", "geometry": {"type": "Point", "coordinates": [-114.091, 46.7556]}, "properties": {"NAME": "US-2602", "TITLE": "Travelers' Rest State Park"}}, {"type": "Feature", "geometry": {"type": "Point", "coordinates": [-114.077, 48.0521]}, "properties": {"NAME": "US-2603", "TITLE": "Wayfarers State Park"}}, {"type": "Feature", "geometry": {"type": "Point", "coordinates": [-114.189, 47.949]}, "properties": {"NAME": "US-2604", "TITLE": "West Shore State Park"}}, {"type": "Feature", "geometry": {"type": "Point", "coordinates": [-114.371, 48.4249]}, "properties": {"NAME": "US-2605", "TITLE": "Whitefish Lake State Park"}}, {"type": "Feature", "geometry": {"type": "Point", "coordinates": [-114.21, 47.8416]}, "properties": {"NAME": "US-2606", "TITLE": "Wild Horse Island State Park"}}, {"type": "Feature", "geometry": {"type": "Point", "coordinates": [-114.029, 47.8757]}, "properties": {"NAME": "US-2607", "TITLE": "Yellow Bay State Park"}}, {"type": "Feature", "geometry": {"type": "Point", "coordinates": [-115.051, 48.0291]}, "properties": {"NAME": "US-3387", "TITLE": "Thompson Chain of Lakes State Park"}}, {"type": "Feature", "geometry": {"type": "Point", "coordinates": [-119.686, 47.5866]}, "properties": {"NAME": "US-3424", "TITLE": "Ice Age Floods National Geologic Trail"}}, {"type": "Feature", "geometry": {"type": "Point", "coordinates": [-111.55, 42.7833]}, "properties": {"NAME": "US-4475", "TITLE": "Caribou-Targhee National Forest"}}, {"type": "Feature", "geometry": {"type": "Point", "coordinates": [-116.572, 48.2663]}, "properties": {"NAME": "US-4477", "TITLE": "Idaho Panhandle National Forest"}}, {"type": "Feature", "geometry": {"type": "Point", "coordinates": [-112.643, 45.2055]}, "properties": {"NAME": "US-4499", "TITLE": "Beaverhead-Deerlodge National Forest"}}, {"type": "Feature", "geometry": {"type": "Point", "coordinates": [-114.284, 45.917]}, "properties": {"NAME": "US-4500", "TITLE": "Bitterroot National Forest"}}, {"type": "Feature", "geometry": {"type": "Point", "coordinates": [-105.997, 45.5048]}, "properties": {"NAME": "US-4501", "TITLE": "Custer Gallatin National Forest"}}, {"type": "Feature", "geometry": {"type": "Point", "coordinates": [-114.351, 48.2373]}, "properties": {"NAME": "US-4502", "TITLE": "Flathead National Forest"}}, {"type": "Feature", "geometry": {"type": "Point", "coordinates": [-110.7, 46.953]}, "properties": {"NAME": "US-4504", "TITLE": "Helena - Lewis and Clark National Forest"}}, {"type": "Feature", "geometry": {"type": "Point", "coordinates": [-115.615, 48.6843]}, "properties": {"NAME": "US-4505", "TITLE": "Kootenai National Forest"}}, {"type": "Feature", "geometry": {"type": "Point", "coordinates": [-114.441, 47.1568]}, "properties": {"NAME": "US-4507", "TITLE": "Lolo National Forest"}}, {"type": "Feature", "geometry": {"type": "Point", "coordinates": [-108.002, 45.9878]}, "properties": {"NAME": "US-4548", "TITLE": "Pompeys Pillar National Monument"}}, {"type": "Feature", "geometry": {"type": "Point", "coordinates": [-109.055, 47.8046]}, "properties": {"NAME": "US-4549", "TITLE": "Upper Missouri River Breaks National Monument"}}, {"type": "Feature", "geometry": {"type": "Point", "coordinates": [-108.726, 32.3252]}, "properties": {"NAME": "US-4558", "TITLE": "Continental Divide Trail National Scenic Trail"}}, {"type": "Feature", "geometry": {"type": "Point", "coordinates": [-122.426, 48.6098]}, "properties": {"NAME": "US-4563", "TITLE": "Pacific Northwest National Scenic Trail"}}, {"type": "Feature", "geometry": {"type": "Point", "coordinates": [-95.9246, 41.2646]}, "properties": {"NAME": "US-4572", "TITLE": "Lewis and Clark National Historic Trail"}}, {"type": "Feature", "geometry": {"type": "Point", "coordinates": [-114.172, 46.7468]}, "properties": {"NAME": "US-4574", "TITLE": "Nez Perce National Historic Trail"}}, {"type": "Feature", "geometry": {"type": "Point", "coordinates": [-113.408, 46.9325]}, "properties": {"NAME": "US-4844", "TITLE": "Clearwater State Forest"}}, {"type": "Feature", "geometry": {"type": "Point", "coordinates": [-114.292, 48.693]}, "properties": {"NAME": "US-4845", "TITLE": "Coal Creek State Forest"}}, {"type": "Feature", "geometry": {"type": "Point", "coordinates": [-112.6, 46.9813]}, "properties": {"NAME": "US-4846", "TITLE": "Lincoln State Forest"}}, {"type": "Feature", "geometry": {"type": "Point", "coordinates": [-114.58, 48.668]}, "properties": {"NAME": "US-4848", "TITLE": "Stillwater State Forest"}}, {"type": "Feature", "geometry": {"type": "Point", "coordinates": [-113.959, 45.9516]}, "properties": {"NAME": "US-4849", "TITLE": "Sula State Forest"}}, {"type": "Feature", "geometry": {"type": "Point", "coordinates": [-113.889, 47.771]}, "properties": {"NAME": "US-4850", "TITLE": "Swan River State Forest"}}, {"type": "Feature", "geometry": {"type": "Point", "coordinates": [-114.971, 47.7286]}, "properties": {"NAME": "US-4851", "TITLE": "Thompson River State Forest"}}, {"type": "Feature", "geometry": {"type": "Point", "coordinates": [-110.294, 45.2064]}, "properties": {"NAME": "US-6209", "TITLE": "Absaroka-Beartooth Wilderness Area"}}, {"type": "Feature", "geometry": {"type": "Point", "coordinates": [-112.643, 47.8706]}, "properties": {"NAME": "US-6441", "TITLE": "Ear Mountain Wildlife Management Area"}}, {"type": "Feature", "geometry": {"type": "Point", "coordinates": [-112.045, 47.6833]}, "properties": {"NAME": "US-6442", "TITLE": "Freezeout Lake Wildlife Management Area"}}, {"type": "Feature", "geometry": {"type": "Point", "coordinates": [-112.008, 47.5131]}, "properties": {"NAME": "US-6443", "TITLE": "Lowry Bridge State Recreation Area"}}, {"type": "Feature", "geometry": {"type": "Point", "coordinates": [-111.615, 45.5017]}, "properties": {"NAME": "US-7990", "TITLE": "Lee Metcalf BLM Wilderness Area"}}, {"type": "Feature", "geometry": {"type": "Point", "coordinates": [-114.37, 46.0161]}, "properties": {"NAME": "US-7994", "TITLE": "Selway-Bitterroot Wilderness Area"}}, {"type": "Feature", "geometry": {"type": "Point", "coordinates": [-108.412, 48.6897]}, "properties": {"NAME": "US-7996", "TITLE": "Black Coulee National Wildlife Refuge"}}, {"type": "Feature", "geometry": {"type": "Point", "coordinates": [-109.174, 46.0197]}, "properties": {"NAME": "US-7998", "TITLE": "Hailstone National Wildlife Refuge"}}, {"type": "Feature", "geometry": {"type": "Point", "coordinates": [-107.622, 48.535]}, "properties": {"NAME": "US-7999", "TITLE": "Hewitt Lake National Wildlife Refuge"}}, {"type": "Feature", "geometry": {"type": "Point", "coordinates": [-104.155, 46.7925]}, "properties": {"NAME": "US-8001", "TITLE": "Lamesteer National Wildlife Refuge"}}, {"type": "Feature", "geometry": {"type": "Point", "coordinates": [-114.121, 47.4411]}, "properties": {"NAME": "US-8002", "TITLE": "Ninepipe National Wildlife Refuge"}}, {"type": "Feature", "geometry": {"type": "Point", "coordinates": [-114.159, 47.6367]}, "properties": {"NAME": "US-8003", "TITLE": "Pablo National Wildlife Refuge"}}, {"type": "Feature", "geometry": {"type": "Point", "coordinates": [-113.859, 47.9072]}, "properties": {"NAME": "US-8004", "TITLE": "Swan River National Wildlife Refuge"}}, {"type": "Feature", "geometry": {"type": "Point", "coordinates": [-113.89, 46.872]}, "properties": {"NAME": "US-10175", "TITLE": "Milltown State Park State Park"}}, {"type": "Feature", "geometry": {"type": "Point", "coordinates": [-113.248, 46.317]}, "properties": {"NAME": "US-10176", "TITLE": "Granite Ghost Town State Park"}}, {"type": "Feature", "geometry": {"type": "Point", "coordinates": [-113.339, 46.8253]}, "properties": {"NAME": "US-10521", "TITLE": "Garnet Ghost Town BLM Historic Preservation Site"}}, {"type": "Feature", "geometry": {"type": "Point", "coordinates": [-108.664, 46.045]}, "properties": {"NAME": "US-10524", "TITLE": "Acton (BLM) Recreation Site"}}, {"type": "Feature", "geometry": {"type": "Point", "coordinates": [-110.238, 48.031]}, "properties": {"NAME": "US-10525", "TITLE": "Coal Banks Landing (BLM) Recreation Site"}}, {"type": "Feature", "geometry": {"type": "Point", "coordinates": [-111.804, 46.7]}, "properties": {"NAME": "US-10526", "TITLE": "Devils Elbow (BLM) Recreation Site"}}, {"type": "Feature", "geometry": {"type": "Point", "coordinates": [-109.628, 47.7408]}, "properties": {"NAME": "US-10527", "TITLE": "Judith Landing (BLM) Recreation Site"}}, {"type": "Feature", "geometry": {"type": "Point", "coordinates": [-108.284, 46.0343]}, "properties": {"NAME": "US-10528", "TITLE": "Shepherd Ah Nei BLM Special Recreation Management Area"}}, {"type": "Feature", "geometry": {"type": "Point", "coordinates": [-108.73, 45.6481]}, "properties": {"NAME": "US-10529", "TITLE": "Sundance Lodge (BLM) Recreation Site"}}, {"type": "Feature", "geometry": {"type": "Point", "coordinates": [-111.93, 46.9527]}, "properties": {"NAME": "US-10696", "TITLE": "Beartooth Wildlife Management Area"}}, {"type": "Feature", "geometry": {"type": "Point", "coordinates": [-114.218, 48.0818]}, "properties": {"NAME": "US-11146", "TITLE": "Somers Beach State Park"}}, {"type": "Feature", "geometry": {"type": "Point", "coordinates": [-109.213, 48.3775]}, "properties": {"NAME": "US-11215", "TITLE": "Bear Paw Battlefield National Monument"}}, {"type": "Feature", "geometry": {"type": "Point", "coordinates": [-109.344, 47.0021]}, "properties": {"NAME": "US-11216", "TITLE": "Big Springs Trout State Fish Hatchery"}}, {"type": "Feature", "geometry": {"type": "Point", "coordinates": [-108.8, 45.3307]}, "properties": {"NAME": "US-11217", "TITLE": "Bluewater Springs Trout State Fish Hatchery"}}, {"type": "Feature", "geometry": {"type": "Point", "coordinates": [-106.448, 48.0192]}, "properties": {"NAME": "US-11218", "TITLE": "Fort Peck State Fish Hatchery"}}, {"type": "Feature", "geometry": {"type": "Point", "coordinates": [-114.083, 47.1672]}, "properties": {"NAME": "US-11219", "TITLE": "Jacko River Trout State Fish Hatchery"}}, {"type": "Feature", "geometry": {"type": "Point", "coordinates": [-112.96, 46.1346]}, "properties": {"NAME": "US-11221", "TITLE": "Washoe Park Trout State Fish Hatchery"}}, {"type": "Feature", "geometry": {"type": "Point", "coordinates": [-112.094, 46.6853]}, "properties": {"NAME": "US-11242", "TITLE": "Scratchgravel Hills BLM Recreation Management Area"}}, {"type": "Feature", "geometry": {"type": "Point", "coordinates": [-115.73, 48.4503]}, "properties": {"NAME": "US-12333", "TITLE": "Kootenai Falls Wildlife Management Area"}}, {"type": "Feature", "geometry": {"type": "Point", "coordinates": [-115.285, 47.5899]}, "properties": {"NAME": "US-12334", "TITLE": "Mount Silcox Wildlife Management Area"}}, {"type": "Feature", "geometry": {"type": "Point", "coordinates": [-110.673, 47.8101]}, "properties": {"NAME": "US-12630", "TITLE": "Upper Missouri River BLM Wild and Scenic River"}}, {"type": "Feature", "geometry": {"type": "Point", "coordinates": [-105.508, 46.7858]}, "properties": {"NAME": "US-12631", "TITLE": "Terry Badlands BLM Wilderness Area"}}, {"type": "Feature", "geometry": {"type": "Point", "coordinates": [-111.98, 46.9202]}, "properties": {"NAME": "US-12632", "TITLE": "Sleeping Giant BLM Wilderness Area"}}, {"type": "Feature", "geometry": {"type": "Point", "coordinates": [-112.043, 46.9296]}, "properties": {"NAME": "US-12633", "TITLE": "Sheep Creek BLM Wilderness Area"}}, {"type": "Feature", "geometry": {"type": "Point", "coordinates": [-111.894, 45.2116]}, "properties": {"NAME": "US-12634", "TITLE": "Axolotl Lakes BLM Wilderness Area"}}, {"type": "Feature", "geometry": {"type": "Point", "coordinates": [-112.671, 45.7432]}, "properties": {"NAME": "US-12635", "TITLE": "Humbug Spires BLM Wilderness Area"}}, {"type": "Feature", "geometry": {"type": "Point", "coordinates": [-104.228, 47.5792]}, "properties": {"NAME": "US-12646", "TITLE": "Seven Sisters Wildlife Management Area"}}, {"type": "Feature", "geometry": {"type": "Point", "coordinates": [-104.314, 47.4689]}, "properties": {"NAME": "US-12647", "TITLE": "Elk Island Wildlife Management Area"}}, {"type": "Feature", "geometry": {"type": "Point", "coordinates": [-111.556, 46.374]}, "properties": {"NAME": "US-12648", "TITLE": "Canyon Ferry Wildlife Management Area"}}, {"type": "Feature", "geometry": {"type": "Point", "coordinates": [-110.139, 48.737]}, "properties": {"NAME": "US-12649", "TITLE": "Fresno Reservoir Wildlife Management Area"}}, {"type": "Feature", "geometry": {"type": "Point", "coordinates": [-112.788, 46.1682]}, "properties": {"NAME": "US-12650", "TITLE": "Warm Springs Wildlife Management Area"}}, {"type": "Feature", "geometry": {"type": "Point", "coordinates": [-112.799, 46.8128]}, "properties": {"NAME": "US-12651", "TITLE": "Nevada Lake Wildlife Management Area"}}, {"type": "Feature", "geometry": {"type": "Point", "coordinates": [-115.218, 48.9798]}, "properties": {"NAME": "US-12652", "TITLE": "Kootenai West Wildlife Management Area"}}, {"type": "Feature", "geometry": {"type": "Point", "coordinates": [-113.012, 46.9163]}, "properties": {"NAME": "US-12653", "TITLE": "Aunt Molly Wildlife Management Area"}}, {"type": "Feature", "geometry": {"type": "Point", "coordinates": [-113.383, 47.0072]}, "properties": {"NAME": "US-12654", "TITLE": "Blackfoot-Clearwater Wildlife Management Area"}}, {"type": "Feature", "geometry": {"type": "Point", "coordinates": [-113.626, 47.2707]}, "properties": {"NAME": "US-12655", "TITLE": "Marshall Creek Wildlife Management Area"}}, {"type": "Feature", "geometry": {"type": "Point", "coordinates": [-115.034, 48.9845]}, "properties": {"NAME": "US-12656", "TITLE": "Kootenai Woods Ranch Wildlife Management Area"}}, {"type": "Feature", "geometry": {"type": "Point", "coordinates": [-112.611, 47.5391]}, "properties": {"NAME": "US-12657", "TITLE": "Sun River Wildlife Management Area"}}, {"type": "Feature", "geometry": {"type": "Point", "coordinates": [-112.646, 47.9916]}, "properties": {"NAME": "US-12658", "TITLE": "Blackleaf Wildlife Management Area"}}, {"type": "Feature", "geometry": {"type": "Point", "coordinates": [-115.849, 48.2033]}, "properties": {"NAME": "US-12695", "TITLE": "Bull River Wildlife Management Area"}}, {"type": "Feature", "geometry": {"type": "Point", "coordinates": [-115.171, 47.5758]}, "properties": {"NAME": "US-12696", "TITLE": "Bighorn Viewing Wildlife Management Area"}}, {"type": "Feature", "geometry": {"type": "Point", "coordinates": [-113.937, 46.9121]}, "properties": {"NAME": "US-12697", "TITLE": "Mount Jumbo Wildlife Management Area"}}, {"type": "Feature", "geometry": {"type": "Point", "coordinates": [-113.98, 46.2783]}, "properties": {"NAME": "US-12698", "TITLE": "Calf Creek Wildlife Management Area"}}, {"type": "Feature", "geometry": {"type": "Point", "coordinates": [-113.826, 47.7969]}, "properties": {"NAME": "US-12699", "TITLE": "North Swan Valley Wildlife Management Area"}}, {"type": "Feature", "geometry": {"type": "Point", "coordinates": [-115.05, 47.5342]}, "properties": {"NAME": "US-12700", "TITLE": "Roundhorn Wildlife Management Area"}}, {"type": "Feature", "geometry": {"type": "Point", "coordinates": [-113.891, 46.5903]}, "properties": {"NAME": "US-12701", "TITLE": "Threemile Wildlife Management Area"}}, {"type": "Feature", "geometry": {"type": "Point", "coordinates": [-114.686, 46.9009]}, "properties": {"NAME": "US-12702", "TITLE": "MT Fish Creek Wildlife Management Area"}}, {"type": "Feature", "geometry": {"type": "Point", "coordinates": [-112.324, 46.9174]}, "properties": {"NAME": "US-12712", "TITLE": "Canyon Creek Wildlife Management Area"}}, {"type": "Feature", "geometry": {"type": "Point", "coordinates": [-112.028, 47.9955]}, "properties": {"NAME": "US-12818", "TITLE": "Arod Lake State Fish and Wildlife Area"}}, {"type": "Feature", "geometry": {"type": "Point", "coordinates": [-109.658, 48.317]}, "properties": {"NAME": "US-12819", "TITLE": "Bearpaw Lake State Fish and Wildlife Area"}}, {"type": "Feature", "geometry": {"type": "Point", "coordinates": [-114.663, 46.9896]}, "properties": {"NAME": "US-12820", "TITLE": "Big Pine State Fish and Wildlife Area"}}, {"type": "Feature", "geometry": {"type": "Point", "coordinates": [-109.964, 45.7929]}, "properties": {"NAME": "US-12821", "TITLE": "Big Rock State Fish and Wildlife Area"}}, {"type": "Feature", "geometry": {"type": "Point", "coordinates": [-107.786, 45.4146]}, "properties": {"NAME": "US-12822", "TITLE": "Big Horn State Fish and Wildlife Area"}}, {"type": "Feature", "geometry": {"type": "Point", "coordinates": [-105.57, 46.6277]}, "properties": {"NAME": "US-12823", "TITLE": "Bonfield State Fish and Wildlife Area"}}, {"type": "Feature", "geometry": {"type": "Point", "coordinates": [-110.109, 45.6578]}, "properties": {"NAME": "US-12824", "TITLE": "Boulder Forks State Fish and Wildlife Area"}}, {"type": "Feature", "geometry": {"type": "Point", "coordinates": [-109.631, 45.7162]}, "properties": {"NAME": "US-12825", "TITLE": "Bratten State Fish and Wildlife Area"}}, {"type": "Feature", "geometry": {"type": "Point", "coordinates": [-113.01, 46.9464]}, "properties": {"NAME": "US-12826", "TITLE": "Brown's Lake State Fish and Wildlife Area"}}, {"type": "Feature", "geometry": {"type": "Point", "coordinates": [-112.692, 45.5467]}, "properties": {"NAME": "US-12827", "TITLE": "Brownes Lake State Fish and Wildlife Area"}}, {"type": "Feature", "geometry": {"type": "Point", "coordinates": [-109.797, 45.4364]}, "properties": {"NAME": "US-12847", "TITLE": "Buffalo Jump State Fish and Wildlife Area"}}, {"type": "Feature", "geometry": {"type": "Point", "coordinates": [-112.405, 47.9598]}, "properties": {"NAME": "US-12849", "TITLE": "Bynum Reservoir State Fish and Wildlife Area"}}, {"type": "Feature", "geometry": {"type": "Point", "coordinates": [-107.718, 46.0738]}, "properties": {"NAME": "US-12850", "TITLE": "Captain Clark State Fish and Wildlife Area"}}, {"type": "Feature", "geometry": {"type": "Point", "coordinates": [-109.741, 45.473]}, "properties": {"NAME": "US-12851", "TITLE": "Castle Rock State Fish and Wildlife Area"}}, {"type": "Feature", "geometry": {"type": "Point", "coordinates": [-114.054, 46.6617]}, "properties": {"NAME": "US-12852", "TITLE": "Chief Looking Glass State Fish and Wildlife Area"}}, {"type": "Feature", "geometry": {"type": "Point", "coordinates": [-113.38, 47.0011]}, "properties": {"NAME": "US-12853", "TITLE": "Clearwater Crossing State Fish and Wildlife Area"}}, {"type": "Feature", "geometry": {"type": "Point", "coordinates": [-109.632, 45.5149]}, "properties": {"NAME": "US-12854", "TITLE": "Cliff Swallow State Fish and Wildlife Area"}}, {"type": "Feature", "geometry": {"type": "Point", "coordinates": [-107.468, 48.5391]}, "properties": {"NAME": "US-12855", "TITLE": "Cole Ponds State Fish and Wildlife Area"}}, {"type": "Feature", "geometry": {"type": "Point", "coordinates": [-113.538, 46.9514]}, "properties": {"NAME": "US-12856", "TITLE": "Corrick’s River Bend State Fish and Wildlife Area"}}, {"type": "Feature", "geometry": {"type": "Point", "coordinates": [-111.963, 47.0726]}, "properties": {"NAME": "US-12857", "TITLE": "Craig State Fish and Wildlife Area"}}, {"type": "Feature", "geometry": {"type": "Point", "coordinates": [-110.812, 45.26]}, "properties": {"NAME": "US-12860", "TITLE": "Dailey Lake State Fish and Wildlife Area"}}, {"type": "Feature", "geometry": {"type": "Point", "coordinates": [-110.637, 45.4204]}, "properties": {"NAME": "US-12861", "TITLE": "Dan Bailey State Fish and Wildlife Area"}}, {"type": "Feature", "geometry": {"type": "Point", "coordinates": [-109.432, 46.3287]}, "properties": {"NAME": "US-12862", "TITLE": "Deadman's Basin State Fish and Wildlife Area"}}, {"type": "Feature", "geometry": {"type": "Point", "coordinates": [-111.907, 47.1259]}, "properties": {"NAME": "US-12863", "TITLE": "Dearborn State Fish and Wildlife Area"}}, {"type": "Feature", "geometry": {"type": "Point", "coordinates": [-111.723, 45.3444]}, "properties": {"NAME": "US-12864", "TITLE": "Ennis State Fish and Wildlife Area"}}, {"type": "Feature", "geometry": {"type": "Point", "coordinates": [-112.314, 47.8777]}, "properties": {"NAME": "US-12865", "TITLE": "Eureka Reservoir State Fish and Wildlife Area"}}, {"type": "Feature", "geometry": {"type": "Point", "coordinates": [-105.114, 46.8568]}, "properties": {"NAME": "US-12866", "TITLE": "Fallon Bridge State Fish and Wildlife Area"}}, {"type": "Feature", "geometry": {"type": "Point", "coordinates": [-106.484, 46.2803]}, "properties": {"NAME": "US-12867", "TITLE": "Far West State Fish and Wildlife Area"}}, {"type": "Feature", "geometry": {"type": "Point", "coordinates": [-113.224, 45.8707]}, "properties": {"NAME": "US-12868", "TITLE": "Fishtrap Creek State Fish and Wildlife Area"}}, {"type": "Feature", "geometry": {"type": "Point", "coordinates": [-114.761, 47.0762]}, "properties": {"NAME": "US-12869", "TITLE": "Forest Grove State Fish and Wildlife Area"}}, {"type": "Feature", "geometry": {"type": "Point", "coordinates": [-114.701, 46.9263]}, "properties": {"NAME": "US-12871", "TITLE": "Forks State Fish and Wildlife Area"}}, {"type": "Feature", "geometry": {"type": "Point", "coordinates": [-107.579, 45.9264]}, "properties": {"NAME": "US-12872", "TITLE": "General Custer State Fish and Wildlife Area"}}, {"type": "Feature", "geometry": {"type": "Point", "coordinates": [-106.577, 48.4487]}, "properties": {"NAME": "US-12873", "TITLE": "Glasgow Base Pond State Fish and Wildlife Area"}}, {"type": "Feature", "geometry": {"type": "Point", "coordinates": [-112.669, 45.4667]}, "properties": {"NAME": "US-12874", "TITLE": "Glen State Fish and Wildlife Area"}}, {"type": "Feature", "geometry": {"type": "Point", "coordinates": [-107.591, 45.8442]}, "properties": {"NAME": "US-12875", "TITLE": "Grant Marsh State Fish and Wildlife Area"}}, {"type": "Feature", "geometry": {"type": "Point", "coordinates": [-110.066, 45.7864]}, "properties": {"NAME": "US-12876", "TITLE": "Grey Bear State Fish and Wildlife Area"}}, {"type": "Feature", "geometry": {"type": "Point", "coordinates": [-111.514, 45.7019]}, "properties": {"NAME": "US-12877", "TITLE": "Grey Cliff State Fish and Wildlife Area"}}, {"type": "Feature", "geometry": {"type": "Point", "coordinates": [-114.14, 45.9728]}, "properties": {"NAME": "US-12878", "TITLE": "Hannon Memorial National Park"}}, {"type": "Feature", "geometry": {"type": "Point", "coordinates": [-113.381, 47.0216]}, "properties": {"NAME": "US-12879", "TITLE": "Harper Lake State Fish and Wildlife Area"}}, {"type": "Feature", "geometry": {"type": "Point", "coordinates": [-111.708, 45.6994]}, "properties": {"NAME": "US-12880", "TITLE": "Harrison Lake State Fish and Wildlife Area"}}, {"type": "Feature", "geometry": {"type": "Point", "coordinates": [-113.097, 46.9809]}, "properties": {"NAME": "US-12882", "TITLE": "Harry Morgan State Fish and Wildlife Area"}}, {"type": "Feature", "geometry": {"type": "Point", "coordinates": [-109.232, 45.2374]}, "properties": {"NAME": "US-12883", "TITLE": "Horsethief Station State Fish and Wildlife Area"}}, {"type": "Feature", "geometry": {"type": "Point", "coordinates": [-109.549, 45.7154]}, "properties": {"NAME": "US-12884", "TITLE": "Indian Fort State Fish and Wildlife Area"}}, {"type": "Feature", "geometry": {"type": "Point", "coordinates": [-104.519, 47.2843]}, "properties": {"NAME": "US-12885", "TITLE": "Intake Dam State Fish and Wildlife Area"}}, {"type": "Feature", "geometry": {"type": "Point", "coordinates": [-114.976, 48.2329]}, "properties": {"NAME": "US-12886", "TITLE": "Island Lake State Fish and Wildlife Area"}}, {"type": "Feature", "geometry": {"type": "Point", "coordinates": [-112.122, 46.9388]}, "properties": {"NAME": "US-12887", "TITLE": "Lichen Cliff State Fish and Wildlife Area"}}, {"type": "Feature", "geometry": {"type": "Point", "coordinates": [-110.624, 45.4572]}, "properties": {"NAME": "US-12888", "TITLE": "Loch Leven State Fish and Wildlife Area"}}, {"type": "Feature", "geometry": {"type": "Point", "coordinates": [-112.696, 45.6556]}, "properties": {"NAME": "US-12889", "TITLE": "Maidenrock State Fish and Wildlife Area"}}, {"type": "Feature", "geometry": {"type": "Point", "coordinates": [-107.724, 45.5215]}, "properties": {"NAME": "US-12890", "TITLE": "Mallard's Landing State Fish and Wildlife Area"}}, {"type": "Feature", "geometry": {"type": "Point", "coordinates": [-110.622, 45.4848]}, "properties": {"NAME": "US-12891", "TITLE": "Mallard's Rest State Fish and Wildlife Area"}}, {"type": "Feature", "geometry": {"type": "Point", "coordinates": [-107.466, 46.1447]}, "properties": {"NAME": "US-12892", "TITLE": "Manuel Lisa State Fish and Wildlife Area"}}, {"type": "Feature", "geometry": {"type": "Point", "coordinates": [-110.282, 46.4506]}, "properties": {"NAME": "US-12893", "TITLE": "Martinsdale Reservoir State Fish and Wildlife Area"}}, {"type": "Feature", "geometry": {"type": "Point", "coordinates": [-111.708, 45.4434]}, "properties": {"NAME": "US-12894", "TITLE": "Meadow Lake State Fish and Wildlife Area"}}, {"type": "Feature", "geometry": {"type": "Point", "coordinates": [-111.885, 47.1255]}, "properties": {"NAME": "US-12895", "TITLE": "Mid Canon State Fish and Wildlife Area"}}, {"type": "Feature", "geometry": {"type": "Point", "coordinates": [-113.22, 47.0365]}, "properties": {"NAME": "US-12896", "TITLE": "Monture Creek State Fish and Wildlife Area"}}, {"type": "Feature", "geometry": {"type": "Point", "coordinates": [-109.756, 45.463]}, "properties": {"NAME": "US-12897", "TITLE": "Moraine State Fish and Wildlife Area"}}, {"type": "Feature", "geometry": {"type": "Point", "coordinates": [-111.823, 47.1626]}, "properties": {"NAME": "US-12898", "TITLE": "Mountain Palace State Fish and Wildlife Area"}}, {"type": "Feature", "geometry": {"type": "Point", "coordinates": [-107.342, 46.2544]}, "properties": {"NAME": "US-12899", "TITLE": "Myers Bridge State Fish and Wildlife Area"}}, {"type": "Feature", "geometry": {"type": "Point", "coordinates": [-110.937, 46.6427]}, "properties": {"NAME": "US-12900", "TITLE": "Newlan Creek Reservoir State Fish and Wildlife Area"}}, {"type": "Feature", "geometry": {"type": "Point", "coordinates": [-112.52, 47.4729]}, "properties": {"NAME": "US-12901", "TITLE": "Nilan Reservoir State Fish and Wildlife Area"}}, {"type": "Feature", "geometry": {"type": "Point", "coordinates": [-113.503, 46.9444]}, "properties": {"NAME": "US-12903", "TITLE": "Ninemile Prairie State Fish and Wildlife Area"}}, {"type": "Feature", "geometry": {"type": "Point", "coordinates": [-109.916, 45.8551]}, "properties": {"NAME": "US-12904", "TITLE": "Otter Creek State Fish and Wildlife Area"}}, {"type": "Feature", "geometry": {"type": "Point", "coordinates": [-109.768, 45.7528]}, "properties": {"NAME": "US-12905", "TITLE": "Pelican State Fish and Wildlife Area"}}, {"type": "Feature", "geometry": {"type": "Point", "coordinates": [-111.779, 47.2009]}, "properties": {"NAME": "US-12906", "TITLE": "Pelican Point State Fish and Wildlife Area"}}, {"type": "Feature", "geometry": {"type": "Point", "coordinates": [-112.465, 47.6819]}, "properties": {"NAME": "US-12907", "TITLE": "Pishkin Reservoir State Fish and Wildlife Area"}}, {"type": "Feature", "geometry": {"type": "Point", "coordinates": [-111.827, 47.1713]}, "properties": {"NAME": "US-12908", "TITLE": "Prewitt Creek State Fish and Wildlife Area"}}, {"type": "Feature", "geometry": {"type": "Point", "coordinates": [-112.122, 46.9299]}, "properties": {"NAME": "US-12909", "TITLE": "Prickly Pear State Fish and Wildlife Area"}}, {"type": "Feature", "geometry": {"type": "Point", "coordinates": [-111.479, 44.8287]}, "properties": {"NAME": "US-12910", "TITLE": "Raynold's Pass State Fish and Wildlife Area"}}, {"type": "Feature", "geometry": {"type": "Point", "coordinates": [-113.136, 46.9857]}, "properties": {"NAME": "US-12911", "TITLE": "River Junction State Fish and Wildlife Area"}}, {"type": "Feature", "geometry": {"type": "Point", "coordinates": [-106.286, 47.7676]}, "properties": {"NAME": "US-12912", "TITLE": "Rock Creek State Fish and Wildlife Area"}}, {"type": "Feature", "geometry": {"type": "Point", "coordinates": [-106.678, 46.2739]}, "properties": {"NAME": "US-12913", "TITLE": "Rosebud East State Fish and Wildlife Area"}}, {"type": "Feature", "geometry": {"type": "Point", "coordinates": [-109.507, 45.4507]}, "properties": {"NAME": "US-12914", "TITLE": "Rosebud Isle State Fish and Wildlife Area"}}, {"type": "Feature", "geometry": {"type": "Point", "coordinates": [-113.306, 47.0234]}, "properties": {"NAME": "US-12915", "TITLE": "Russell Gates Memorial State Fish and Wildlife Area"}}, {"type": "Feature", "geometry": {"type": "Point", "coordinates": [-112.688, 45.6244]}, "properties": {"NAME": "US-12916", "TITLE": "Salmon Fly State Fish and Wildlife Area"}}, {"type": "Feature", "geometry": {"type": "Point", "coordinates": [-110.224, 46.4647]}, "properties": {"NAME": "US-12917", "TITLE": "Selkirk Sanctuary"}}, {"type": "Feature", "geometry": {"type": "Point", "coordinates": [-104.223, 47.5738]}, "properties": {"NAME": "US-12918", "TITLE": "Seven Sisters State Fish and Wildlife Area"}}, {"type": "Feature", "geometry": {"type": "Point", "coordinates": [-104.103, 48.0057]}, "properties": {"NAME": "US-12919", "TITLE": "Snowden Bridge State Fish and Wildlife Area"}}, {"type": "Feature", "geometry": {"type": "Point", "coordinates": [-104.474, 46.3326]}, "properties": {"NAME": "US-12920", "TITLE": "South Sandstone State Fish and Wildlife Area"}}, {"type": "Feature", "geometry": {"type": "Point", "coordinates": [-111.937, 47.1211]}, "properties": {"NAME": "US-12921", "TITLE": "Spite Hill State Fish and Wildlife Area"}}, {"type": "Feature", "geometry": {"type": "Point", "coordinates": [-111.946, 47.1162]}, "properties": {"NAME": "US-12922", "TITLE": "Stickney Creek State Fish and Wildlife Area"}}, {"type": "Feature", "geometry": {"type": "Point", "coordinates": [-113.275, 46.1748]}, "properties": {"NAME": "US-12923", "TITLE": "Stuart Mill Bay State Fish and Wildlife Area"}}, {"type": "Feature", "geometry": {"type": "Point", "coordinates": [-109.332, 45.5843]}, "properties": {"NAME": "US-12924", "TITLE": "Swinging Bridge State Fish and Wildlife Area"}}, {"type": "Feature", "geometry": {"type": "Point", "coordinates": [-113.612, 46.9525]}, "properties": {"NAME": "US-12925", "TITLE": "Thoreau State Beach"}}, {"type": "Feature", "geometry": {"type": "Point", "coordinates": [-112.566, 45.4365]}, "properties": {"NAME": "US-12926", "TITLE": "Tony Schonen State Beach"}}, {"type": "Feature", "geometry": {"type": "Point", "coordinates": [-105.75, 46.2469]}, "properties": {"NAME": "US-12927", "TITLE": "Twelve Mile Dam State Fish and Wildlife Area"}}, {"type": "Feature", "geometry": {"type": "Point", "coordinates": [-107.659, 45.6453]}, "properties": {"NAME": "US-12928", "TITLE": "Two Leggins State Fish and Wildlife Area"}}, {"type": "Feature", "geometry": {"type": "Point", "coordinates": [-113.23, 47.073]}, "properties": {"NAME": "US-12929", "TITLE": "Upsata Lake State Fish and Wildlife Area"}}, {"type": "Feature", "geometry": {"type": "Point", "coordinates": [-111.705, 45.3672]}, "properties": {"NAME": "US-12930", "TITLE": "Valley Garden State Fish and Wildlife Area"}}, {"type": "Feature", "geometry": {"type": "Point", "coordinates": [-111.752, 45.229]}, "properties": {"NAME": "US-12931", "TITLE": "Varney Bridge State Fish and Wildlife Area"}}, {"type": "Feature", "geometry": {"type": "Point", "coordinates": [-108.131, 45.9968]}, "properties": {"NAME": "US-12932", "TITLE": "Voyagers Rest State Fish and Wildlife Area"}}, {"type": "Feature", "geometry": {"type": "Point", "coordinates": [-109.192, 45.3148]}, "properties": {"NAME": "US-12933", "TITLE": "Water Birch State Fish and Wildlife Area"}}, {"type": "Feature", "geometry": {"type": "Point", "coordinates": [-109.337, 45.5752]}, "properties": {"NAME": "US-12934", "TITLE": "Whitebird State Fish and Wildlife Area"}}, {"type": "Feature", "geometry": {"type": "Point", "coordinates": [-112.44, 47.5478]}, "properties": {"NAME": "US-12935", "TITLE": "Willow Creek Reservoir State Fish and Wildlife Area"}}, {"type": "Feature", "geometry": {"type": "Point", "coordinates": [-112.011, 47.0198]}, "properties": {"NAME": "US-12936", "TITLE": "Wolf Creek Bridge State Fish and Wildlife Area"}}, {"type": "Feature", "geometry": {"type": "Point", "coordinates": [-111.494, 46.2669]}, "properties": {"NAME": "US-12937", "TITLE": "York's Islands State Fish and Wildlife Area"}}, {"type": "Feature", "geometry": {"type": "Point", "coordinates": [-114.118, 48.1983]}, "properties": {"NAME": "US-12940", "TITLE": "Creston National Fish Hatchery"}}, {"type": "Feature", "geometry": {"type": "Point", "coordinates": [-109.635, 47.7349]}, "properties": {"NAME": "US-12941", "TITLE": "Judith Landing State Park"}}]}