{"type":"FeatureCollection", "features": [
{"type":"Feature","geometry":{"type":"Polygon","coordinates":[[[-75.51264427,39.36587289],[-75.513519,39.365323],[-75.516126,39.364234],[-75.517102,39.360944],[-75.521304,39.358369],[-75.52405,39.359766],[-75.527796,39.359026],[-75.534952,39.350808],[-75.537213,39.350619],[-75.538574,39.351398],[-75.540286,39.353793],[-75.541393,39.354198],[-75.54258,39.354072],[-75.543445,39.353297],[-75.544355,39.35095],[-75.547157,39.350652],[-75.548085,39.351257],[-75.549648,39.353664],[-75.551351,39.354061],[-75.552406,39.35374],[-75.554656,39.351462],[-75.554164,39.350263],[-75.552234,39.349923],[-75.551279,39.34906],[-75.551363,39.345527],[-75.55268,39.34512],[-75.554907,39.345721],[-75.557493,39.348833],[-75.560625,39.345159],[-75.560297,39.343422],[-75.557786,39.342335],[-75.557682,39.340946],[-75.558404,39.339246],[-75.55584,39.337049],[-75.556253,39.335469],[-75.559112,39.333204],[-75.565448,39.331716],[-75.569219,39.328763],[-75.570016,39.32652],[-75.568924,39.323888],[-75.569219,39.322195],[-75.574669,39.313245],[-75.58006,39.311391],[-75.585068,39.30862],[-75.587425,39.30965],[-75.587455,39.310748],[-75.588044,39.311389],[-75.59099,39.311777],[-75.592227,39.311205],[-75.59261,39.309603],[-75.593994,39.308491],[-75.596913,39.309669],[-75.599533,39.308845],[-75.603305,39.310149],[-75.605252,39.309552],[-75.609245,39.30875],[-75.609785,39.308773],[-75.611435,39.309161],[-75.614233,39.30829],[-75.616532,39.309708],[-75.621485,39.308872],[-75.622866,39.30808],[-75.623865,39.306353],[-75.628058,39.30426],[-75.634015,39.301519],[-75.637427,39.301408],[-75.639032,39.301289],[-75.64114,39.301222],[-75.642111,39.300856],[-75.643762,39.298499],[-75.64821,39.296037],[-75.650246,39.292413],[-75.65116,39.291749],[-75.654842,39.291247],[-75.660378,39.291637],[-75.66244,39.291226],[-75.664178,39.290242],[-75.666076,39.290463],[-75.667241,39.289991],[-75.669803,39.291273],[-75.674458,39.290907],[-75.680819,39.292808],[-75.683028,39.29425],[-75.68542,39.297176],[-75.714825,39.299378],[-75.749654,39.297303],[-75.750643,39.297205],[-75.76008669,39.2966001],[-75.75818887,39.27334977],[-75.75694632,39.25812721],[-75.755953,39.245958],[-75.75258027,39.1992561],[-75.7510688,39.17832694],[-75.751028,39.177762],[-75.749356,39.164815],[-75.747668,39.143306],[-75.746121,39.120318],[-75.745793,39.114935],[-75.743811,39.094674],[-75.74266243,39.08027835],[-75.74215677,39.07394068],[-75.74190241,39.07075259],[-75.73863285,39.02977343],[-75.73286809,38.95752071],[-75.72792139,38.89552109],[-75.725829,38.869296],[-75.725565,38.868152],[-75.724061,38.847781],[-75.724002,38.846682],[-75.722882,38.833156],[-75.72261,38.830008],[-75.686495,38.831305],[-75.685648,38.831264],[-75.582419,38.834642],[-75.561536,38.834974],[-75.554827,38.83552],[-75.554705,38.835706],[-75.548303,38.841493],[-75.544469,38.84314],[-75.54122,38.842888],[-75.538762,38.844352],[-75.536009,38.847694],[-75.536388,38.849952],[-75.52039,38.855776],[-75.516381,38.863744],[-75.509293,38.875886],[-75.508149,38.878976],[-75.50437,38.881217],[-75.501178,38.880826],[-75.497321,38.882428],[-75.490329,38.889516],[-75.487987,38.893236],[-75.487637,38.895388],[-75.488576,38.896944],[-75.485124,38.903515],[-75.484811,38.903597],[-75.481756,38.903928],[-75.479793,38.905371],[-75.477128,38.905738],[-75.465471,38.91096],[-75.459817,38.909451],[-75.455396,38.909996],[-75.450845,38.911778],[-75.446026,38.912721],[-75.444612,38.91284],[-75.44387,38.912753],[-75.44095,38.912977],[-75.433391,38.911192],[-75.42828,38.91312],[-75.424833,38.913344],[-75.422024,38.914121],[-75.41968,38.915082],[-75.418302,38.916592],[-75.416221,38.917782],[-75.412969,38.917873],[-75.408956,38.91643],[-75.409067,38.919725],[-75.404531,38.917024],[-75.403213,38.917024],[-75.40166,38.917893],[-75.401425,38.918557],[-75.403181,38.922883],[-75.402448,38.924463],[-75.399869,38.925606],[-75.399253,38.92643],[-75.400746,38.928834],[-75.400569,38.931008],[-75.399455,38.93213],[-75.396113,38.932083],[-75.395263,38.933227],[-75.395467,38.934623],[-75.396287,38.935631],[-75.397988,38.936181],[-75.399981,38.935266],[-75.401036,38.935426],[-75.402588,38.937464],[-75.400096,38.938585],[-75.398513,38.940873],[-75.399244,38.943734],[-75.401119,38.945841],[-75.400678,38.947695],[-75.393434,38.952636],[-75.389007,38.954374],[-75.38288,38.955516],[-75.381294,38.959361],[-75.377306,38.960457],[-75.371913,38.961098],[-75.368013,38.959383],[-75.368158,38.9573],[-75.366426,38.953913],[-75.365019,38.954143],[-75.36124,38.957372],[-75.360516,38.957759],[-75.356964,38.954406],[-75.356431,38.951387],[-75.353064,38.948204],[-75.35221,38.94759],[-75.349273,38.947854],[-75.348864,38.950029],[-75.34532,38.954997],[-75.344089,38.955203],[-75.343238,38.954471],[-75.342182,38.951565],[-75.342123,38.950374],[-75.34347,38.947513],[-75.338932,38.946223],[-75.337087,38.946342],[-75.333923,38.947752],[-75.33229,38.950318],[-75.331569,38.950495],[-75.330436,38.950429],[-75.327111,38.948464],[-75.325131,38.949253],[-75.320963,38.953172],[-75.319654,38.953454],[-75.317007,38.952627],[-75.313436,38.950129],[-75.313273,38.949282],[-75.314162,38.947046],[-75.312485,38.945688],[-75.31191408,38.94587108],[-75.312546,38.94928],[-75.312546,38.951065],[-75.311607,38.967637],[-75.314951,38.980775],[-75.318354,38.988191],[-75.34089,39.01996],[-75.345763,39.024857],[-75.35681888,39.03261427],[-75.379873,39.04879],[-75.387914,39.051174],[-75.396277,39.057884],[-75.395806,39.059211],[-75.39590921,39.05935896],[-75.400294,39.065645],[-75.402035,39.066885],[-75.401193,39.088762],[-75.4087856,39.14308546],[-75.410625,39.156246],[-75.408266,39.174625],[-75.400144,39.186456],[-75.398584,39.186616],[-75.39479,39.188354],[-75.393015,39.204512],[-75.396892,39.216141],[-75.404745,39.222666],[-75.405716,39.223834],[-75.405927,39.243631],[-75.40510669,39.24531546],[-75.404823,39.245898],[-75.402964,39.254626],[-75.408376,39.264698],[-75.427953,39.285049],[-75.435374,39.296676],[-75.435551,39.297546],[-75.436936,39.309379],[-75.439027,39.313384],[-75.460423,39.328236],[-75.469324,39.33082],[-75.479963,39.336577],[-75.479845,39.337472],[-75.490377,39.342818],[-75.491688,39.343963],[-75.493148,39.345527],[-75.494122,39.34658],[-75.491797,39.351845],[-75.494158,39.354613],[-75.505276,39.359169],[-75.511788,39.365191],[-75.51264427,39.36587289]]]},"properties":{"name":"Kent=KEN","type":"county"}},
{"type":"Feature","geometry":{"type":"Polygon","coordinates":[[[-75.51264427,39.36587289],[-75.512996,39.366153],[-75.521682,39.387871],[-75.523583,39.391583],[-75.535977,39.409384],[-75.538512,39.416502],[-75.55589,39.430351],[-75.57183,39.438897],[-75.571321,39.44105889],[-75.570985,39.442486],[-75.578914,39.44788],[-75.57928796,39.44873501],[-75.580185,39.450786],[-75.589439,39.460812],[-75.589901,39.462022],[-75.593068,39.477996],[-75.593068,39.479186],[-75.5922181,39.48176212],[-75.587729,39.495369],[-75.587729,39.496353],[-75.58319067,39.50151383],[-75.576436,39.509195],[-75.5761557,39.50916781],[-75.566933,39.508273],[-75.560728,39.520472],[-75.570362,39.527223],[-75.569418,39.539124],[-75.569359,39.540589],[-75.565636,39.558509],[-75.564649,39.559922],[-75.56397596,39.56088802],[-75.563034,39.56224],[-75.570783,39.56728],[-75.571599,39.567728],[-75.586016,39.578448],[-75.586608,39.57888],[-75.5872,39.580256],[-75.587744,39.580672],[-75.591984,39.583248],[-75.592224,39.583568],[-75.60234829,39.58837347],[-75.603584,39.58896],[-75.60464,39.58992],[-75.611873,39.597408],[-75.611905,39.597568],[-75.613793,39.606192],[-75.613473,39.606832],[-75.613477,39.606861],[-75.613233,39.607408],[-75.613665,39.61256],[-75.613345,39.613056],[-75.614273,39.61464],[-75.614929,39.615952],[-75.614065,39.61832],[-75.613377,39.620288],[-75.613153,39.62096],[-75.611969,39.621968],[-75.60020241,39.63573598],[-75.59197225,39.64536602],[-75.58922065,39.64858565],[-75.587147,39.651012],[-75.58259082,39.65205494],[-75.5734455,39.65414836],[-75.57243327,39.65438007],[-75.562246,39.656712],[-75.56163008,39.65739233],[-75.56162244,39.65740077],[-75.556561,39.66299153],[-75.54452148,39.67629012],[-75.53969721,39.68161891],[-75.53357128,39.68838547],[-75.53046828,39.69181298],[-75.529744,39.692613],[-75.509742,39.686113],[-75.50970192,39.68659394],[-75.509042,39.694513],[-75.507162,39.696961],[-75.504042,39.698313],[-75.496241,39.701413],[-75.49327869,39.70727716],[-75.49240458,39.70900755],[-75.491341,39.711113],[-75.488553,39.714833],[-75.485241,39.715813],[-75.483141,39.715513],[-75.48174067,39.71454633],[-75.47894,39.713813],[-75.47764,39.715013],[-75.476888,39.718337],[-75.477432,39.720561],[-75.47724,39.724713],[-75.47544,39.728713],[-75.475384,39.731057],[-75.47422864,39.73525278],[-75.474168,39.735473],[-75.47384624,39.73600436],[-75.47029726,39.74186533],[-75.469239,39.743613],[-75.466263,39.750737],[-75.466249,39.750769],[-75.463039,39.758313],[-75.463339,39.761213],[-75.46182306,39.76300103],[-75.459439,39.765813],[-75.452339,39.769013],[-75.447339,39.773313],[-75.448135,39.773969],[-75.448639,39.774113],[-75.44834692,39.77436684],[-75.44834684,39.77436691],[-75.44334861,39.77871076],[-75.44334426,39.77871454],[-75.437938,39.783413],[-75.4360753,39.78414434],[-75.42678207,39.78779311],[-75.405337,39.796213],[-75.415041,39.801786],[-75.428038,39.809212],[-75.43354289,39.81158941],[-75.43685145,39.81301829],[-75.45015991,39.81876586],[-75.45298146,39.81998441],[-75.45374,39.820312],[-75.4595983,39.82244761],[-75.463341,39.823812],[-75.47266392,39.82657226],[-75.481242,39.829112],[-75.498843,39.833312],[-75.51164097,39.83527012],[-75.518444,39.836311],[-75.539346,39.838211],[-75.570464,39.839007],[-75.57977741,39.83852967],[-75.579849,39.838526],[-75.593666,39.837455],[-75.595756,39.837156],[-75.617251,39.833999],[-75.634706,39.830164],[-75.641518,39.828363],[-75.65795593,39.82279753],[-75.65892479,39.8224695],[-75.662822,39.82115],[-75.67632945,39.81526407],[-75.68065908,39.81337741],[-75.68311879,39.81230558],[-75.685991,39.811054],[-75.68735233,39.81029823],[-75.69445685,39.80635402],[-75.701208,39.802606],[-75.70447606,39.80040642],[-75.70569805,39.79958396],[-75.70836243,39.79779068],[-75.716969,39.791998],[-75.72209861,39.78799202],[-75.7234462,39.78693962],[-75.72468416,39.78597283],[-75.72530482,39.78548812],[-75.727049,39.784126],[-75.736489,39.775759],[-75.73836594,39.77388229],[-75.73927984,39.77296851],[-75.74145022,39.77079841],[-75.744394,39.767855],[-75.74565266,39.76637108],[-75.74637077,39.76552445],[-75.753066,39.757631],[-75.760346,39.747231],[-75.766058,39.737811],[-75.773558,39.722411],[-75.788359,39.721811],[-75.78836301,39.71941318],[-75.788395,39.700287],[-75.788395,39.700031],[-75.7884686,39.69496042],[-75.78847816,39.69430143],[-75.788658,39.681911],[-75.78865301,39.68177207],[-75.788616,39.680742],[-75.78861844,39.6794338],[-75.78862084,39.67814817],[-75.78862431,39.67628366],[-75.78863344,39.67138772],[-75.78865446,39.66010893],[-75.788658,39.658211],[-75.788558,39.65649279],[-75.78844799,39.65460257],[-75.78844785,39.65460021],[-75.78834574,39.65284567],[-75.78815036,39.64948868],[-75.78777675,39.64306926],[-75.78751213,39.6385226],[-75.78745,39.637455],[-75.78689,39.630575],[-75.7862118,39.62165167],[-75.78505636,39.60644895],[-75.78347304,39.5856165],[-75.78245506,39.57222257],[-75.780786,39.550262],[-75.77957069,39.53536684],[-75.77513784,39.4810367],[-75.77388234,39.46564898],[-75.76982016,39.41586194],[-75.766667,39.377216],[-75.76580524,39.36665849],[-75.76512061,39.3582711],[-75.76399337,39.34446119],[-75.76013283,39.29716536],[-75.76008669,39.2966001],[-75.750643,39.297205],[-75.749654,39.297303],[-75.714825,39.299378],[-75.68542,39.297176],[-75.683028,39.29425],[-75.680819,39.292808],[-75.674458,39.290907],[-75.669803,39.291273],[-75.667241,39.289991],[-75.666076,39.290463],[-75.664178,39.290242],[-75.66244,39.291226],[-75.660378,39.291637],[-75.654842,39.291247],[-75.65116,39.291749],[-75.650246,39.292413],[-75.64821,39.296037],[-75.643762,39.298499],[-75.642111,39.300856],[-75.64114,39.301222],[-75.639032,39.301289],[-75.637427,39.301408],[-75.634015,39.301519],[-75.628058,39.30426],[-75.623865,39.306353],[-75.622866,39.30808],[-75.621485,39.308872],[-75.616532,39.309708],[-75.614233,39.30829],[-75.611435,39.309161],[-75.609785,39.308773],[-75.609245,39.30875],[-75.605252,39.309552],[-75.603305,39.310149],[-75.599533,39.308845],[-75.596913,39.309669],[-75.593994,39.308491],[-75.59261,39.309603],[-75.592227,39.311205],[-75.59099,39.311777],[-75.588044,39.311389],[-75.587455,39.310748],[-75.587425,39.30965],[-75.585068,39.30862],[-75.58006,39.311391],[-75.574669,39.313245],[-75.569219,39.322195],[-75.568924,39.323888],[-75.570016,39.32652],[-75.569219,39.328763],[-75.565448,39.331716],[-75.559112,39.333204],[-75.556253,39.335469],[-75.55584,39.337049],[-75.558404,39.339246],[-75.557682,39.340946],[-75.557786,39.342335],[-75.560297,39.343422],[-75.560625,39.345159],[-75.557493,39.348833],[-75.554907,39.345721],[-75.55268,39.34512],[-75.551363,39.345527],[-75.551279,39.34906],[-75.552234,39.349923],[-75.554164,39.350263],[-75.554656,39.351462],[-75.552406,39.35374],[-75.551351,39.354061],[-75.549648,39.353664],[-75.548085,39.351257],[-75.547157,39.350652],[-75.544355,39.35095],[-75.543445,39.353297],[-75.54258,39.354072],[-75.541393,39.354198],[-75.540286,39.353793],[-75.538574,39.351398],[-75.537213,39.350619],[-75.534952,39.350808],[-75.527796,39.359026],[-75.52405,39.359766],[-75.521304,39.358369],[-75.517102,39.360944],[-75.516126,39.364234],[-75.513519,39.365323],[-75.51264427,39.36587289]]]},"properties":{"name":"NewCastle=NEW","type":"county"}},
{"type":"Feature","geometry":{"type":"Polygon","coordinates":[[[-75.55587,39.605824],[-75.556734,39.606688],[-75.557502,39.609184],[-75.556878,39.612144],[-75.558446,39.617296],[-75.559614,39.624208],[-75.559102,39.629056],[-75.559446,39.629812],[-75.5602194,39.62960462],[-75.570798,39.626768],[-75.571759,39.623584],[-75.567694,39.613744],[-75.56243307,39.60595489],[-75.561934,39.605216],[-75.55587,39.605824]]]},"properties":{"name":"NewCastle=NEW 2","type":"county"}},
{"type":"Feature","geometry":{"type":"Polygon","coordinates":[[[-75.564927,39.583248],[-75.565823,39.590608],[-75.579615,39.598656],[-75.578719,39.591504],[-75.576271,39.588144],[-75.564927,39.583248]]]},"properties":{"name":"NewCastle=NEW 3","type":"county"}},
{"type":"Feature","geometry":{"type":"Polygon","coordinates":[[[-75.72261,38.830008],[-75.722028,38.822078],[-75.72044105,38.80188734],[-75.71286497,38.70549743],[-75.707346,38.63528],[-75.706585,38.626125],[-75.706235,38.621296],[-75.70586,38.616268],[-75.705774,38.61474],[-75.703981,38.592066],[-75.703445,38.58512],[-75.701565,38.560736],[-75.700179,38.542717],[-75.698777,38.522001],[-75.696688,38.496467],[-75.696369,38.492373],[-75.693521,38.460128],[-75.665585,38.4589],[-75.662843,38.458759],[-75.630457,38.457904],[-75.598069,38.456855],[-75.593082,38.456404],[-75.589307,38.456286],[-75.583601,38.456424],[-75.58277932,38.45638651],[-75.57411,38.455991],[-75.56419487,38.45570283],[-75.56319148,38.45567367],[-75.56285098,38.45566378],[-75.56237357,38.4556499],[-75.56080379,38.45560428],[-75.56025309,38.45558827],[-75.559934,38.455579],[-75.559212,38.455563],[-75.55802818,38.45553486],[-75.55786711,38.45553103],[-75.55768779,38.45552676],[-75.55738869,38.45551965],[-75.55542113,38.45547288],[-75.533763,38.454958],[-75.52273,38.454657],[-75.521304,38.454657],[-75.502961,38.45422],[-75.500142,38.454144],[-75.47915,38.453699],[-75.428728,38.452671],[-75.424831,38.45261],[-75.410884,38.4524],[-75.394786,38.45216],[-75.393563,38.452114],[-75.371054,38.452107],[-75.355797,38.452008],[-75.34125,38.45197],[-75.33135335,38.45191153],[-75.27305956,38.45156709],[-75.26035,38.451492],[-75.252723,38.451397],[-75.23627124,38.45130314],[-75.22718315,38.4512513],[-75.21840864,38.45120124],[-75.20497642,38.45112461],[-75.18583942,38.45101543],[-75.185413,38.451013],[-75.141894,38.451196],[-75.069909,38.451276],[-75.066327,38.451291],[-75.06535373,38.45128971],[-75.053483,38.451274],[-75.05251,38.451273],[-75.048939,38.451263],[-75.04905626,38.45635388],[-75.04931232,38.46747107],[-75.049748,38.486387],[-75.05158425,38.50804949],[-75.05258187,38.5198186],[-75.05275947,38.52191374],[-75.05358925,38.53170287],[-75.05478151,38.54576808],[-75.05480356,38.54602824],[-75.0563607,38.56439803],[-75.05834157,38.58776671],[-75.05859256,38.59072764],[-75.060032,38.607709],[-75.060478,38.608012],[-75.06105117,38.60844499],[-75.061259,38.608602],[-75.06192,38.608869],[-75.065217,38.632394],[-75.06551,38.66103],[-75.06913132,38.68142202],[-75.06972127,38.68474408],[-75.07035279,38.68830024],[-75.07328782,38.70482765],[-75.07368458,38.70706186],[-75.07369144,38.70710051],[-75.07540494,38.7167494],[-75.07770726,38.729714],[-75.07793049,38.730971],[-75.07821642,38.73258111],[-75.079221,38.738238],[-75.0795381,38.74201842],[-75.07973405,38.74435447],[-75.080217,38.750112],[-75.082153,38.772157],[-75.089473,38.797198],[-75.09367062,38.80360683],[-75.093805,38.803812],[-75.09417253,38.80373496],[-75.09704738,38.80313236],[-75.097197,38.803101],[-75.09710638,38.80286802],[-75.09530885,38.79824659],[-75.09375229,38.79424469],[-75.093654,38.793992],[-75.09374496,38.79385251],[-75.097103,38.788703],[-75.10526594,38.7858333],[-75.113331,38.782998],[-75.134022,38.782242],[-75.14323341,38.7851716],[-75.15030398,38.78742032],[-75.159022,38.790193],[-75.15970103,38.79059861],[-75.160748,38.791224],[-75.1903105,38.8067343],[-75.19031956,38.80673905],[-75.19046763,38.80681673],[-75.190552,38.806861],[-75.205329,38.823386],[-75.22559793,38.83922765],[-75.22728729,38.84054801],[-75.22872501,38.84167169],[-75.232029,38.844254],[-75.23452307,38.84690942],[-75.23845789,38.85109878],[-75.24055879,38.85333559],[-75.26287495,38.87709542],[-75.263115,38.877351],[-75.27948963,38.89166536],[-75.29187866,38.90249559],[-75.304078,38.91316],[-75.312282,38.924594],[-75.31219417,38.92472406],[-75.302552,38.939002],[-75.30261626,38.93904225],[-75.311542,38.944633],[-75.311882,38.945698],[-75.31191408,38.94587108],[-75.312485,38.945688],[-75.314162,38.947046],[-75.313273,38.949282],[-75.313436,38.950129],[-75.317007,38.952627],[-75.319654,38.953454],[-75.320963,38.953172],[-75.325131,38.949253],[-75.327111,38.948464],[-75.330436,38.950429],[-75.331569,38.950495],[-75.33229,38.950318],[-75.333923,38.947752],[-75.337087,38.946342],[-75.338932,38.946223],[-75.34347,38.947513],[-75.342123,38.950374],[-75.342182,38.951565],[-75.343238,38.954471],[-75.344089,38.955203],[-75.34532,38.954997],[-75.348864,38.950029],[-75.349273,38.947854],[-75.35221,38.94759],[-75.353064,38.948204],[-75.356431,38.951387],[-75.356964,38.954406],[-75.360516,38.957759],[-75.36124,38.957372],[-75.365019,38.954143],[-75.366426,38.953913],[-75.368158,38.9573],[-75.368013,38.959383],[-75.371913,38.961098],[-75.377306,38.960457],[-75.381294,38.959361],[-75.38288,38.955516],[-75.389007,38.954374],[-75.393434,38.952636],[-75.400678,38.947695],[-75.401119,38.945841],[-75.399244,38.943734],[-75.398513,38.940873],[-75.400096,38.938585],[-75.402588,38.937464],[-75.401036,38.935426],[-75.399981,38.935266],[-75.397988,38.936181],[-75.396287,38.935631],[-75.395467,38.934623],[-75.395263,38.933227],[-75.396113,38.932083],[-75.399455,38.93213],[-75.400569,38.931008],[-75.400746,38.928834],[-75.399253,38.92643],[-75.399869,38.925606],[-75.402448,38.924463],[-75.403181,38.922883],[-75.401425,38.918557],[-75.40166,38.917893],[-75.403213,38.917024],[-75.404531,38.917024],[-75.409067,38.919725],[-75.408956,38.91643],[-75.412969,38.917873],[-75.416221,38.917782],[-75.418302,38.916592],[-75.41968,38.915082],[-75.422024,38.914121],[-75.424833,38.913344],[-75.42828,38.91312],[-75.433391,38.911192],[-75.44095,38.912977],[-75.44387,38.912753],[-75.444612,38.91284],[-75.446026,38.912721],[-75.450845,38.911778],[-75.455396,38.909996],[-75.459817,38.909451],[-75.465471,38.91096],[-75.477128,38.905738],[-75.479793,38.905371],[-75.481756,38.903928],[-75.484811,38.903597],[-75.485124,38.903515],[-75.488576,38.896944],[-75.487637,38.895388],[-75.487987,38.893236],[-75.490329,38.889516],[-75.497321,38.882428],[-75.501178,38.880826],[-75.50437,38.881217],[-75.508149,38.878976],[-75.509293,38.875886],[-75.516381,38.863744],[-75.52039,38.855776],[-75.536388,38.849952],[-75.536009,38.847694],[-75.538762,38.844352],[-75.54122,38.842888],[-75.544469,38.84314],[-75.548303,38.841493],[-75.554705,38.835706],[-75.554827,38.83552],[-75.561536,38.834974],[-75.582419,38.834642],[-75.685648,38.831264],[-75.686495,38.831305],[-75.72261,38.830008]]]},"properties":{"name":"Sussex=SUS","type":"county"}}
]}