{"type": "FeatureCollection", "name": "US-NV POTA PARKS", "features": [{"type": "Feature", "geometry": {"type": "Point", "coordinates": [-116.906, 36.8114]}, "properties": {"NAME": "US-0021", "TITLE": "Death Valley National Park"}}, {"type": "Feature", "geometry": {"type": "Point", "coordinates": [-114.219, 39.0056]}, "properties": {"NAME": "US-0032", "TITLE": "Great Basin National Park"}}, {"type": "Feature", "geometry": {"type": "Point", "coordinates": [-116.288, 36.4255]}, "properties": {"NAME": "US-0464", "TITLE": "Ash Meadows National Wildlife Refuge"}}, {"type": "Feature", "geometry": {"type": "Point", "coordinates": [-115.359, 36.438]}, "properties": {"NAME": "US-0465", "TITLE": "Desert National Wildlife Refuge"}}, {"type": "Feature", "geometry": {"type": "Point", "coordinates": [-118.603, 39.7589]}, "properties": {"NAME": "US-0466", "TITLE": "Fallon National Wildlife Refuge"}}, {"type": "Feature", "geometry": {"type": "Point", "coordinates": [-114.714, 36.7132]}, "properties": {"NAME": "US-0467", "TITLE": "Moapa Valley National Wildlife Refuge"}}, {"type": "Feature", "geometry": {"type": "Point", "coordinates": [-115.104, 37.2464]}, "properties": {"NAME": "US-0468", "TITLE": "Pahranagat National Wildlife Refuge"}}, {"type": "Feature", "geometry": {"type": "Point", "coordinates": [-115.493, 40.202]}, "properties": {"NAME": "US-0469", "TITLE": "Ruby Lake National Wildlife Refuge"}}, {"type": "Feature", "geometry": {"type": "Point", "coordinates": [-119.132, 41.8865]}, "properties": {"NAME": "US-0470", "TITLE": "Sheldon National Wildlife Refuge"}}, {"type": "Feature", "geometry": {"type": "Point", "coordinates": [-118.519, 39.5193]}, "properties": {"NAME": "US-0471", "TITLE": "Stillwater National Wildlife Refuge"}}, {"type": "Feature", "geometry": {"type": "Point", "coordinates": [-114.797, 36.0099]}, "properties": {"NAME": "US-0676", "TITLE": "Lake Mead National Recreation Area"}}, {"type": "Feature", "geometry": {"type": "Point", "coordinates": [-115.279, 36.3378]}, "properties": {"NAME": "US-0974", "TITLE": "Tule Springs Fossil Beds National Monument"}}, {"type": "Feature", "geometry": {"type": "Point", "coordinates": [-114.083, 37.5179]}, "properties": {"NAME": "US-2625", "TITLE": "Beaver Dam State Park"}}, {"type": "Feature", "geometry": {"type": "Point", "coordinates": [-117.594, 38.872]}, "properties": {"NAME": "US-2626", "TITLE": "Berlin-Ichthyosaur State Park"}}, {"type": "Feature", "geometry": {"type": "Point", "coordinates": [-114.415, 37.8241]}, "properties": {"NAME": "US-2627", "TITLE": "Cathedral Gorge State Park"}}, {"type": "Feature", "geometry": {"type": "Point", "coordinates": [-114.694, 39.1906]}, "properties": {"NAME": "US-2628", "TITLE": "Cave Lake State Park"}}, {"type": "Feature", "geometry": {"type": "Point", "coordinates": [-119.588, 39.2491]}, "properties": {"NAME": "US-2629", "TITLE": "Dayton State Park"}}, {"type": "Feature", "geometry": {"type": "Point", "coordinates": [-114.267, 37.911]}, "properties": {"NAME": "US-2630", "TITLE": "Echo Canyon State Park"}}, {"type": "Feature", "geometry": {"type": "Point", "coordinates": [-119.271, 39.2925]}, "properties": {"NAME": "US-2631", "TITLE": "Fort Churchill State Park"}}, {"type": "Feature", "geometry": {"type": "Point", "coordinates": [-114.521, 37.5889]}, "properties": {"NAME": "US-2632", "TITLE": "Kershaw-Ryan State Park"}}, {"type": "Feature", "geometry": {"type": "Point", "coordinates": [-119.893, 39.1714]}, "properties": {"NAME": "US-2633", "TITLE": "Lake Tahoe State Park"}}, {"type": "Feature", "geometry": {"type": "Point", "coordinates": [-119.845, 39.0047]}, "properties": {"NAME": "US-2634", "TITLE": "Mormon Station State Park"}}, {"type": "Feature", "geometry": {"type": "Point", "coordinates": [-115.459, 36.0698]}, "properties": {"NAME": "US-2635", "TITLE": "Spring Mountain Ranch State Park"}}, {"type": "Feature", "geometry": {"type": "Point", "coordinates": [-114.202, 38.0232]}, "properties": {"NAME": "US-2636", "TITLE": "Spring Valley State Park"}}, {"type": "Feature", "geometry": {"type": "Point", "coordinates": [-114.514, 36.4303]}, "properties": {"NAME": "US-2637", "TITLE": "Valley of Fire State Park"}}, {"type": "Feature", "geometry": {"type": "Point", "coordinates": [-119.94, 38.9549]}, "properties": {"NAME": "US-2638", "TITLE": "Van Sickle Bi State Park"}}, {"type": "Feature", "geometry": {"type": "Point", "coordinates": [-114.847, 39.0369]}, "properties": {"NAME": "US-2639", "TITLE": "Ward Charcoal Ovens State Park"}}, {"type": "Feature", "geometry": {"type": "Point", "coordinates": [-119.764, 39.242]}, "properties": {"NAME": "US-2640", "TITLE": "Washoe Lake State Park"}}, {"type": "Feature", "geometry": {"type": "Point", "coordinates": [-119.913, 39.1071]}, "properties": {"NAME": "US-3389", "TITLE": "Spooner Lake and Backcountry State Park"}}, {"type": "Feature", "geometry": {"type": "Point", "coordinates": [-115.09, 38.4172]}, "properties": {"NAME": "US-3573", "TITLE": "Wayne E. Kirch Wildlife Management Area"}}, {"type": "Feature", "geometry": {"type": "Point", "coordinates": [-115.225, 37.5326]}, "properties": {"NAME": "US-3592", "TITLE": "Key Pittman Wildlife Management Area"}}, {"type": "Feature", "geometry": {"type": "Point", "coordinates": [-119.86, 39.5497]}, "properties": {"NAME": "US-4391", "TITLE": "Humboldt-Toiyabe National Forest"}}, {"type": "Feature", "geometry": {"type": "Point", "coordinates": [-115.423, 37.792]}, "properties": {"NAME": "US-4392", "TITLE": "Basin and Range National Monument"}}, {"type": "Feature", "geometry": {"type": "Point", "coordinates": [-114.201, 36.2809]}, "properties": {"NAME": "US-4393", "TITLE": "Gold Butte National Monument"}}, {"type": "Feature", "geometry": {"type": "Point", "coordinates": [-114.643, 35.1184]}, "properties": {"NAME": "US-4437", "TITLE": "Big Bend of the Colorado State Recreation Area"}}, {"type": "Feature", "geometry": {"type": "Point", "coordinates": [-119.251, 39.2944]}, "properties": {"NAME": "US-4438", "TITLE": "Buckland Station State Park"}}, {"type": "Feature", "geometry": {"type": "Point", "coordinates": [-114.535, 37.3524]}, "properties": {"NAME": "US-4440", "TITLE": "Elgin School House State Park"}}, {"type": "Feature", "geometry": {"type": "Point", "coordinates": [-119.057, 39.4591]}, "properties": {"NAME": "US-4441", "TITLE": "Lahontan State Recreation Area"}}, {"type": "Feature", "geometry": {"type": "Point", "coordinates": [-118.772, 38.6914]}, "properties": {"NAME": "US-4442", "TITLE": "Walker Lake State Recreation Area"}}, {"type": "Feature", "geometry": {"type": "Point", "coordinates": [-115.134, 36.1807]}, "properties": {"NAME": "US-4443", "TITLE": "Old Las Vegas Mormon Fort State Park"}}, {"type": "Feature", "geometry": {"type": "Point", "coordinates": [-118.308, 40.4668]}, "properties": {"NAME": "US-4444", "TITLE": "Rye Patch State Recreation Area"}}, {"type": "Feature", "geometry": {"type": "Point", "coordinates": [-115.754, 40.6762]}, "properties": {"NAME": "US-4445", "TITLE": "South Fork State Recreation Area"}}, {"type": "Feature", "geometry": {"type": "Point", "coordinates": [-115.799, 41.6709]}, "properties": {"NAME": "US-4446", "TITLE": "Wild Horse State Recreation Area"}}, {"type": "Feature", "geometry": {"type": "Point", "coordinates": [-119.972, 38.9324]}, "properties": {"NAME": "US-4458", "TITLE": "Lake Tahoe Basin Management Unit National Forest"}}, {"type": "Feature", "geometry": {"type": "Point", "coordinates": [-94.4833, 38.9943]}, "properties": {"NAME": "US-4566", "TITLE": "California National Historic Trail"}}, {"type": "Feature", "geometry": {"type": "Point", "coordinates": [-109.62, 38.6163]}, "properties": {"NAME": "US-4575", "TITLE": "Old Spanish National Historic Trail"}}, {"type": "Feature", "geometry": {"type": "Point", "coordinates": [-94.8486, 39.7562]}, "properties": {"NAME": "US-4578", "TITLE": "Pony Express National Historic Trail"}}, {"type": "Feature", "geometry": {"type": "Point", "coordinates": [-115.427, 36.1353]}, "properties": {"NAME": "US-7494", "TITLE": "Red Rock Canyon National Conservation Area"}}, {"type": "Feature", "geometry": {"type": "Point", "coordinates": [-119.126, 39.0479]}, "properties": {"NAME": "US-7495", "TITLE": "Mason Valley Wildlife Management Area"}}, {"type": "Feature", "geometry": {"type": "Point", "coordinates": [-115.126, 35.9163]}, "properties": {"NAME": "US-8303", "TITLE": "Sloan Canyon National Conservation Area"}}, {"type": "Feature", "geometry": {"type": "Point", "coordinates": [-118.595, 40.0434]}, "properties": {"NAME": "US-8311", "TITLE": "Humboldt State Wildlife Management Area"}}, {"type": "Feature", "geometry": {"type": "Point", "coordinates": [-114.86, 36.6969]}, "properties": {"NAME": "US-9235", "TITLE": "Arrow Canyon BLM Wilderness Area"}}, {"type": "Feature", "geometry": {"type": "Point", "coordinates": [-115.318, 39.0813]}, "properties": {"NAME": "US-9236", "TITLE": "Bald Mountain National Conservation Area"}}, {"type": "Feature", "geometry": {"type": "Point", "coordinates": [-114.595, 39.9729]}, "properties": {"NAME": "US-9237", "TITLE": "Becky Peak BLM National Conservation Area"}}, {"type": "Feature", "geometry": {"type": "Point", "coordinates": [-114.959, 37.6977]}, "properties": {"NAME": "US-9238", "TITLE": "Big Rocks BLM National Conservation Area"}}, {"type": "Feature", "geometry": {"type": "Point", "coordinates": [-119.04, 40.8907]}, "properties": {"NAME": "US-9239", "TITLE": "Black Rock Desert - High Rock Canyon Emigrant Trails National Conservation Area"}}, {"type": "Feature", "geometry": {"type": "Point", "coordinates": [-114.883, 39.3959]}, "properties": {"NAME": "US-9241", "TITLE": "Bristlecone BLM National Conservation Area"}}, {"type": "Feature", "geometry": {"type": "Point", "coordinates": [-119.252, 41.0897]}, "properties": {"NAME": "US-9242", "TITLE": "Calico Mountains Wilderness Area"}}, {"type": "Feature", "geometry": {"type": "Point", "coordinates": [-115.424, 38.9124]}, "properties": {"NAME": "US-9244", "TITLE": "Currant Mountain National Conservation Area"}}, {"type": "Feature", "geometry": {"type": "Point", "coordinates": [-114.884, 37.2435]}, "properties": {"NAME": "US-9245", "TITLE": "Delamar Mountains BLM National Conservation Area"}}, {"type": "Feature", "geometry": {"type": "Point", "coordinates": [-119.193, 41.4201]}, "properties": {"NAME": "US-9246", "TITLE": "East Fork High Rock Canyon Wilderness Area"}}, {"type": "Feature", "geometry": {"type": "Point", "coordinates": [-114.751, 35.9327]}, "properties": {"NAME": "US-9247", "TITLE": "Eldorado BLM National Conservation Area"}}, {"type": "Feature", "geometry": {"type": "Point", "coordinates": [-114.94, 38.4633]}, "properties": {"NAME": "US-9248", "TITLE": "Far South Egans BLM National Conservation Area"}}, {"type": "Feature", "geometry": {"type": "Point", "coordinates": [-114.449, 38.6115]}, "properties": {"NAME": "US-9249", "TITLE": "Fortification Range BLM National Conservation Area"}}, {"type": "Feature", "geometry": {"type": "Point", "coordinates": [-114.846, 40.0749]}, "properties": {"NAME": "US-9251", "TITLE": "Goshute Canyon BLM National Conservation Area"}}, {"type": "Feature", "geometry": {"type": "Point", "coordinates": [-114.157, 39.5181]}, "properties": {"NAME": "US-9252", "TITLE": "Government Peak BLM National Conservation Area"}}, {"type": "Feature", "geometry": {"type": "Point", "coordinates": [-119.438, 41.4448]}, "properties": {"NAME": "US-9254", "TITLE": "High Rock Canyon BLM Special Recreation Management Area"}}, {"type": "Feature", "geometry": {"type": "Point", "coordinates": [-119.242, 41.2998]}, "properties": {"NAME": "US-9255", "TITLE": "High Rock Lake Wilderness Area"}}, {"type": "Feature", "geometry": {"type": "Point", "coordinates": [-114.266, 38.6705]}, "properties": {"NAME": "US-9257", "TITLE": "Highland Ridge BLM National Conservation Area"}}, {"type": "Feature", "geometry": {"type": "Point", "coordinates": [-114.756, 35.8718]}, "properties": {"NAME": "US-9258", "TITLE": "Ireteba Peaks BLM National Conservation Area"}}, {"type": "Feature", "geometry": {"type": "Point", "coordinates": [-114.173, 36.2024]}, "properties": {"NAME": "US-9260", "TITLE": "Jumbo Springs BLM National Conservation Area"}}, {"type": "Feature", "geometry": {"type": "Point", "coordinates": [-115.469, 36.2077]}, "properties": {"NAME": "US-9261", "TITLE": "La Madre Mountain BLM Wilderness Area"}}, {"type": "Feature", "geometry": {"type": "Point", "coordinates": [-114.257, 36.3945]}, "properties": {"NAME": "US-9262", "TITLE": "Lime Canyon BLM National Conservation Area"}}, {"type": "Feature", "geometry": {"type": "Point", "coordinates": [-119.424, 41.2541]}, "properties": {"NAME": "US-9263", "TITLE": "Little High Rock Canyon Wilderness Area"}}, {"type": "Feature", "geometry": {"type": "Point", "coordinates": [-114.829, 36.9455]}, "properties": {"NAME": "US-9264", "TITLE": "Meadow Valley Range BLM National Conservation Area"}}, {"type": "Feature", "geometry": {"type": "Point", "coordinates": [-114.473, 36.9718]}, "properties": {"NAME": "US-9265", "TITLE": "Mormon Mountains BLM National Conservation Area"}}, {"type": "Feature", "geometry": {"type": "Point", "coordinates": [-115.706, 36.2782]}, "properties": {"NAME": "US-9266", "TITLE": "Mount Charleston BLM Wilderness Area"}}, {"type": "Feature", "geometry": {"type": "Point", "coordinates": [-114.733, 38.6962]}, "properties": {"NAME": "US-9267", "TITLE": "Mount Grafton BLM National Conservation Area"}}, {"type": "Feature", "geometry": {"type": "Point", "coordinates": [-115.404, 37.5413]}, "properties": {"NAME": "US-9268", "TITLE": "Mount Irish BLM National Conservation Area"}}, {"type": "Feature", "geometry": {"type": "Point", "coordinates": [-114.196, 39.2723]}, "properties": {"NAME": "US-9269", "TITLE": "Mount Moriah BLM National Conservation Area"}}, {"type": "Feature", "geometry": {"type": "Point", "coordinates": [-114.682, 36.2891]}, "properties": {"NAME": "US-9271", "TITLE": "Muddy Mountains BLM National Conservation Area"}}, {"type": "Feature", "geometry": {"type": "Point", "coordinates": [-119.065, 41.4306]}, "properties": {"NAME": "US-9272", "TITLE": "North Black Rock Range Wilderness Area"}}, {"type": "Feature", "geometry": {"type": "Point", "coordinates": [-118.444, 41.4417]}, "properties": {"NAME": "US-9273", "TITLE": "North Jackson Mountains Wilderness Area"}}, {"type": "Feature", "geometry": {"type": "Point", "coordinates": [-115.1, 35.8667]}, "properties": {"NAME": "US-9274", "TITLE": "North McCullough Wilderness Area Wilderness Area"}}, {"type": "Feature", "geometry": {"type": "Point", "coordinates": [-119.058, 41.284]}, "properties": {"NAME": "US-9275", "TITLE": "Pahute Peak BLM National Conservation Area"}}, {"type": "Feature", "geometry": {"type": "Point", "coordinates": [-114.321, 38.1475]}, "properties": {"NAME": "US-9276", "TITLE": "Parsnip Peak  BLM National Conservation Area"}}, {"type": "Feature", "geometry": {"type": "Point", "coordinates": [-115.488, 36.1046]}, "properties": {"NAME": "US-9278", "TITLE": "Rainbow Mountain BLM Wilderness Area"}}, {"type": "Feature", "geometry": {"type": "Point", "coordinates": [-114.915, 38.8576]}, "properties": {"NAME": "US-9281", "TITLE": "South Egan Range BLM National Conservation Area"}}, {"type": "Feature", "geometry": {"type": "Point", "coordinates": [-118.514, 41.2783]}, "properties": {"NAME": "US-9282", "TITLE": "South Jackson Mountains Wilderness Area"}}, {"type": "Feature", "geometry": {"type": "Point", "coordinates": [-115.172, 35.6113]}, "properties": {"NAME": "US-9283", "TITLE": "South McCullough BLM National Conservation Area"}}, {"type": "Feature", "geometry": {"type": "Point", "coordinates": [-115.026, 37.537]}, "properties": {"NAME": "US-9284", "TITLE": "South Pahroc Range BLM National Conservation Area"}}, {"type": "Feature", "geometry": {"type": "Point", "coordinates": [-114.92, 35.465]}, "properties": {"NAME": "US-9285", "TITLE": "Avi Kwa Ame (Spirit Mountain) National Monument"}}, {"type": "Feature", "geometry": {"type": "Point", "coordinates": [-116.587, 38.8123]}, "properties": {"NAME": "US-9286", "TITLE": "Table Mountain BLM National Conservation Area"}}, {"type": "Feature", "geometry": {"type": "Point", "coordinates": [-114.076, 37.5391]}, "properties": {"NAME": "US-9287", "TITLE": "Tunnel Spring BLM National Conservation Area"}}, {"type": "Feature", "geometry": {"type": "Point", "coordinates": [-115.099, 35.5227]}, "properties": {"NAME": "US-9288", "TITLE": "Wee Thump Joshua Tree BLM National Conservation Area"}}, {"type": "Feature", "geometry": {"type": "Point", "coordinates": [-115.068, 37.9864]}, "properties": {"NAME": "US-9289", "TITLE": "Weepah Spring BLM National Conservation Area"}}, {"type": "Feature", "geometry": {"type": "Point", "coordinates": [-114.096, 38.2549]}, "properties": {"NAME": "US-9291", "TITLE": "White Rock Range BLM National Conservation Area"}}, {"type": "Feature", "geometry": {"type": "Point", "coordinates": [-115.638, 37.8673]}, "properties": {"NAME": "US-9292", "TITLE": "Worthington Mountains BLM National Conservation Area"}}, {"type": "Feature", "geometry": {"type": "Point", "coordinates": [-119.086, 38.8505]}, "properties": {"NAME": "US-9682", "TITLE": "Walker River State Recreation Area"}}, {"type": "Feature", "geometry": {"type": "Point", "coordinates": [-118.688, 39.3569]}, "properties": {"NAME": "US-10345", "TITLE": "Carson Lake and Pasture Wildlife Management Area"}}, {"type": "Feature", "geometry": {"type": "Point", "coordinates": [-119.015, 40.4065]}, "properties": {"NAME": "US-10466", "TITLE": "Blue Wing Mountains BLM Herd Management Area"}}, {"type": "Feature", "geometry": {"type": "Point", "coordinates": [-118.906, 41.7748]}, "properties": {"NAME": "US-10469", "TITLE": "McGee Mountain BLM Herd Management Area"}}, {"type": "Feature", "geometry": {"type": "Point", "coordinates": [-116.848, 39.388]}, "properties": {"NAME": "US-10833", "TITLE": "Hickison Summit Burro Range BLM Herd Management Area"}}, {"type": "Feature", "geometry": {"type": "Point", "coordinates": [-116.013, 38.4872]}, "properties": {"NAME": "US-10834", "TITLE": "Sand Springs West BLM Herd Management Area"}}, {"type": "Feature", "geometry": {"type": "Point", "coordinates": [-115.751, 39.94]}, "properties": {"NAME": "US-10844", "TITLE": "Diamond BLM Herd Management Area"}}, {"type": "Feature", "geometry": {"type": "Point", "coordinates": [-118.156, 39.5219]}, "properties": {"NAME": "US-10851", "TITLE": "East Pershing Complex BLM Herd Management Area"}}, {"type": "Feature", "geometry": {"type": "Point", "coordinates": [-115.206, 36.3186]}, "properties": {"NAME": "US-11050", "TITLE": "Ice Age Fossils State Park"}}, {"type": "Feature", "geometry": {"type": "Point", "coordinates": [-114.305, 39.1215]}, "properties": {"NAME": "US-11770", "TITLE": "Sacramento Pass BLM Recreation Management Area"}}, {"type": "Feature", "geometry": {"type": "Point", "coordinates": [-114.84, 41.7877]}, "properties": {"NAME": "US-11913", "TITLE": "Bad Lands BLM Wilderness Area"}}, {"type": "Feature", "geometry": {"type": "Point", "coordinates": [-119.948, 39.0424]}, "properties": {"NAME": "US-12372", "TITLE": "Cave Rock State Park"}}, {"type": "Feature", "geometry": {"type": "Point", "coordinates": [-119.932, 39.1984]}, "properties": {"NAME": "US-12373", "TITLE": "Sand Harbor State Park"}}, {"type": "Feature", "geometry": {"type": "Point", "coordinates": [-114.811, 39.1724]}, "properties": {"NAME": "US-12595", "TITLE": "Steptoe Valley Wildlife Management Area"}}, {"type": "Feature", "geometry": {"type": "Point", "coordinates": [-118.4, 39.309]}, "properties": {"NAME": "US-12816", "TITLE": "Sand Mountain National Recreation Area"}}, {"type": "Feature", "geometry": {"type": "Point", "coordinates": [-119.741, 39.8487]}, "properties": {"NAME": "US-12817", "TITLE": "Moon Rocks BLM Recreation Management Area"}}, {"type": "Feature", "geometry": {"type": "Point", "coordinates": [-119.152, 39.6272]}, "properties": {"NAME": "US-12973", "TITLE": "Fernley Wildlife Management Area"}}, {"type": "Feature", "geometry": {"type": "Point", "coordinates": [-116.924, 40.6478]}, "properties": {"NAME": "US-13009", "TITLE": "Argenta Wildlife Management Area"}}, {"type": "Feature", "geometry": {"type": "Point", "coordinates": [-119.854, 40.2371]}, "properties": {"NAME": "US-13010", "TITLE": "Dry Valley BLM Special Recreation Management Area"}}, {"type": "Feature", "geometry": {"type": "Point", "coordinates": [-114.437, 40.2268]}, "properties": {"NAME": "US-13012", "TITLE": "Antelope Valley Complex BLM Herd Management Area"}}, {"type": "Feature", "geometry": {"type": "Point", "coordinates": [-119.827, 39.9062]}, "properties": {"NAME": "US-13013", "TITLE": "Dogskin Mountains BLM Herd Management Area"}}, {"type": "Feature", "geometry": {"type": "Point", "coordinates": [-119.884, 39.8467]}, "properties": {"NAME": "US-13014", "TITLE": "Granite Peak BLM Herd Management Area"}}, {"type": "Feature", "geometry": {"type": "Point", "coordinates": [-115.708, 41.9497]}, "properties": {"NAME": "US-13015", "TITLE": "Bruneau River Wildlife Management Area"}}, {"type": "Feature", "geometry": {"type": "Point", "coordinates": [-117.114, 40.1485]}, "properties": {"NAME": "US-13017", "TITLE": "Agusta Mountains BLM Herd Management Area"}}, {"type": "Feature", "geometry": {"type": "Point", "coordinates": [-118.833, 41.5426]}, "properties": {"NAME": "US-13018", "TITLE": "Black Rock Range East/West BLM Herd Management Area"}}, {"type": "Feature", "geometry": {"type": "Point", "coordinates": [-119.628, 40.5667]}, "properties": {"NAME": "US-13019", "TITLE": "Buffalo Hills BLM Herd Management Area"}}, {"type": "Feature", "geometry": {"type": "Point", "coordinates": [-119.649, 40.8047]}, "properties": {"NAME": "US-13020", "TITLE": "Smoke Creek BLM National Conservation Area"}}, {"type": "Feature", "geometry": {"type": "Point", "coordinates": [-119.4, 38.9264]}, "properties": {"NAME": "US-13022", "TITLE": "Alkali Lake Wildlife Management Area"}}, {"type": "Feature", "geometry": {"type": "Point", "coordinates": [-119.372, 38.9512]}, "properties": {"NAME": "US-13023", "TITLE": "Artesia Lake State Wildlife Area"}}, {"type": "Feature", "geometry": {"type": "Point", "coordinates": [-117.107, 39.531]}, "properties": {"NAME": "US-13024", "TITLE": "Callaghan BLM Herd Management Area"}}, {"type": "Feature", "geometry": {"type": "Point", "coordinates": [-117.982, 39.4032]}, "properties": {"NAME": "US-13025", "TITLE": "Clan Alpine BLM Herd Management Area"}}, {"type": "Feature", "geometry": {"type": "Point", "coordinates": [-114.578, 38.0918]}, "properties": {"NAME": "US-13026", "TITLE": "Eagle BLM Herd Management Area"}}, {"type": "Feature", "geometry": {"type": "Point", "coordinates": [-115.998, 39.447]}, "properties": {"NAME": "US-13027", "TITLE": "Fish Creek BLM Herd Management Area"}}, {"type": "Feature", "geometry": {"type": "Point", "coordinates": [-118.095, 37.7044]}, "properties": {"NAME": "US-13028", "TITLE": "Fish Lake Valley BLM Herd Management Area"}}, {"type": "Feature", "geometry": {"type": "Point", "coordinates": [-119.884, 40.1648]}, "properties": {"NAME": "US-13029", "TITLE": "Flanigan BLM Herd Management Area"}}, {"type": "Feature", "geometry": {"type": "Point", "coordinates": [-119.574, 40.3897]}, "properties": {"NAME": "US-13030", "TITLE": "Fox-Lake BLM Herd Management Area"}}, {"type": "Feature", "geometry": {"type": "Point", "coordinates": [-118.452, 38.4803]}, "properties": {"NAME": "US-13031", "TITLE": "Garfield Flat BLM Herd Management Area"}}, {"type": "Feature", "geometry": {"type": "Point", "coordinates": [-117.125, 37.2288]}, "properties": {"NAME": "US-13032", "TITLE": "Gold Mountain BLM Herd Management Area"}}, {"type": "Feature", "geometry": {"type": "Point", "coordinates": [-117.166, 37.6855]}, "properties": {"NAME": "US-13033", "TITLE": "Goldfield BLM Herd Management Area"}}, {"type": "Feature", "geometry": {"type": "Point", "coordinates": [-114.135, 40.5113]}, "properties": {"NAME": "US-13034", "TITLE": "Goshute BLM Herd Management Area"}}, {"type": "Feature", "geometry": {"type": "Point", "coordinates": [-119.437, 40.7079]}, "properties": {"NAME": "US-13035", "TITLE": "Granite Range BLM Herd Management Area"}}, {"type": "Feature", "geometry": {"type": "Point", "coordinates": [-116.375, 38.3728]}, "properties": {"NAME": "US-13036", "TITLE": "Hot Creek BLM Herd Management Area"}}, {"type": "Feature", "geometry": {"type": "Point", "coordinates": [-118.719, 40.8108]}, "properties": {"NAME": "US-13037", "TITLE": "Kamma Mountains BLM Herd Management Area"}}, {"type": "Feature", "geometry": {"type": "Point", "coordinates": [-116.83, 41.8764]}, "properties": {"NAME": "US-13038", "TITLE": "Owyhee BLM Herd Management Area"}}, {"type": "Feature", "geometry": {"type": "Point", "coordinates": [-116.466, 41.7923]}, "properties": {"NAME": "US-13039", "TITLE": "Owyhee River Wilderness Area"}}, {"type": "Feature", "geometry": {"type": "Point", "coordinates": [-118.637, 39.4041]}, "properties": {"NAME": "US-13040", "TITLE": "Grimes Point/Hidden Cave BLM Historic Preservation Site"}}, {"type": "Feature", "geometry": {"type": "Point", "coordinates": [-115.046, 40.1167]}, "properties": {"NAME": "US-13041", "TITLE": "Maverick-Medicine BLM Herd Management Area"}}, {"type": "Feature", "geometry": {"type": "Point", "coordinates": [-117.422, 37.7864]}, "properties": {"NAME": "US-13042", "TITLE": "Montezuma Peak BLM Herd Management Area"}}, {"type": "Feature", "geometry": {"type": "Point", "coordinates": [-117.405, 39.6094]}, "properties": {"NAME": "US-13043", "TITLE": "New Pass-Ravenswood BLM Herd Management Area"}}, {"type": "Feature", "geometry": {"type": "Point", "coordinates": [-117.578, 37.4303]}, "properties": {"NAME": "US-13044", "TITLE": "Palmetto BLM Herd Management Area"}}, {"type": "Feature", "geometry": {"type": "Point", "coordinates": [-115.953, 38.6349]}, "properties": {"NAME": "US-13045", "TITLE": "Pancake BLM Herd Management Area"}}, {"type": "Feature", "geometry": {"type": "Point", "coordinates": [-117.445, 38.0683]}, "properties": {"NAME": "US-13046", "TITLE": "Paymaster BLM Herd Management Area"}}, {"type": "Feature", "geometry": {"type": "Point", "coordinates": [-119.699, 39.1781]}, "properties": {"NAME": "US-13047", "TITLE": "Pine Nut Mountain BLM Herd Management Area"}}, {"type": "Feature", "geometry": {"type": "Point", "coordinates": [-116.47, 39.7742]}, "properties": {"NAME": "US-13048", "TITLE": "Rocky Hills BLM Herd Management Area"}}, {"type": "Feature", "geometry": {"type": "Point", "coordinates": [-119.082, 40.2521]}, "properties": {"NAME": "US-13049", "TITLE": "Shawave Mountains BLM Herd Management Area"}}, {"type": "Feature", "geometry": {"type": "Point", "coordinates": [-114.582, 38.0979]}, "properties": {"NAME": "US-13050", "TITLE": "Silver King BLM Herd Management Area"}}, {"type": "Feature", "geometry": {"type": "Point", "coordinates": [-117.821, 37.6597]}, "properties": {"NAME": "US-13051", "TITLE": "Silver Peak BLM Herd Management Area"}}, {"type": "Feature", "geometry": {"type": "Point", "coordinates": [-114.721, 40.6154]}, "properties": {"NAME": "US-13052", "TITLE": "Spruce-Pequop BLM Herd Management Area"}}, {"type": "Feature", "geometry": {"type": "Point", "coordinates": [-116.768, 38.1219]}, "properties": {"NAME": "US-13053", "TITLE": "Stone Cabin BLM Herd Management Area"}}, {"type": "Feature", "geometry": {"type": "Point", "coordinates": [-116.365, 38.0012]}, "properties": {"NAME": "US-13054", "TITLE": "Reveille BLM Herd Management Area"}}, {"type": "Feature", "geometry": {"type": "Point", "coordinates": [-115.176, 39.5932]}, "properties": {"NAME": "US-13055", "TITLE": "Triple B BLM Herd Management Area"}}, {"type": "Feature", "geometry": {"type": "Point", "coordinates": [-116.025, 39.6317]}, "properties": {"NAME": "US-13056", "TITLE": "Whistler Mountain BLM Herd Management Area"}}, {"type": "Feature", "geometry": {"type": "Point", "coordinates": [-119.227, 38.8102]}, "properties": {"NAME": "US-13058", "TITLE": "Wilson Canyon BLM Recreation Management Area"}}, {"type": "Feature", "geometry": {"type": "Point", "coordinates": [-118.062, 39.6943]}, "properties": {"NAME": "US-13062", "TITLE": "Dixie Valley Recreation Site"}}, {"type": "Feature", "geometry": {"type": "Point", "coordinates": [-119.823, 39.3033]}, "properties": {"NAME": "US-13064", "TITLE": "Scripps Wildlife Management Area"}}, {"type": "Feature", "geometry": {"type": "Point", "coordinates": [-115.959, 36.2154]}, "properties": {"NAME": "US-13112", "TITLE": "Johnnie BLM Herd Management Area"}}, {"type": "Feature", "geometry": {"type": "Point", "coordinates": [-115.894, 36.1731]}, "properties": {"NAME": "US-13113", "TITLE": "Wheeler Pass BLM Herd Management Area"}}, {"type": "Feature", "geometry": {"type": "Point", "coordinates": [-115.605, 35.996]}, "properties": {"NAME": "US-13114", "TITLE": "Red Rock BLM Herd Management Area"}}, {"type": "Feature", "geometry": {"type": "Point", "coordinates": [-114.164, 36.4754]}, "properties": {"NAME": "US-13115", "TITLE": "Gold Butte BLM Herd Management Area"}}, {"type": "Feature", "geometry": {"type": "Point", "coordinates": [-116.757, 36.8563]}, "properties": {"NAME": "US-13118", "TITLE": "Bullfrog BLM Herd Management Area"}}, {"type": "Feature", "geometry": {"type": "Point", "coordinates": [-117.157, 37.4337]}, "properties": {"NAME": "US-13119", "TITLE": "Stonewall BLM Herd Management Area"}}, {"type": "Feature", "geometry": {"type": "Point", "coordinates": [-116.814, 38.106]}, "properties": {"NAME": "US-13120", "TITLE": "Saulsbury BLM Herd Management Area"}}, {"type": "Feature", "geometry": {"type": "Point", "coordinates": [-117.592, 38.2107]}, "properties": {"NAME": "US-13121", "TITLE": "Pilot Mountain BLM Herd Management Area"}}, {"type": "Feature", "geometry": {"type": "Point", "coordinates": [-118.76, 39.2409]}, "properties": {"NAME": "US-13122", "TITLE": "Horse Mountain BLM Herd Management Area"}}, {"type": "Feature", "geometry": {"type": "Point", "coordinates": [-116.75, 40.203]}, "properties": {"NAME": "US-13123", "TITLE": "Bald Mountain BLM Herd Management Area"}}, {"type": "Feature", "geometry": {"type": "Point", "coordinates": [-119.353, 41.0414]}, "properties": {"NAME": "US-13124", "TITLE": "Calico Mountains BLM Herd Management Area"}}, {"type": "Feature", "geometry": {"type": "Point", "coordinates": [-117.457, 39.53]}, "properties": {"NAME": "US-13125", "TITLE": "Desatoya BLM Herd Management Area"}}, {"type": "Feature", "geometry": {"type": "Point", "coordinates": [-115.919, 39.542]}, "properties": {"NAME": "US-13126", "TITLE": "Diamond Complex BLM Herd Management Area"}}, {"type": "Feature", "geometry": {"type": "Point", "coordinates": [-119.956, 40.0155]}, "properties": {"NAME": "US-13127", "TITLE": "Fort Sage BLM Herd Management Area"}}, {"type": "Feature", "geometry": {"type": "Point", "coordinates": [-118.398, 41.5619]}, "properties": {"NAME": "US-13128", "TITLE": "Jackson Mountains BLM Herd Management Area"}}, {"type": "Feature", "geometry": {"type": "Point", "coordinates": [-119.194, 39.2798]}, "properties": {"NAME": "US-13129", "TITLE": "Lahontan BLM Herd Management Area"}}, {"type": "Feature", "geometry": {"type": "Point", "coordinates": [-119.128, 40.3457]}, "properties": {"NAME": "US-13130", "TITLE": "Lava Beds BLM Herd Management Area"}}, {"type": "Feature", "geometry": {"type": "Point", "coordinates": [-116.388, 38.8252]}, "properties": {"NAME": "US-13131", "TITLE": "Little Fish Lake BLM Herd Management Area"}}, {"type": "Feature", "geometry": {"type": "Point", "coordinates": [-116.229, 39.3307]}, "properties": {"NAME": "US-13132", "TITLE": "Seven Mile BLM Herd Management Area"}}, {"type": "Feature", "geometry": {"type": "Point", "coordinates": [-116.803, 41.2551]}, "properties": {"NAME": "US-13133", "TITLE": "Little Humboldt BLM Herd Management Area"}}, {"type": "Feature", "geometry": {"type": "Point", "coordinates": [-116.788, 41.2506]}, "properties": {"NAME": "US-13134", "TITLE": "Rock Creek BLM Herd Management Area"}}, {"type": "Feature", "geometry": {"type": "Point", "coordinates": [-118.745, 40.4213]}, "properties": {"NAME": "US-13135", "TITLE": "Seven Troughs BLM Herd Management Area"}}, {"type": "Feature", "geometry": {"type": "Point", "coordinates": [-118.275, 38.1051]}, "properties": {"NAME": "US-13136", "TITLE": "Marietta Wild Burro Range BLM Herd Management Area"}}, {"type": "Feature", "geometry": {"type": "Point", "coordinates": [-118.39, 38.0053]}, "properties": {"NAME": "US-13137", "TITLE": "Montgomery Pass BLM Herd Management Area"}}, {"type": "Feature", "geometry": {"type": "Point", "coordinates": [-118.989, 38.9912]}, "properties": {"NAME": "US-13138", "TITLE": "Wassuk BLM Herd Management Area"}}, {"type": "Feature", "geometry": {"type": "Point", "coordinates": [-114.728, 36.4576]}, "properties": {"NAME": "US-13139", "TITLE": "Muddy Mountains BLM Herd Management Area"}}, {"type": "Feature", "geometry": {"type": "Point", "coordinates": [-116.451, 39.4783]}, "properties": {"NAME": "US-13140", "TITLE": "North Monitor BLM Herd Management Area"}}, {"type": "Feature", "geometry": {"type": "Point", "coordinates": [-116.445, 39.6431]}, "properties": {"NAME": "US-13141", "TITLE": "Roberts Mountains BLM Herd Management Area"}}, {"type": "Feature", "geometry": {"type": "Point", "coordinates": [-117.031, 40.2817]}, "properties": {"NAME": "US-13142", "TITLE": "South Shoshone BLM Herd Management Area"}}, {"type": "Feature", "geometry": {"type": "Point", "coordinates": [-117.417, 40.6563]}, "properties": {"NAME": "US-13144", "TITLE": "Tobin Range BLM Herd Management Area"}}, {"type": "Feature", "geometry": {"type": "Point", "coordinates": [-119.028, 41.5752]}, "properties": {"NAME": "US-13145", "TITLE": "Warm Springs Canyon BLM Herd Management Area"}}, {"type": "Feature", "geometry": {"type": "Point", "coordinates": [-117.073, 40.3122]}, "properties": {"NAME": "US-13151", "TITLE": "Shoshone OHV Trail System BLM Recreation Management Area"}}, {"type": "Feature", "geometry": {"type": "Point", "coordinates": [-116.995, 40.3576]}, "properties": {"NAME": "US-13152", "TITLE": "Mill Creek-NV BLM Recreation Management Area"}}, {"type": "Feature", "geometry": {"type": "Point", "coordinates": [-118.866, 40.4154]}, "properties": {"NAME": "US-13153", "TITLE": "Porter Springs BLM Recreation Management Area"}}, {"type": "Feature", "geometry": {"type": "Point", "coordinates": [-115.39, 39.3365]}, "properties": {"NAME": "US-13154", "TITLE": "Illipah Reservoir BLM Recreation Management Area"}}, {"type": "Feature", "geometry": {"type": "Point", "coordinates": [-114.123, 39.0143]}, "properties": {"NAME": "US-13155", "TITLE": "Baker Archaeological Site BLM Historic Preservation Site"}}, {"type": "Feature", "geometry": {"type": "Point", "coordinates": [-116.738, 39.4487]}, "properties": {"NAME": "US-13162", "TITLE": "Hickison Petroglyph BLM Recreation Management Area"}}, {"type": "Feature", "geometry": {"type": "Point", "coordinates": [-115.274, 35.8049]}, "properties": {"NAME": "US-13163", "TITLE": "Jean/Roach Dry Lakes BLM Recreation Management Area"}}, {"type": "Feature", "geometry": {"type": "Point", "coordinates": [-114.952, 36.3072]}, "properties": {"NAME": "US-13164", "TITLE": "Nellis Dunes BLM Recreation Management Area"}}, {"type": "Feature", "geometry": {"type": "Point", "coordinates": [-116.585, 36.6474]}, "properties": {"NAME": "US-13165", "TITLE": "Big Dune BLM Special Recreation Management Area"}}, {"type": "Feature", "geometry": {"type": "Point", "coordinates": [-116.344, 41.6753]}, "properties": {"NAME": "US-13173", "TITLE": "Wilson Reservoir BLM Recreation Management Area"}}, {"type": "Feature", "geometry": {"type": "Point", "coordinates": [-116.988, 40.6112]}, "properties": {"NAME": "US-13175", "TITLE": "Copper Basin BLM Recreation Management Area"}}, {"type": "Feature", "geometry": {"type": "Point", "coordinates": [-116.826, 36.8903]}, "properties": {"NAME": "US-13177", "TITLE": "Rhyolite Historic Area-Nevada BLM Historic Area"}}, {"type": "Feature", "geometry": {"type": "Point", "coordinates": [-115.362, 37.6032]}, "properties": {"NAME": "US-13178", "TITLE": "Mt. Irish Archaeological Site Archeological Reserve"}}, {"type": "Feature", "geometry": {"type": "Point", "coordinates": [-118.559, 39.9625]}, "properties": {"NAME": "US-13180", "TITLE": "Lovelock Cave BLM Historic Preservation Site"}}, {"type": "Feature", "geometry": {"type": "Point", "coordinates": [-118.791, 41.675]}, "properties": {"NAME": "US-13181", "TITLE": "Pine Forest BLM Recreation Management Area"}}, {"type": "Feature", "geometry": {"type": "Point", "coordinates": [-115.04, 35.4893]}, "properties": {"NAME": "US-13183", "TITLE": "Walking Box Ranch Historic Site"}}, {"type": "Feature", "geometry": {"type": "Point", "coordinates": [-117.708, 41.0848]}, "properties": {"NAME": "US-13187", "TITLE": "Winnemucca Sand Dunes BLM Recreation Management Area"}}, {"type": "Feature", "geometry": {"type": "Point", "coordinates": [-114.951, 39.2851]}, "properties": {"NAME": "US-13188", "TITLE": "Garnet Hill BLM Recreation Management Area"}}, {"type": "Feature", "geometry": {"type": "Point", "coordinates": [-114.711, 37.6137]}, "properties": {"NAME": "US-13189", "TITLE": "Oak Springs Trilobite Site BLM Interpretive Site"}}, {"type": "Feature", "geometry": {"type": "Point", "coordinates": [-115.653, 40.4607]}, "properties": {"NAME": "US-13190", "TITLE": "Zunino/Jiggs Reservoir BLM Recreation Management Area"}}, {"type": "Feature", "geometry": {"type": "Point", "coordinates": [-115.108, 41.4103]}, "properties": {"NAME": "US-13191", "TITLE": "Tabor Creek Campground BLM Recreation Management Area"}}, {"type": "Feature", "geometry": {"type": "Point", "coordinates": [-114.753, 37.664]}, "properties": {"NAME": "US-13192", "TITLE": "Chief Mountain West National Recreation Area"}}, {"type": "Feature", "geometry": {"type": "Point", "coordinates": [-117.613, 37.6828]}, "properties": {"NAME": "US-13193", "TITLE": "Clayton Valley Sand Dunes BLM Recreation Management Area"}}, {"type": "Feature", "geometry": {"type": "Point", "coordinates": [-115.032, 39.3464]}, "properties": {"NAME": "US-13194", "TITLE": "Egan Crest Trailhead BLM Recreation Management Area"}}, {"type": "Feature", "geometry": {"type": "Point", "coordinates": [-119.739, 39.2814]}, "properties": {"NAME": "US-13195", "TITLE": "Jumbo Grade Trailhead BLM Historic Trail"}}, {"type": "Feature", "geometry": {"type": "Point", "coordinates": [-114.537, 37.9773]}, "properties": {"NAME": "US-13196", "TITLE": "Stampede-Nevada BLM Recreation Management Area"}}, {"type": "Feature", "geometry": {"type": "Point", "coordinates": [-117.197, 38.9385]}, "properties": {"NAME": "US-13197", "TITLE": "Ophir Mill BLM Historic Preservation Site"}}, {"type": "Feature", "geometry": {"type": "Point", "coordinates": [-117.696, 40.9709]}, "properties": {"NAME": "US-13199", "TITLE": "Bloody Shins Trail System BLM Recreation Management Area"}}, {"type": "Feature", "geometry": {"type": "Point", "coordinates": [-116.055, 38.4786]}, "properties": {"NAME": "US-13200", "TITLE": "Lunar Crater Back Country Byway National Landscape"}}]}